<?xml version="1.0" encoding="UTF-8"?>
<gpx creator="StravaGPX" version="1.1" xmlns="http://www.topografix.com/GPX/1/1" xmlns:xsi="http://www.w3.org/2001/XMLSchema-instance" xsi:schemaLocation="http://www.topografix.com/GPX/1/1 http://www.topografix.com/GPX/1/1/gpx.xsd">
 <metadata>
  <name>Hauernløpet 2024</name>
  <author>
   <name>Emil Løvgren</name>
   <link href="https://www.strava.com/athletes/2195432"/>
  </author>
  <copyright author="OpenStreetMap contributors">
   <year>2020</year>
   <license>https://www.openstreetmap.org/copyright</license>
  </copyright>
  <link href="https://www.strava.com/routes/3272883222327186598"/>
 </metadata>
 <trk>
  <name>Hauernløpet 2024</name>
  <link href="https://www.strava.com/routes/3272883222327186598"/>
  <type>running</type>
  <trkseg>
   <trkpt lat="59.752100000000006" lon="10.20377">
    <ele>213.44000000000003</ele>
   </trkpt>
   <trkpt lat="59.75198" lon="10.204590000000001">
    <ele>213.52</ele>
   </trkpt>
   <trkpt lat="59.75216" lon="10.205900000000002">
    <ele>213.35</ele>
   </trkpt>
   <trkpt lat="59.752100000000006" lon="10.20644">
    <ele>212.75000000000003</ele>
   </trkpt>
   <trkpt lat="59.75211" lon="10.20659">
    <ele>212.69000000000003</ele>
   </trkpt>
   <trkpt lat="59.75213000000001" lon="10.206740000000002">
    <ele>212.71</ele>
   </trkpt>
   <trkpt lat="59.75224000000001" lon="10.20715">
    <ele>213.09000000000003</ele>
   </trkpt>
   <trkpt lat="59.75238" lon="10.207460000000001">
    <ele>213.89000000000001</ele>
   </trkpt>
   <trkpt lat="59.75245" lon="10.20771">
    <ele>215.32</ele>
   </trkpt>
   <trkpt lat="59.752520000000004" lon="10.20819">
    <ele>217.25000000000003</ele>
   </trkpt>
   <trkpt lat="59.75254" lon="10.20842">
    <ele>217.19000000000003</ele>
   </trkpt>
   <trkpt lat="59.75256" lon="10.20913">
    <ele>216.85000000000002</ele>
   </trkpt>
   <trkpt lat="59.752590000000005" lon="10.2093">
    <ele>217.14000000000001</ele>
   </trkpt>
   <trkpt lat="59.75273000000001" lon="10.20955">
    <ele>217.43</ele>
   </trkpt>
   <trkpt lat="59.75280000000001" lon="10.209900000000001">
    <ele>218.59</ele>
   </trkpt>
   <trkpt lat="59.75285" lon="10.20996">
    <ele>220.07000000000002</ele>
   </trkpt>
   <trkpt lat="59.75292" lon="10.209980000000002">
    <ele>220.07000000000002</ele>
   </trkpt>
   <trkpt lat="59.75307000000001" lon="10.209950000000001">
    <ele>221.42</ele>
   </trkpt>
   <trkpt lat="59.753310000000006" lon="10.20977">
    <ele>224.85000000000002</ele>
   </trkpt>
   <trkpt lat="59.753490000000006" lon="10.209710000000001">
    <ele>227.5</ele>
   </trkpt>
   <trkpt lat="59.753730000000004" lon="10.20973">
    <ele>229.78</ele>
   </trkpt>
   <trkpt lat="59.75406" lon="10.20992">
    <ele>231.06</ele>
   </trkpt>
   <trkpt lat="59.75423000000001" lon="10.209990000000001">
    <ele>231.3</ele>
   </trkpt>
   <trkpt lat="59.75450000000001" lon="10.210030000000001">
    <ele>231.33</ele>
   </trkpt>
   <trkpt lat="59.754650000000005" lon="10.2101">
    <ele>230.96</ele>
   </trkpt>
   <trkpt lat="59.75531" lon="10.21024">
    <ele>229.08</ele>
   </trkpt>
   <trkpt lat="59.75551000000001" lon="10.210270000000001">
    <ele>228.58</ele>
   </trkpt>
   <trkpt lat="59.75565" lon="10.21025">
    <ele>228.58</ele>
   </trkpt>
   <trkpt lat="59.755790000000005" lon="10.210270000000001">
    <ele>228.02</ele>
   </trkpt>
   <trkpt lat="59.75602000000001" lon="10.21035">
    <ele>228.71</ele>
   </trkpt>
   <trkpt lat="59.75614" lon="10.210370000000001">
    <ele>229.71</ele>
   </trkpt>
   <trkpt lat="59.75663000000001" lon="10.21029">
    <ele>230.17000000000002</ele>
   </trkpt>
   <trkpt lat="59.756780000000006" lon="10.210310000000002">
    <ele>229.11</ele>
   </trkpt>
   <trkpt lat="59.75697" lon="10.2102">
    <ele>231.0</ele>
   </trkpt>
   <trkpt lat="59.75706" lon="10.210080000000001">
    <ele>232.15</ele>
   </trkpt>
   <trkpt lat="59.75714000000001" lon="10.20992">
    <ele>233.97</ele>
   </trkpt>
   <trkpt lat="59.757340000000006" lon="10.209890000000001">
    <ele>238.20000000000002</ele>
   </trkpt>
   <trkpt lat="59.75761000000001" lon="10.209790000000002">
    <ele>241.85</ele>
   </trkpt>
   <trkpt lat="59.75782" lon="10.209750000000001">
    <ele>243.40000000000003</ele>
   </trkpt>
   <trkpt lat="59.758030000000005" lon="10.20968">
    <ele>244.08</ele>
   </trkpt>
   <trkpt lat="59.758340000000004" lon="10.20936">
    <ele>246.32</ele>
   </trkpt>
   <trkpt lat="59.75862000000001" lon="10.20913">
    <ele>247.02</ele>
   </trkpt>
   <trkpt lat="59.758880000000005" lon="10.209090000000002">
    <ele>246.66000000000003</ele>
   </trkpt>
   <trkpt lat="59.75923" lon="10.20885">
    <ele>246.91000000000003</ele>
   </trkpt>
   <trkpt lat="59.75943" lon="10.208760000000002">
    <ele>246.53000000000003</ele>
   </trkpt>
   <trkpt lat="59.759550000000004" lon="10.20875">
    <ele>246.23000000000002</ele>
   </trkpt>
   <trkpt lat="59.759780000000006" lon="10.20898">
    <ele>243.95000000000002</ele>
   </trkpt>
   <trkpt lat="59.75987000000001" lon="10.209000000000001">
    <ele>242.64000000000001</ele>
   </trkpt>
   <trkpt lat="59.75995" lon="10.20894">
    <ele>241.08</ele>
   </trkpt>
   <trkpt lat="59.76006" lon="10.20893">
    <ele>238.20000000000002</ele>
   </trkpt>
   <trkpt lat="59.76015" lon="10.20898">
    <ele>236.49</ele>
   </trkpt>
   <trkpt lat="59.76037" lon="10.20935">
    <ele>235.57000000000002</ele>
   </trkpt>
   <trkpt lat="59.76053" lon="10.20935">
    <ele>237.59000000000003</ele>
   </trkpt>
   <trkpt lat="59.761050000000004" lon="10.209140000000001">
    <ele>245.47000000000003</ele>
   </trkpt>
   <trkpt lat="59.76129" lon="10.20907">
    <ele>247.50000000000003</ele>
   </trkpt>
   <trkpt lat="59.761340000000004" lon="10.20902">
    <ele>247.59000000000003</ele>
   </trkpt>
   <trkpt lat="59.76151000000001" lon="10.20869">
    <ele>246.25000000000003</ele>
   </trkpt>
   <trkpt lat="59.761610000000005" lon="10.208620000000002">
    <ele>246.21</ele>
   </trkpt>
   <trkpt lat="59.761680000000005" lon="10.208110000000001">
    <ele>251.88000000000005</ele>
   </trkpt>
   <trkpt lat="59.761720000000004" lon="10.20803">
    <ele>251.88000000000005</ele>
   </trkpt>
   <trkpt lat="59.76203" lon="10.207680000000002">
    <ele>255.81000000000003</ele>
   </trkpt>
   <trkpt lat="59.762100000000004" lon="10.20766">
    <ele>255.79000000000002</ele>
   </trkpt>
   <trkpt lat="59.7623" lon="10.207690000000001">
    <ele>257.39</ele>
   </trkpt>
   <trkpt lat="59.76236000000001" lon="10.207680000000002">
    <ele>256.68</ele>
   </trkpt>
   <trkpt lat="59.76238000000001" lon="10.20766">
    <ele>256.68</ele>
   </trkpt>
   <trkpt lat="59.762370000000004" lon="10.20756">
    <ele>256.98</ele>
   </trkpt>
   <trkpt lat="59.76245000000001" lon="10.207460000000001">
    <ele>259.14000000000004</ele>
   </trkpt>
   <trkpt lat="59.76254000000001" lon="10.20743">
    <ele>263.83</ele>
   </trkpt>
   <trkpt lat="59.762640000000005" lon="10.207540000000002">
    <ele>264.18</ele>
   </trkpt>
   <trkpt lat="59.76288" lon="10.20766">
    <ele>266.13000000000005</ele>
   </trkpt>
   <trkpt lat="59.76308" lon="10.207640000000001">
    <ele>267.18</ele>
   </trkpt>
   <trkpt lat="59.763180000000006" lon="10.20758">
    <ele>268.87</ele>
   </trkpt>
   <trkpt lat="59.76355" lon="10.20728">
    <ele>269.38</ele>
   </trkpt>
   <trkpt lat="59.763600000000004" lon="10.207270000000001">
    <ele>269.38</ele>
   </trkpt>
   <trkpt lat="59.76370000000001" lon="10.20729">
    <ele>269.21</ele>
   </trkpt>
   <trkpt lat="59.763830000000006" lon="10.20728">
    <ele>268.99</ele>
   </trkpt>
   <trkpt lat="59.76390000000001" lon="10.20724">
    <ele>268.59</ele>
   </trkpt>
   <trkpt lat="59.76402" lon="10.20724">
    <ele>267.23</ele>
   </trkpt>
   <trkpt lat="59.764070000000004" lon="10.2073">
    <ele>266.18</ele>
   </trkpt>
   <trkpt lat="59.76418" lon="10.207220000000001">
    <ele>262.57</ele>
   </trkpt>
   <trkpt lat="59.764340000000004" lon="10.20716">
    <ele>262.57</ele>
   </trkpt>
   <trkpt lat="59.76438" lon="10.2071">
    <ele>260.34000000000003</ele>
   </trkpt>
   <trkpt lat="59.76444000000001" lon="10.206790000000002">
    <ele>258.07</ele>
   </trkpt>
   <trkpt lat="59.764480000000006" lon="10.206240000000001">
    <ele>254.58</ele>
   </trkpt>
   <trkpt lat="59.764480000000006" lon="10.206040000000002">
    <ele>254.10000000000005</ele>
   </trkpt>
   <trkpt lat="59.76433000000001" lon="10.205850000000002">
    <ele>254.12</ele>
   </trkpt>
   <trkpt lat="59.76442000000001" lon="10.205720000000001">
    <ele>253.60000000000005</ele>
   </trkpt>
   <trkpt lat="59.764480000000006" lon="10.205540000000001">
    <ele>252.88</ele>
   </trkpt>
   <trkpt lat="59.764520000000005" lon="10.205100000000002">
    <ele>252.46</ele>
   </trkpt>
   <trkpt lat="59.76447" lon="10.20382">
    <ele>248.51</ele>
   </trkpt>
   <trkpt lat="59.764570000000006" lon="10.20311">
    <ele>250.24</ele>
   </trkpt>
   <trkpt lat="59.76465" lon="10.203890000000001">
    <ele>246.67000000000002</ele>
   </trkpt>
   <trkpt lat="59.764720000000004" lon="10.204270000000001">
    <ele>244.70000000000002</ele>
   </trkpt>
   <trkpt lat="59.76484000000001" lon="10.204740000000001">
    <ele>241.98000000000002</ele>
   </trkpt>
   <trkpt lat="59.76487" lon="10.20532">
    <ele>239.73000000000002</ele>
   </trkpt>
   <trkpt lat="59.76489000000001" lon="10.20542">
    <ele>239.49</ele>
   </trkpt>
   <trkpt lat="59.76493000000001" lon="10.205530000000001">
    <ele>239.13</ele>
   </trkpt>
   <trkpt lat="59.76514" lon="10.205850000000002">
    <ele>238.39000000000001</ele>
   </trkpt>
   <trkpt lat="59.7653" lon="10.20639">
    <ele>236.92000000000002</ele>
   </trkpt>
   <trkpt lat="59.76538000000001" lon="10.20739">
    <ele>232.38000000000002</ele>
   </trkpt>
   <trkpt lat="59.765330000000006" lon="10.207730000000002">
    <ele>231.05</ele>
   </trkpt>
   <trkpt lat="59.76529000000001" lon="10.207870000000002">
    <ele>231.05</ele>
   </trkpt>
   <trkpt lat="59.765280000000004" lon="10.208010000000002">
    <ele>230.30000000000004</ele>
   </trkpt>
   <trkpt lat="59.76532" lon="10.20828">
    <ele>227.77</ele>
   </trkpt>
   <trkpt lat="59.7653" lon="10.208580000000001">
    <ele>226.65</ele>
   </trkpt>
   <trkpt lat="59.76523" lon="10.20874">
    <ele>225.37</ele>
   </trkpt>
   <trkpt lat="59.76522000000001" lon="10.20893">
    <ele>223.84</ele>
   </trkpt>
   <trkpt lat="59.765280000000004" lon="10.209100000000001">
    <ele>221.34</ele>
   </trkpt>
   <trkpt lat="59.76536000000001" lon="10.209140000000001">
    <ele>220.58</ele>
   </trkpt>
   <trkpt lat="59.76554" lon="10.209140000000001">
    <ele>219.88000000000002</ele>
   </trkpt>
   <trkpt lat="59.76568" lon="10.20912">
    <ele>219.3</ele>
   </trkpt>
   <trkpt lat="59.76612000000001" lon="10.209000000000001">
    <ele>214.9</ele>
   </trkpt>
   <trkpt lat="59.76662" lon="10.20875">
    <ele>205.78</ele>
   </trkpt>
   <trkpt lat="59.76677000000001" lon="10.20871">
    <ele>203.67000000000002</ele>
   </trkpt>
   <trkpt lat="59.76693" lon="10.20861">
    <ele>202.70000000000002</ele>
   </trkpt>
   <trkpt lat="59.76708000000001" lon="10.208440000000001">
    <ele>200.60000000000002</ele>
   </trkpt>
   <trkpt lat="59.76724000000001" lon="10.20833">
    <ele>199.33</ele>
   </trkpt>
   <trkpt lat="59.76733000000001" lon="10.20832">
    <ele>198.66</ele>
   </trkpt>
   <trkpt lat="59.767430000000004" lon="10.20836">
    <ele>197.86</ele>
   </trkpt>
   <trkpt lat="59.767630000000004" lon="10.208580000000001">
    <ele>196.69</ele>
   </trkpt>
   <trkpt lat="59.76780000000001" lon="10.208720000000001">
    <ele>194.53</ele>
   </trkpt>
   <trkpt lat="59.768330000000006" lon="10.20875">
    <ele>192.4</ele>
   </trkpt>
   <trkpt lat="59.768930000000005" lon="10.208440000000001">
    <ele>189.64</ele>
   </trkpt>
   <trkpt lat="59.76930000000001" lon="10.20771">
    <ele>186.99</ele>
   </trkpt>
   <trkpt lat="59.769380000000005" lon="10.207500000000001">
    <ele>187.29000000000002</ele>
   </trkpt>
   <trkpt lat="59.769670000000005" lon="10.20697">
    <ele>185.37</ele>
   </trkpt>
   <trkpt lat="59.769830000000006" lon="10.206740000000002">
    <ele>187.24</ele>
   </trkpt>
   <trkpt lat="59.76991" lon="10.206560000000001">
    <ele>188.71</ele>
   </trkpt>
   <trkpt lat="59.76995" lon="10.20625">
    <ele>191.76000000000002</ele>
   </trkpt>
   <trkpt lat="59.769940000000005" lon="10.205630000000001">
    <ele>194.12</ele>
   </trkpt>
   <trkpt lat="59.76999000000001" lon="10.20527">
    <ele>194.55</ele>
   </trkpt>
   <trkpt lat="59.769980000000004" lon="10.20505">
    <ele>194.46</ele>
   </trkpt>
   <trkpt lat="59.770010000000006" lon="10.204930000000001">
    <ele>194.06</ele>
   </trkpt>
   <trkpt lat="59.77011" lon="10.204730000000001">
    <ele>192.83</ele>
   </trkpt>
   <trkpt lat="59.77022" lon="10.20443">
    <ele>191.84</ele>
   </trkpt>
   <trkpt lat="59.77024000000001" lon="10.204310000000001">
    <ele>191.88000000000002</ele>
   </trkpt>
   <trkpt lat="59.770230000000005" lon="10.20382">
    <ele>193.91000000000003</ele>
   </trkpt>
   <trkpt lat="59.770250000000004" lon="10.203140000000001">
    <ele>196.33</ele>
   </trkpt>
   <trkpt lat="59.770210000000006" lon="10.2025">
    <ele>199.05</ele>
   </trkpt>
   <trkpt lat="59.770270000000004" lon="10.20209">
    <ele>200.05</ele>
   </trkpt>
   <trkpt lat="59.770390000000006" lon="10.20181">
    <ele>200.24000000000004</ele>
   </trkpt>
   <trkpt lat="59.7704" lon="10.2017">
    <ele>200.12</ele>
   </trkpt>
   <trkpt lat="59.770340000000004" lon="10.201490000000002">
    <ele>199.36</ele>
   </trkpt>
   <trkpt lat="59.77019000000001" lon="10.201300000000002">
    <ele>198.96</ele>
   </trkpt>
   <trkpt lat="59.77015000000001" lon="10.20106">
    <ele>198.10000000000002</ele>
   </trkpt>
   <trkpt lat="59.77019000000001" lon="10.200740000000001">
    <ele>197.01000000000002</ele>
   </trkpt>
   <trkpt lat="59.77019000000001" lon="10.20006">
    <ele>194.15</ele>
   </trkpt>
   <trkpt lat="59.770160000000004" lon="10.19987">
    <ele>194.5</ele>
   </trkpt>
   <trkpt lat="59.77018" lon="10.199190000000002">
    <ele>196.89000000000001</ele>
   </trkpt>
   <trkpt lat="59.770230000000005" lon="10.19888">
    <ele>194.94</ele>
   </trkpt>
   <trkpt lat="59.77031" lon="10.198590000000001">
    <ele>193.85000000000002</ele>
   </trkpt>
   <trkpt lat="59.77042" lon="10.198390000000002">
    <ele>193.05</ele>
   </trkpt>
   <trkpt lat="59.770680000000006" lon="10.19813">
    <ele>191.99</ele>
   </trkpt>
   <trkpt lat="59.770770000000006" lon="10.198060000000002">
    <ele>191.9</ele>
   </trkpt>
   <trkpt lat="59.770830000000004" lon="10.197920000000002">
    <ele>192.67000000000002</ele>
   </trkpt>
   <trkpt lat="59.770860000000006" lon="10.19777">
    <ele>193.13000000000002</ele>
   </trkpt>
   <trkpt lat="59.77087" lon="10.197220000000002">
    <ele>195.70000000000002</ele>
   </trkpt>
   <trkpt lat="59.770990000000005" lon="10.196530000000001">
    <ele>193.88000000000002</ele>
   </trkpt>
   <trkpt lat="59.77102000000001" lon="10.19627">
    <ele>193.09</ele>
   </trkpt>
   <trkpt lat="59.770990000000005" lon="10.195950000000002">
    <ele>192.62</ele>
   </trkpt>
   <trkpt lat="59.77084000000001" lon="10.19542">
    <ele>193.28</ele>
   </trkpt>
   <trkpt lat="59.77075000000001" lon="10.195250000000001">
    <ele>193.74</ele>
   </trkpt>
   <trkpt lat="59.77064000000001" lon="10.1951">
    <ele>194.92000000000002</ele>
   </trkpt>
   <trkpt lat="59.770570000000006" lon="10.194970000000001">
    <ele>195.4</ele>
   </trkpt>
   <trkpt lat="59.770480000000006" lon="10.19468">
    <ele>195.69</ele>
   </trkpt>
   <trkpt lat="59.7702" lon="10.193330000000001">
    <ele>199.02</ele>
   </trkpt>
   <trkpt lat="59.770140000000005" lon="10.19317">
    <ele>199.02</ele>
   </trkpt>
   <trkpt lat="59.77008000000001" lon="10.193100000000001">
    <ele>199.02</ele>
   </trkpt>
   <trkpt lat="59.76997000000001" lon="10.19303">
    <ele>199.9</ele>
   </trkpt>
   <trkpt lat="59.76988000000001" lon="10.193010000000001">
    <ele>200.32000000000002</ele>
   </trkpt>
   <trkpt lat="59.76972000000001" lon="10.19308">
    <ele>200.98000000000002</ele>
   </trkpt>
   <trkpt lat="59.76964" lon="10.19308">
    <ele>201.13</ele>
   </trkpt>
   <trkpt lat="59.769600000000004" lon="10.19303">
    <ele>201.15</ele>
   </trkpt>
   <trkpt lat="59.76957" lon="10.19285">
    <ele>201.13</ele>
   </trkpt>
   <trkpt lat="59.769580000000005" lon="10.192430000000002">
    <ele>201.32000000000002</ele>
   </trkpt>
   <trkpt lat="59.76946" lon="10.191500000000001">
    <ele>205.83</ele>
   </trkpt>
   <trkpt lat="59.76941000000001" lon="10.19133">
    <ele>206.14000000000001</ele>
   </trkpt>
   <trkpt lat="59.76941000000001" lon="10.191320000000001">
    <ele>206.17000000000002</ele>
   </trkpt>
   <trkpt lat="59.76959000000001" lon="10.19115">
    <ele>205.40000000000003</ele>
   </trkpt>
   <trkpt lat="59.76979000000001" lon="10.190850000000001">
    <ele>203.42000000000002</ele>
   </trkpt>
   <trkpt lat="59.76990000000001" lon="10.190750000000001">
    <ele>202.17000000000002</ele>
   </trkpt>
   <trkpt lat="59.77018" lon="10.190600000000002">
    <ele>201.02</ele>
   </trkpt>
   <trkpt lat="59.77031" lon="10.190620000000001">
    <ele>200.35000000000002</ele>
   </trkpt>
   <trkpt lat="59.77058" lon="10.19072">
    <ele>198.62</ele>
   </trkpt>
   <trkpt lat="59.77076" lon="10.190710000000001">
    <ele>198.15</ele>
   </trkpt>
   <trkpt lat="59.771240000000006" lon="10.190370000000001">
    <ele>200.02</ele>
   </trkpt>
   <trkpt lat="59.77160000000001" lon="10.190180000000002">
    <ele>202.82000000000002</ele>
   </trkpt>
   <trkpt lat="59.77176000000001" lon="10.19017">
    <ele>203.27</ele>
   </trkpt>
   <trkpt lat="59.771890000000006" lon="10.190280000000001">
    <ele>202.70000000000002</ele>
   </trkpt>
   <trkpt lat="59.771950000000004" lon="10.1903">
    <ele>201.29000000000002</ele>
   </trkpt>
   <trkpt lat="59.77223000000001" lon="10.190240000000001">
    <ele>197.10000000000002</ele>
   </trkpt>
   <trkpt lat="59.772330000000004" lon="10.190270000000002">
    <ele>195.9</ele>
   </trkpt>
   <trkpt lat="59.77248" lon="10.1904">
    <ele>195.98000000000002</ele>
   </trkpt>
   <trkpt lat="59.772780000000004" lon="10.190900000000001">
    <ele>198.27000000000004</ele>
   </trkpt>
   <trkpt lat="59.772830000000006" lon="10.190940000000001">
    <ele>198.18</ele>
   </trkpt>
   <trkpt lat="59.77299000000001" lon="10.190940000000001">
    <ele>197.44</ele>
   </trkpt>
   <trkpt lat="59.77311" lon="10.19142">
    <ele>194.29000000000002</ele>
   </trkpt>
   <trkpt lat="59.77315000000001" lon="10.191510000000001">
    <ele>194.29000000000002</ele>
   </trkpt>
   <trkpt lat="59.77322" lon="10.19161">
    <ele>193.56</ele>
   </trkpt>
   <trkpt lat="59.773430000000005" lon="10.191820000000002">
    <ele>192.07000000000002</ele>
   </trkpt>
   <trkpt lat="59.77366000000001" lon="10.191970000000001">
    <ele>191.5</ele>
   </trkpt>
   <trkpt lat="59.773900000000005" lon="10.192060000000001">
    <ele>190.83</ele>
   </trkpt>
   <trkpt lat="59.77407" lon="10.19209">
    <ele>190.34</ele>
   </trkpt>
   <trkpt lat="59.77449000000001" lon="10.192060000000001">
    <ele>189.52</ele>
   </trkpt>
   <trkpt lat="59.77461" lon="10.19213">
    <ele>189.73000000000002</ele>
   </trkpt>
   <trkpt lat="59.77497" lon="10.192570000000002">
    <ele>191.53</ele>
   </trkpt>
   <trkpt lat="59.77523000000001" lon="10.19302">
    <ele>191.83</ele>
   </trkpt>
   <trkpt lat="59.77535" lon="10.193380000000001">
    <ele>191.06</ele>
   </trkpt>
   <trkpt lat="59.77543000000001" lon="10.193750000000001">
    <ele>190.75</ele>
   </trkpt>
   <trkpt lat="59.77548" lon="10.193900000000001">
    <ele>190.67000000000002</ele>
   </trkpt>
   <trkpt lat="59.77561000000001" lon="10.19416">
    <ele>190.60000000000002</ele>
   </trkpt>
   <trkpt lat="59.775710000000004" lon="10.194540000000002">
    <ele>189.82000000000002</ele>
   </trkpt>
   <trkpt lat="59.77577" lon="10.19434">
    <ele>190.08</ele>
   </trkpt>
   <trkpt lat="59.77581000000001" lon="10.194270000000001">
    <ele>190.08</ele>
   </trkpt>
   <trkpt lat="59.775870000000005" lon="10.19421">
    <ele>190.45000000000002</ele>
   </trkpt>
   <trkpt lat="59.77628000000001" lon="10.193950000000001">
    <ele>192.46</ele>
   </trkpt>
   <trkpt lat="59.77638" lon="10.193840000000002">
    <ele>192.84</ele>
   </trkpt>
   <trkpt lat="59.77646000000001" lon="10.193710000000001">
    <ele>193.08</ele>
   </trkpt>
   <trkpt lat="59.77662000000001" lon="10.193380000000001">
    <ele>192.94000000000003</ele>
   </trkpt>
   <trkpt lat="59.77678" lon="10.19312">
    <ele>195.55</ele>
   </trkpt>
   <trkpt lat="59.77684000000001" lon="10.19307">
    <ele>196.11</ele>
   </trkpt>
   <trkpt lat="59.776830000000004" lon="10.19302">
    <ele>196.11</ele>
   </trkpt>
   <trkpt lat="59.77687" lon="10.19284">
    <ele>196.87</ele>
   </trkpt>
   <trkpt lat="59.77698" lon="10.19256">
    <ele>197.87</ele>
   </trkpt>
   <trkpt lat="59.77718000000001" lon="10.1928">
    <ele>197.54000000000002</ele>
   </trkpt>
   <trkpt lat="59.77727" lon="10.19284">
    <ele>197.55</ele>
   </trkpt>
   <trkpt lat="59.777420000000006" lon="10.19285">
    <ele>198.05</ele>
   </trkpt>
   <trkpt lat="59.777590000000004" lon="10.1928">
    <ele>199.41</ele>
   </trkpt>
   <trkpt lat="59.77774" lon="10.19283">
    <ele>199.93</ele>
   </trkpt>
   <trkpt lat="59.777910000000006" lon="10.19279">
    <ele>200.14000000000001</ele>
   </trkpt>
   <trkpt lat="59.77801" lon="10.1928">
    <ele>200.47</ele>
   </trkpt>
   <trkpt lat="59.77812000000001" lon="10.192760000000002">
    <ele>200.91</ele>
   </trkpt>
   <trkpt lat="59.778270000000006" lon="10.19274">
    <ele>201.09</ele>
   </trkpt>
   <trkpt lat="59.778330000000004" lon="10.19269">
    <ele>201.05</ele>
   </trkpt>
   <trkpt lat="59.77839" lon="10.192580000000001">
    <ele>200.8</ele>
   </trkpt>
   <trkpt lat="59.77850000000001" lon="10.19251">
    <ele>200.67000000000002</ele>
   </trkpt>
   <trkpt lat="59.77873" lon="10.192580000000001">
    <ele>200.13000000000002</ele>
   </trkpt>
   <trkpt lat="59.77908000000001" lon="10.19283">
    <ele>198.11</ele>
   </trkpt>
   <trkpt lat="59.77919000000001" lon="10.19278">
    <ele>196.82000000000002</ele>
   </trkpt>
   <trkpt lat="59.779340000000005" lon="10.19274">
    <ele>194.42000000000002</ele>
   </trkpt>
   <trkpt lat="59.77975000000001" lon="10.19251">
    <ele>192.45000000000002</ele>
   </trkpt>
   <trkpt lat="59.779900000000005" lon="10.192400000000001">
    <ele>192.70000000000002</ele>
   </trkpt>
   <trkpt lat="59.78020000000001" lon="10.19214">
    <ele>193.82000000000002</ele>
   </trkpt>
   <trkpt lat="59.78032" lon="10.192010000000002">
    <ele>194.56</ele>
   </trkpt>
   <trkpt lat="59.78049000000001" lon="10.19175">
    <ele>196.16000000000003</ele>
   </trkpt>
   <trkpt lat="59.780840000000005" lon="10.191460000000001">
    <ele>197.21</ele>
   </trkpt>
   <trkpt lat="59.78117" lon="10.1911">
    <ele>197.70000000000002</ele>
   </trkpt>
   <trkpt lat="59.781330000000004" lon="10.190840000000001">
    <ele>198.82000000000002</ele>
   </trkpt>
   <trkpt lat="59.78163000000001" lon="10.19017">
    <ele>203.29000000000002</ele>
   </trkpt>
   <trkpt lat="59.781940000000006" lon="10.189240000000002">
    <ele>208.36</ele>
   </trkpt>
   <trkpt lat="59.782000000000004" lon="10.18912">
    <ele>209.3</ele>
   </trkpt>
   <trkpt lat="59.782320000000006" lon="10.1889">
    <ele>210.32</ele>
   </trkpt>
   <trkpt lat="59.78289" lon="10.18809">
    <ele>211.03000000000003</ele>
   </trkpt>
   <trkpt lat="59.782970000000006" lon="10.18804">
    <ele>211.50000000000003</ele>
   </trkpt>
   <trkpt lat="59.783100000000005" lon="10.18806">
    <ele>212.58</ele>
   </trkpt>
   <trkpt lat="59.783370000000005" lon="10.187990000000001">
    <ele>217.39000000000001</ele>
   </trkpt>
   <trkpt lat="59.78343" lon="10.187940000000001">
    <ele>218.15</ele>
   </trkpt>
   <trkpt lat="59.783570000000005" lon="10.187660000000001">
    <ele>222.74</ele>
   </trkpt>
   <trkpt lat="59.7837" lon="10.187510000000001">
    <ele>225.21</ele>
   </trkpt>
   <trkpt lat="59.783770000000004" lon="10.18748">
    <ele>225.85000000000002</ele>
   </trkpt>
   <trkpt lat="59.78396000000001" lon="10.18759">
    <ele>226.46</ele>
   </trkpt>
   <trkpt lat="59.784090000000006" lon="10.18764">
    <ele>225.64000000000001</ele>
   </trkpt>
   <trkpt lat="59.78428" lon="10.18758">
    <ele>223.3</ele>
   </trkpt>
   <trkpt lat="59.784510000000004" lon="10.187370000000001">
    <ele>221.78</ele>
   </trkpt>
   <trkpt lat="59.78468" lon="10.18735">
    <ele>222.12</ele>
   </trkpt>
   <trkpt lat="59.78481000000001" lon="10.187280000000001">
    <ele>222.75000000000003</ele>
   </trkpt>
   <trkpt lat="59.78515" lon="10.186800000000002">
    <ele>223.62</ele>
   </trkpt>
   <trkpt lat="59.785160000000005" lon="10.18679">
    <ele>223.62</ele>
   </trkpt>
   <trkpt lat="59.785270000000004" lon="10.186580000000001">
    <ele>223.68</ele>
   </trkpt>
   <trkpt lat="59.78530000000001" lon="10.186430000000001">
    <ele>223.20000000000002</ele>
   </trkpt>
   <trkpt lat="59.785320000000006" lon="10.18617">
    <ele>222.08</ele>
   </trkpt>
   <trkpt lat="59.785430000000005" lon="10.185920000000001">
    <ele>221.25000000000003</ele>
   </trkpt>
   <trkpt lat="59.78571" lon="10.18546">
    <ele>222.77</ele>
   </trkpt>
   <trkpt lat="59.78578" lon="10.185250000000002">
    <ele>223.10000000000002</ele>
   </trkpt>
   <trkpt lat="59.78604000000001" lon="10.185">
    <ele>223.60000000000002</ele>
   </trkpt>
   <trkpt lat="59.78598" lon="10.18473">
    <ele>224.60000000000002</ele>
   </trkpt>
   <trkpt lat="59.785970000000006" lon="10.18453">
    <ele>227.70000000000002</ele>
   </trkpt>
   <trkpt lat="59.78602000000001" lon="10.184130000000001">
    <ele>231.18</ele>
   </trkpt>
   <trkpt lat="59.78596" lon="10.18359">
    <ele>232.60000000000002</ele>
   </trkpt>
   <trkpt lat="59.78591000000001" lon="10.183420000000002">
    <ele>233.18000000000004</ele>
   </trkpt>
   <trkpt lat="59.78582000000001" lon="10.18323">
    <ele>233.57000000000002</ele>
   </trkpt>
   <trkpt lat="59.78538" lon="10.182780000000001">
    <ele>237.54000000000002</ele>
   </trkpt>
   <trkpt lat="59.78515" lon="10.182730000000001">
    <ele>239.66</ele>
   </trkpt>
   <trkpt lat="59.785070000000005" lon="10.182770000000001">
    <ele>241.16</ele>
   </trkpt>
   <trkpt lat="59.78495" lon="10.182970000000001">
    <ele>244.3</ele>
   </trkpt>
   <trkpt lat="59.784850000000006" lon="10.18307">
    <ele>247.11</ele>
   </trkpt>
   <trkpt lat="59.784800000000004" lon="10.18308">
    <ele>247.11</ele>
   </trkpt>
   <trkpt lat="59.78473" lon="10.183050000000001">
    <ele>249.60000000000002</ele>
   </trkpt>
   <trkpt lat="59.78455" lon="10.1828">
    <ele>254.07000000000002</ele>
   </trkpt>
   <trkpt lat="59.784330000000004" lon="10.18265">
    <ele>258.48</ele>
   </trkpt>
   <trkpt lat="59.78394000000001" lon="10.18256">
    <ele>262.68</ele>
   </trkpt>
   <trkpt lat="59.78379" lon="10.182440000000001">
    <ele>263.49</ele>
   </trkpt>
   <trkpt lat="59.78369000000001" lon="10.182400000000001">
    <ele>264.08000000000004</ele>
   </trkpt>
   <trkpt lat="59.783530000000006" lon="10.18255">
    <ele>265.68</ele>
   </trkpt>
   <trkpt lat="59.78345" lon="10.182540000000001">
    <ele>265.95</ele>
   </trkpt>
   <trkpt lat="59.78329000000001" lon="10.182360000000001">
    <ele>265.59000000000003</ele>
   </trkpt>
   <trkpt lat="59.783190000000005" lon="10.182310000000001">
    <ele>265.76</ele>
   </trkpt>
   <trkpt lat="59.783100000000005" lon="10.182360000000001">
    <ele>266.3</ele>
   </trkpt>
   <trkpt lat="59.78293000000001" lon="10.18229">
    <ele>266.82</ele>
   </trkpt>
   <trkpt lat="59.782520000892696" lon="10.18177999361647">
    <ele>270.55</ele>
   </trkpt>
   <trkpt lat="59.78211" lon="10.181270000000001">
    <ele>271.38</ele>
   </trkpt>
   <trkpt lat="59.78173" lon="10.181140000000001">
    <ele>272.44</ele>
   </trkpt>
   <trkpt lat="59.781670000000005" lon="10.181090000000001">
    <ele>272.6</ele>
   </trkpt>
   <trkpt lat="59.78161000000001" lon="10.180950000000001">
    <ele>273.17</ele>
   </trkpt>
   <trkpt lat="59.781470000000006" lon="10.180480000000001">
    <ele>275.17</ele>
   </trkpt>
   <trkpt lat="59.78141000000001" lon="10.180370000000002">
    <ele>275.6</ele>
   </trkpt>
   <trkpt lat="59.78161000000001" lon="10.18007">
    <ele>275.40000000000003</ele>
   </trkpt>
   <trkpt lat="59.781690000000005" lon="10.18002">
    <ele>275.48</ele>
   </trkpt>
   <trkpt lat="59.78181000000001" lon="10.18003">
    <ele>276.08000000000004</ele>
   </trkpt>
   <trkpt lat="59.781890000000004" lon="10.17997">
    <ele>276.08000000000004</ele>
   </trkpt>
   <trkpt lat="59.782000000000004" lon="10.17979">
    <ele>276.84000000000003</ele>
   </trkpt>
   <trkpt lat="59.78208000000001" lon="10.17955">
    <ele>277.74</ele>
   </trkpt>
   <trkpt lat="59.78219000000001" lon="10.179070000000001">
    <ele>280.65</ele>
   </trkpt>
   <trkpt lat="59.78239000000001" lon="10.17852">
    <ele>282.29</ele>
   </trkpt>
   <trkpt lat="59.78248000000001" lon="10.1782">
    <ele>284.66</ele>
   </trkpt>
   <trkpt lat="59.78255000000001" lon="10.178090000000001">
    <ele>287.45000000000005</ele>
   </trkpt>
   <trkpt lat="59.78267" lon="10.177980000000002">
    <ele>289.04</ele>
   </trkpt>
   <trkpt lat="59.78271" lon="10.17792">
    <ele>289.04</ele>
   </trkpt>
   <trkpt lat="59.78271" lon="10.177810000000001">
    <ele>291.8</ele>
   </trkpt>
   <trkpt lat="59.78269" lon="10.177700000000002">
    <ele>291.8</ele>
   </trkpt>
   <trkpt lat="59.78253000000001" lon="10.17736">
    <ele>297.8</ele>
   </trkpt>
   <trkpt lat="59.782270000000004" lon="10.1767">
    <ele>306.89000000000004</ele>
   </trkpt>
   <trkpt lat="59.782120000000006" lon="10.17637">
    <ele>313.62</ele>
   </trkpt>
   <trkpt lat="59.78201000000001" lon="10.17595">
    <ele>317.0</ele>
   </trkpt>
   <trkpt lat="59.78197000000001" lon="10.17584">
    <ele>318.12</ele>
   </trkpt>
   <trkpt lat="59.781800000000004" lon="10.175540000000002">
    <ele>319.68</ele>
   </trkpt>
   <trkpt lat="59.78168" lon="10.175210000000002">
    <ele>320.61</ele>
   </trkpt>
   <trkpt lat="59.78157" lon="10.17467">
    <ele>321.23</ele>
   </trkpt>
   <trkpt lat="59.78139" lon="10.174090000000001">
    <ele>321.63</ele>
   </trkpt>
   <trkpt lat="59.78135" lon="10.173860000000001">
    <ele>321.65000000000003</ele>
   </trkpt>
   <trkpt lat="59.781290000000006" lon="10.172880000000001">
    <ele>324.86</ele>
   </trkpt>
   <trkpt lat="59.781240000000004" lon="10.172310000000001">
    <ele>325.59000000000003</ele>
   </trkpt>
   <trkpt lat="59.781240000000004" lon="10.171700000000001">
    <ele>327.22</ele>
   </trkpt>
   <trkpt lat="59.78119" lon="10.17143">
    <ele>328.51</ele>
   </trkpt>
   <trkpt lat="59.781130000000005" lon="10.170910000000001">
    <ele>330.41</ele>
   </trkpt>
   <trkpt lat="59.78107000000001" lon="10.1707">
    <ele>330.74</ele>
   </trkpt>
   <trkpt lat="59.78081" lon="10.17031">
    <ele>332.42</ele>
   </trkpt>
   <trkpt lat="59.780730000000005" lon="10.170010000000001">
    <ele>333.63000000000005</ele>
   </trkpt>
   <trkpt lat="59.78074" lon="10.169830000000001">
    <ele>334.61</ele>
   </trkpt>
   <trkpt lat="59.780820000000006" lon="10.169540000000001">
    <ele>336.18</ele>
   </trkpt>
   <trkpt lat="59.780800000000006" lon="10.16929">
    <ele>336.69000000000005</ele>
   </trkpt>
   <trkpt lat="59.780710000000006" lon="10.16887">
    <ele>336.89000000000004</ele>
   </trkpt>
   <trkpt lat="59.78067000000001" lon="10.168750000000001">
    <ele>336.89000000000004</ele>
   </trkpt>
   <trkpt lat="59.78054" lon="10.16848">
    <ele>336.66</ele>
   </trkpt>
   <trkpt lat="59.78049000000001" lon="10.1683">
    <ele>336.39000000000004</ele>
   </trkpt>
   <trkpt lat="59.78047000000001" lon="10.168030000000002">
    <ele>335.68</ele>
   </trkpt>
   <trkpt lat="59.780480000000004" lon="10.167710000000001">
    <ele>335.41</ele>
   </trkpt>
   <trkpt lat="59.78045" lon="10.167340000000001">
    <ele>335.23</ele>
   </trkpt>
   <trkpt lat="59.78040000000001" lon="10.16716">
    <ele>335.28000000000003</ele>
   </trkpt>
   <trkpt lat="59.78042000000001" lon="10.16674">
    <ele>334.78000000000003</ele>
   </trkpt>
   <trkpt lat="59.780370000000005" lon="10.16618">
    <ele>333.41</ele>
   </trkpt>
   <trkpt lat="59.780280000000005" lon="10.165830000000001">
    <ele>333.35</ele>
   </trkpt>
   <trkpt lat="59.780260000000006" lon="10.16539">
    <ele>334.07000000000005</ele>
   </trkpt>
   <trkpt lat="59.780300000000004" lon="10.16477">
    <ele>335.89000000000004</ele>
   </trkpt>
   <trkpt lat="59.78031000000001" lon="10.164140000000002">
    <ele>339.0</ele>
   </trkpt>
   <trkpt lat="59.78038000000001" lon="10.162640000000001">
    <ele>344.51000000000005</ele>
   </trkpt>
   <trkpt lat="59.78043" lon="10.16235">
    <ele>346.54</ele>
   </trkpt>
   <trkpt lat="59.78076000000001" lon="10.16169">
    <ele>347.08000000000004</ele>
   </trkpt>
   <trkpt lat="59.781060000000004" lon="10.160260000000001">
    <ele>349.73</ele>
   </trkpt>
   <trkpt lat="59.78125000000001" lon="10.15923">
    <ele>346.40000000000003</ele>
   </trkpt>
   <trkpt lat="59.78150000000001" lon="10.158520000000001">
    <ele>344.65</ele>
   </trkpt>
   <trkpt lat="59.781620000000004" lon="10.15789">
    <ele>344.97</ele>
   </trkpt>
   <trkpt lat="59.781780000000005" lon="10.15736">
    <ele>344.75</ele>
   </trkpt>
   <trkpt lat="59.781890000000004" lon="10.156600000000001">
    <ele>345.96000000000004</ele>
   </trkpt>
   <trkpt lat="59.78188000000001" lon="10.156260000000001">
    <ele>346.53</ele>
   </trkpt>
   <trkpt lat="59.781780000000005" lon="10.155940000000001">
    <ele>347.45000000000005</ele>
   </trkpt>
   <trkpt lat="59.78166" lon="10.155410000000002">
    <ele>350.01000000000005</ele>
   </trkpt>
   <trkpt lat="59.781620000000004" lon="10.15502">
    <ele>353.25</ele>
   </trkpt>
   <trkpt lat="59.781650000000006" lon="10.154630000000001">
    <ele>355.40000000000003</ele>
   </trkpt>
   <trkpt lat="59.781780000000005" lon="10.154150000000001">
    <ele>356.08</ele>
   </trkpt>
   <trkpt lat="59.78199000000001" lon="10.153630000000001">
    <ele>360.40000000000003</ele>
   </trkpt>
   <trkpt lat="59.78211" lon="10.153390000000002">
    <ele>362.90000000000003</ele>
   </trkpt>
   <trkpt lat="59.782520000000005" lon="10.153">
    <ele>371.3</ele>
   </trkpt>
   <trkpt lat="59.78264000000001" lon="10.15295">
    <ele>372.57</ele>
   </trkpt>
   <trkpt lat="59.782790000000006" lon="10.152970000000002">
    <ele>374.11000000000007</ele>
   </trkpt>
   <trkpt lat="59.78285" lon="10.152940000000001">
    <ele>376.75</ele>
   </trkpt>
   <trkpt lat="59.78289" lon="10.15273">
    <ele>378.40000000000003</ele>
   </trkpt>
   <trkpt lat="59.78286000000001" lon="10.152510000000001">
    <ele>379.90000000000003</ele>
   </trkpt>
   <trkpt lat="59.78296" lon="10.151950000000001">
    <ele>387.15000000000003</ele>
   </trkpt>
   <trkpt lat="59.78311000000001" lon="10.15165">
    <ele>391.18</ele>
   </trkpt>
   <trkpt lat="59.78322000000001" lon="10.15103">
    <ele>395.44</ele>
   </trkpt>
   <trkpt lat="59.783240000000006" lon="10.15071">
    <ele>397.07000000000005</ele>
   </trkpt>
   <trkpt lat="59.78329000000001" lon="10.15033">
    <ele>399.01000000000005</ele>
   </trkpt>
   <trkpt lat="59.78327" lon="10.15008">
    <ele>401.06</ele>
   </trkpt>
   <trkpt lat="59.78342000000001" lon="10.14943">
    <ele>407.44</ele>
   </trkpt>
   <trkpt lat="59.78342000000001" lon="10.149040000000001">
    <ele>409.59</ele>
   </trkpt>
   <trkpt lat="59.78334" lon="10.1483">
    <ele>411.47</ele>
   </trkpt>
   <trkpt lat="59.783240000000006" lon="10.14765">
    <ele>411.97</ele>
   </trkpt>
   <trkpt lat="59.78331000000001" lon="10.14649">
    <ele>414.14</ele>
   </trkpt>
   <trkpt lat="59.78338000000001" lon="10.14624">
    <ele>415.13000000000005</ele>
   </trkpt>
   <trkpt lat="59.78379" lon="10.14535">
    <ele>419.89000000000004</ele>
   </trkpt>
   <trkpt lat="59.78380000000001" lon="10.14512">
    <ele>420.24000000000007</ele>
   </trkpt>
   <trkpt lat="59.78388" lon="10.144810000000001">
    <ele>421.40000000000003</ele>
   </trkpt>
   <trkpt lat="59.784000000000006" lon="10.14459">
    <ele>422.05</ele>
   </trkpt>
   <trkpt lat="59.78419" lon="10.14445">
    <ele>423.24000000000007</ele>
   </trkpt>
   <trkpt lat="59.784290000000006" lon="10.144290000000002">
    <ele>423.24000000000007</ele>
   </trkpt>
   <trkpt lat="59.78436000000001" lon="10.144150000000002">
    <ele>424.7</ele>
   </trkpt>
   <trkpt lat="59.784470000000006" lon="10.14404">
    <ele>424.7</ele>
   </trkpt>
   <trkpt lat="59.78470000000001" lon="10.143730000000001">
    <ele>425.26</ele>
   </trkpt>
   <trkpt lat="59.78475" lon="10.14325">
    <ele>424.71000000000004</ele>
   </trkpt>
   <trkpt lat="59.784960000000005" lon="10.14231">
    <ele>425.13</ele>
   </trkpt>
   <trkpt lat="59.785000000000004" lon="10.14206">
    <ele>425.26</ele>
   </trkpt>
   <trkpt lat="59.78538" lon="10.14081">
    <ele>430.82000000000005</ele>
   </trkpt>
   <trkpt lat="59.78566000000001" lon="10.139850000000001">
    <ele>434.04</ele>
   </trkpt>
   <trkpt lat="59.785940002290985" lon="10.139085006228267">
    <ele>438.61000000000007</ele>
   </trkpt>
   <trkpt lat="59.78622000000001" lon="10.13832">
    <ele>440.88000000000005</ele>
   </trkpt>
   <trkpt lat="59.78633000000001" lon="10.13831">
    <ele>441.53000000000003</ele>
   </trkpt>
   <trkpt lat="59.78642000000001" lon="10.138340000000001">
    <ele>441.93000000000006</ele>
   </trkpt>
   <trkpt lat="59.78660000000001" lon="10.138330000000002">
    <ele>442.3</ele>
   </trkpt>
   <trkpt lat="59.786680000000004" lon="10.13836">
    <ele>443.14000000000004</ele>
   </trkpt>
   <trkpt lat="59.786750000000005" lon="10.138330000000002">
    <ele>443.14000000000004</ele>
   </trkpt>
   <trkpt lat="59.787000000000006" lon="10.138480000000001">
    <ele>443.67</ele>
   </trkpt>
   <trkpt lat="59.78708" lon="10.138470000000002">
    <ele>443.67</ele>
   </trkpt>
   <trkpt lat="59.78714000000001" lon="10.13842">
    <ele>443.70000000000005</ele>
   </trkpt>
   <trkpt lat="59.78728" lon="10.13851">
    <ele>443.83000000000004</ele>
   </trkpt>
   <trkpt lat="59.78734000000001" lon="10.138630000000001">
    <ele>444.19</ele>
   </trkpt>
   <trkpt lat="59.78736000000001" lon="10.13883">
    <ele>444.19</ele>
   </trkpt>
   <trkpt lat="59.78745000000001" lon="10.13902">
    <ele>444.41</ele>
   </trkpt>
   <trkpt lat="59.787580000000005" lon="10.139130000000002">
    <ele>444.58000000000004</ele>
   </trkpt>
   <trkpt lat="59.78770000000001" lon="10.139090000000001">
    <ele>445.28</ele>
   </trkpt>
   <trkpt lat="59.78788000000001" lon="10.13887">
    <ele>448.16</ele>
   </trkpt>
   <trkpt lat="59.787960000000005" lon="10.138660000000002">
    <ele>449.08000000000004</ele>
   </trkpt>
   <trkpt lat="59.78797" lon="10.13841">
    <ele>449.34000000000003</ele>
   </trkpt>
   <trkpt lat="59.788000000000004" lon="10.13817">
    <ele>449.31000000000006</ele>
   </trkpt>
   <trkpt lat="59.788250000000005" lon="10.137880000000001">
    <ele>448.52000000000004</ele>
   </trkpt>
   <trkpt lat="59.78829" lon="10.13752">
    <ele>449.31000000000006</ele>
   </trkpt>
   <trkpt lat="59.78829" lon="10.13734">
    <ele>450.74</ele>
   </trkpt>
   <trkpt lat="59.78835000000001" lon="10.13706">
    <ele>452.01</ele>
   </trkpt>
   <trkpt lat="59.788450000000005" lon="10.136830000000002">
    <ele>452.40000000000003</ele>
   </trkpt>
   <trkpt lat="59.78858" lon="10.135940000000002">
    <ele>449.59000000000003</ele>
   </trkpt>
   <trkpt lat="59.788560000000004" lon="10.135710000000001">
    <ele>449.11</ele>
   </trkpt>
   <trkpt lat="59.78848000000001" lon="10.1355">
    <ele>450.21000000000004</ele>
   </trkpt>
   <trkpt lat="59.788450000000005" lon="10.1353">
    <ele>452.28000000000003</ele>
   </trkpt>
   <trkpt lat="59.788380000000004" lon="10.13517">
    <ele>453.51</ele>
   </trkpt>
   <trkpt lat="59.788320000000006" lon="10.13498">
    <ele>454.46000000000004</ele>
   </trkpt>
   <trkpt lat="59.78830000000001" lon="10.13494">
    <ele>454.46000000000004</ele>
   </trkpt>
   <trkpt lat="59.788250000000005" lon="10.134910000000001">
    <ele>454.97</ele>
   </trkpt>
   <trkpt lat="59.78813" lon="10.134730000000001">
    <ele>456.62</ele>
   </trkpt>
   <trkpt lat="59.78808000000001" lon="10.13461">
    <ele>457.0</ele>
   </trkpt>
   <trkpt lat="59.78802" lon="10.13457">
    <ele>457.6000000000001</ele>
   </trkpt>
   <trkpt lat="59.787800000000004" lon="10.13455">
    <ele>458.12</ele>
   </trkpt>
   <trkpt lat="59.787620000000004" lon="10.134680000000001">
    <ele>457.08000000000004</ele>
   </trkpt>
   <trkpt lat="59.787650000000006" lon="10.134540000000001">
    <ele>457.17</ele>
   </trkpt>
   <trkpt lat="59.78764" lon="10.13428">
    <ele>457.22</ele>
   </trkpt>
   <trkpt lat="59.787670000000006" lon="10.13405">
    <ele>456.95</ele>
   </trkpt>
   <trkpt lat="59.78766" lon="10.133730000000002">
    <ele>455.1600000000001</ele>
   </trkpt>
   <trkpt lat="59.78755" lon="10.13368">
    <ele>453.19000000000005</ele>
   </trkpt>
   <trkpt lat="59.78703" lon="10.1333">
    <ele>451.76000000000005</ele>
   </trkpt>
   <trkpt lat="59.78676000000001" lon="10.133180000000001">
    <ele>451.8</ele>
   </trkpt>
   <trkpt lat="59.786570000000005" lon="10.133180000000001">
    <ele>451.39</ele>
   </trkpt>
   <trkpt lat="59.78633000000001" lon="10.13311">
    <ele>451.41</ele>
   </trkpt>
   <trkpt lat="59.78598" lon="10.133120000000002">
    <ele>451.92</ele>
   </trkpt>
   <trkpt lat="59.78575000000001" lon="10.13325">
    <ele>452.64000000000004</ele>
   </trkpt>
   <trkpt lat="59.78558" lon="10.133230000000001">
    <ele>452.94000000000005</ele>
   </trkpt>
   <trkpt lat="59.78490000000001" lon="10.13264">
    <ele>452.70000000000005</ele>
   </trkpt>
   <trkpt lat="59.78464" lon="10.13236">
    <ele>451.19</ele>
   </trkpt>
   <trkpt lat="59.784130000000005" lon="10.132100000000001">
    <ele>450.39</ele>
   </trkpt>
   <trkpt lat="59.783970000000004" lon="10.132090000000002">
    <ele>449.11</ele>
   </trkpt>
   <trkpt lat="59.78352" lon="10.13227">
    <ele>445.14000000000004</ele>
   </trkpt>
   <trkpt lat="59.78327" lon="10.132230000000002">
    <ele>442.87</ele>
   </trkpt>
   <trkpt lat="59.782700000000006" lon="10.131760000000002">
    <ele>438.39000000000004</ele>
   </trkpt>
   <trkpt lat="59.782230000000006" lon="10.13155">
    <ele>439.31</ele>
   </trkpt>
   <trkpt lat="59.78182" lon="10.13124">
    <ele>437.74</ele>
   </trkpt>
   <trkpt lat="59.781150000000004" lon="10.13057">
    <ele>432.86</ele>
   </trkpt>
   <trkpt lat="59.780390000000004" lon="10.130510000000001">
    <ele>426.06000000000006</ele>
   </trkpt>
   <trkpt lat="59.780080000000005" lon="10.13042">
    <ele>422.08</ele>
   </trkpt>
   <trkpt lat="59.77976" lon="10.12997">
    <ele>414.98</ele>
   </trkpt>
   <trkpt lat="59.779720000000005" lon="10.129750000000001">
    <ele>412.14</ele>
   </trkpt>
   <trkpt lat="59.779650000000004" lon="10.12973">
    <ele>411.38</ele>
   </trkpt>
   <trkpt lat="59.77957000000001" lon="10.12967">
    <ele>410.82</ele>
   </trkpt>
   <trkpt lat="59.779520000000005" lon="10.129570000000001">
    <ele>410.46000000000004</ele>
   </trkpt>
   <trkpt lat="59.77929" lon="10.129570000000001">
    <ele>410.17</ele>
   </trkpt>
   <trkpt lat="59.77922" lon="10.129600000000002">
    <ele>410.17</ele>
   </trkpt>
   <trkpt lat="59.778980000000004" lon="10.129940000000001">
    <ele>410.81</ele>
   </trkpt>
   <trkpt lat="59.778780000000005" lon="10.130130000000001">
    <ele>413.25</ele>
   </trkpt>
   <trkpt lat="59.778690000000005" lon="10.13002">
    <ele>414.59000000000003</ele>
   </trkpt>
   <trkpt lat="59.77843000000001" lon="10.13">
    <ele>416.6</ele>
   </trkpt>
   <trkpt lat="59.778310000000005" lon="10.130030000000001">
    <ele>417.89000000000004</ele>
   </trkpt>
   <trkpt lat="59.77801" lon="10.13035">
    <ele>418.85</ele>
   </trkpt>
   <trkpt lat="59.77769000000001" lon="10.130830000000001">
    <ele>419.57000000000005</ele>
   </trkpt>
   <trkpt lat="59.77725" lon="10.131210000000001">
    <ele>419.95000000000005</ele>
   </trkpt>
   <trkpt lat="59.776920000000004" lon="10.13128">
    <ele>420.52000000000004</ele>
   </trkpt>
   <trkpt lat="59.776180000000004" lon="10.13193">
    <ele>421.71000000000004</ele>
   </trkpt>
   <trkpt lat="59.77608000000001" lon="10.132040000000002">
    <ele>421.72</ele>
   </trkpt>
   <trkpt lat="59.77575" lon="10.132940000000001">
    <ele>420.28000000000003</ele>
   </trkpt>
   <trkpt lat="59.77570000000001" lon="10.13324">
    <ele>420.04</ele>
   </trkpt>
   <trkpt lat="59.77561000000001" lon="10.133550000000001">
    <ele>419.76</ele>
   </trkpt>
   <trkpt lat="59.775470000000006" lon="10.13386">
    <ele>418.56000000000006</ele>
   </trkpt>
   <trkpt lat="59.775040000000004" lon="10.135090000000002">
    <ele>409.11</ele>
   </trkpt>
   <trkpt lat="59.77476000000001" lon="10.135560000000002">
    <ele>407.26</ele>
   </trkpt>
   <trkpt lat="59.774170000000005" lon="10.136830000000002">
    <ele>402.88</ele>
   </trkpt>
   <trkpt lat="59.773990000000005" lon="10.1376">
    <ele>399.14000000000004</ele>
   </trkpt>
   <trkpt lat="59.77396" lon="10.13897">
    <ele>394.74</ele>
   </trkpt>
   <trkpt lat="59.77376" lon="10.13981">
    <ele>389.46000000000004</ele>
   </trkpt>
   <trkpt lat="59.77373000000001" lon="10.14043">
    <ele>387.98</ele>
   </trkpt>
   <trkpt lat="59.7732" lon="10.141770000000001">
    <ele>391.51</ele>
   </trkpt>
   <trkpt lat="59.773140000000005" lon="10.14202">
    <ele>391.99</ele>
   </trkpt>
   <trkpt lat="59.773120000000006" lon="10.14249">
    <ele>392.03000000000003</ele>
   </trkpt>
   <trkpt lat="59.77302" lon="10.143">
    <ele>392.48</ele>
   </trkpt>
   <trkpt lat="59.77299000000001" lon="10.143350000000002">
    <ele>392.70000000000005</ele>
   </trkpt>
   <trkpt lat="59.77309" lon="10.14394">
    <ele>392.41</ele>
   </trkpt>
   <trkpt lat="59.7732" lon="10.144240000000002">
    <ele>392.74</ele>
   </trkpt>
   <trkpt lat="59.77328000000001" lon="10.14459">
    <ele>393.38</ele>
   </trkpt>
   <trkpt lat="59.77331" lon="10.14516">
    <ele>392.29</ele>
   </trkpt>
   <trkpt lat="59.773360000000004" lon="10.1454">
    <ele>391.98</ele>
   </trkpt>
   <trkpt lat="59.77342" lon="10.14586">
    <ele>392.46000000000004</ele>
   </trkpt>
   <trkpt lat="59.773430000000005" lon="10.145990000000001">
    <ele>392.46000000000004</ele>
   </trkpt>
   <trkpt lat="59.77347" lon="10.1461">
    <ele>392.57000000000005</ele>
   </trkpt>
   <trkpt lat="59.77357000000001" lon="10.14619">
    <ele>392.66</ele>
   </trkpt>
   <trkpt lat="59.77364000000001" lon="10.1463">
    <ele>392.82000000000005</ele>
   </trkpt>
   <trkpt lat="59.77367" lon="10.146450000000002">
    <ele>393.05</ele>
   </trkpt>
   <trkpt lat="59.77366000000001" lon="10.146590000000002">
    <ele>393.43000000000006</ele>
   </trkpt>
   <trkpt lat="59.77362000000001" lon="10.14681">
    <ele>394.52000000000004</ele>
   </trkpt>
   <trkpt lat="59.77337000000001" lon="10.14756">
    <ele>395.85</ele>
   </trkpt>
   <trkpt lat="59.773320000000005" lon="10.14794">
    <ele>396.05</ele>
   </trkpt>
   <trkpt lat="59.77333" lon="10.1484">
    <ele>395.73</ele>
   </trkpt>
   <trkpt lat="59.773300000000006" lon="10.148670000000001">
    <ele>395.31000000000006</ele>
   </trkpt>
   <trkpt lat="59.77322" lon="10.148850000000001">
    <ele>395.36</ele>
   </trkpt>
   <trkpt lat="59.77311" lon="10.14921">
    <ele>395.43000000000006</ele>
   </trkpt>
   <trkpt lat="59.77304" lon="10.14935">
    <ele>395.16</ele>
   </trkpt>
   <trkpt lat="59.77288000000001" lon="10.14952">
    <ele>394.18</ele>
   </trkpt>
   <trkpt lat="59.77277000000001" lon="10.149970000000001">
    <ele>394.63000000000005</ele>
   </trkpt>
   <trkpt lat="59.772650000000006" lon="10.15037">
    <ele>393.61</ele>
   </trkpt>
   <trkpt lat="59.77246" lon="10.15076">
    <ele>391.95</ele>
   </trkpt>
   <trkpt lat="59.77232000000001" lon="10.15116">
    <ele>392.09000000000003</ele>
   </trkpt>
   <trkpt lat="59.77208" lon="10.15168">
    <ele>389.0</ele>
   </trkpt>
   <trkpt lat="59.77207000000001" lon="10.152080000000002">
    <ele>388.04</ele>
   </trkpt>
   <trkpt lat="59.771980000000006" lon="10.1523">
    <ele>386.77000000000004</ele>
   </trkpt>
   <trkpt lat="59.771950000000004" lon="10.15249">
    <ele>385.92</ele>
   </trkpt>
   <trkpt lat="59.771840000000005" lon="10.152690000000002">
    <ele>385.27000000000004</ele>
   </trkpt>
   <trkpt lat="59.771730000000005" lon="10.1537">
    <ele>382.03000000000003</ele>
   </trkpt>
   <trkpt lat="59.771800000000006" lon="10.154060000000001">
    <ele>381.05000000000007</ele>
   </trkpt>
   <trkpt lat="59.77179" lon="10.15428">
    <ele>379.55000000000007</ele>
   </trkpt>
   <trkpt lat="59.77163" lon="10.155050000000001">
    <ele>367.26000000000005</ele>
   </trkpt>
   <trkpt lat="59.77161" lon="10.156460000000001">
    <ele>360.89000000000004</ele>
   </trkpt>
   <trkpt lat="59.771820000000005" lon="10.157010000000001">
    <ele>361.3</ele>
   </trkpt>
   <trkpt lat="59.77188" lon="10.157250000000001">
    <ele>362.52</ele>
   </trkpt>
   <trkpt lat="59.771860000000004" lon="10.157720000000001">
    <ele>361.99</ele>
   </trkpt>
   <trkpt lat="59.771890000000006" lon="10.158090000000001">
    <ele>360.57000000000005</ele>
   </trkpt>
   <trkpt lat="59.77207000000001" lon="10.15854">
    <ele>361.51000000000005</ele>
   </trkpt>
   <trkpt lat="59.772310000000004" lon="10.158740000000002">
    <ele>362.15000000000003</ele>
   </trkpt>
   <trkpt lat="59.77237" lon="10.159020000000002">
    <ele>361.56000000000006</ele>
   </trkpt>
   <trkpt lat="59.77237" lon="10.159400000000002">
    <ele>361.40000000000003</ele>
   </trkpt>
   <trkpt lat="59.77232000000001" lon="10.159730000000001">
    <ele>362.7900000000001</ele>
   </trkpt>
   <trkpt lat="59.77212000000001" lon="10.160430000000002">
    <ele>363.97</ele>
   </trkpt>
   <trkpt lat="59.77212000000001" lon="10.160630000000001">
    <ele>364.16</ele>
   </trkpt>
   <trkpt lat="59.77221000000001" lon="10.160960000000001">
    <ele>366.17</ele>
   </trkpt>
   <trkpt lat="59.77223000000001" lon="10.161090000000002">
    <ele>367.1</ele>
   </trkpt>
   <trkpt lat="59.77221000000001" lon="10.161200000000001">
    <ele>367.1</ele>
   </trkpt>
   <trkpt lat="59.77207000000001" lon="10.161560000000001">
    <ele>366.33000000000004</ele>
   </trkpt>
   <trkpt lat="59.771950000000004" lon="10.161750000000001">
    <ele>365.35</ele>
   </trkpt>
   <trkpt lat="59.77187000000001" lon="10.162">
    <ele>363.7</ele>
   </trkpt>
   <trkpt lat="59.77185000000001" lon="10.16221">
    <ele>363.23</ele>
   </trkpt>
   <trkpt lat="59.77187000000001" lon="10.16238">
    <ele>363.04</ele>
   </trkpt>
   <trkpt lat="59.77197" lon="10.162690000000001">
    <ele>362.96</ele>
   </trkpt>
   <trkpt lat="59.77205000000001" lon="10.1628">
    <ele>362.62000000000006</ele>
   </trkpt>
   <trkpt lat="59.77219" lon="10.162920000000002">
    <ele>361.46</ele>
   </trkpt>
   <trkpt lat="59.77216000000001" lon="10.163110000000001">
    <ele>360.51000000000005</ele>
   </trkpt>
   <trkpt lat="59.772220000000004" lon="10.163760000000002">
    <ele>354.81</ele>
   </trkpt>
   <trkpt lat="59.772200000000005" lon="10.164140000000002">
    <ele>353.55</ele>
   </trkpt>
   <trkpt lat="59.77221000000001" lon="10.164470000000001">
    <ele>350.16</ele>
   </trkpt>
   <trkpt lat="59.77207000000001" lon="10.1651">
    <ele>348.46999999999997</ele>
   </trkpt>
   <trkpt lat="59.77205000000001" lon="10.16529">
    <ele>348.19000000000005</ele>
   </trkpt>
   <trkpt lat="59.77207000000001" lon="10.165410000000001">
    <ele>347.82</ele>
   </trkpt>
   <trkpt lat="59.77219" lon="10.165610000000001">
    <ele>346.41</ele>
   </trkpt>
   <trkpt lat="59.772240000000004" lon="10.165640000000002">
    <ele>345.27000000000004</ele>
   </trkpt>
   <trkpt lat="59.77253" lon="10.16568">
    <ele>343.66</ele>
   </trkpt>
   <trkpt lat="59.772600000000004" lon="10.165730000000002">
    <ele>342.24</ele>
   </trkpt>
   <trkpt lat="59.772650000000006" lon="10.16586">
    <ele>342.24</ele>
   </trkpt>
   <trkpt lat="59.77266" lon="10.16596">
    <ele>342.18</ele>
   </trkpt>
   <trkpt lat="59.772600000000004" lon="10.166160000000001">
    <ele>342.18</ele>
   </trkpt>
   <trkpt lat="59.77250000000001" lon="10.166310000000001">
    <ele>339.5</ele>
   </trkpt>
   <trkpt lat="59.772450000000006" lon="10.166350000000001">
    <ele>339.5</ele>
   </trkpt>
   <trkpt lat="59.772310000000004" lon="10.16666">
    <ele>336.70000000000005</ele>
   </trkpt>
   <trkpt lat="59.77215" lon="10.166950000000002">
    <ele>334.11</ele>
   </trkpt>
   <trkpt lat="59.77207000000001" lon="10.16699">
    <ele>332.64000000000004</ele>
   </trkpt>
   <trkpt lat="59.77179" lon="10.16698">
    <ele>327.46000000000004</ele>
   </trkpt>
   <trkpt lat="59.771460000000005" lon="10.167050000000001">
    <ele>323.48</ele>
   </trkpt>
   <trkpt lat="59.77120000000001" lon="10.16704">
    <ele>321.43000000000006</ele>
   </trkpt>
   <trkpt lat="59.77075000000001" lon="10.167150000000001">
    <ele>318.07</ele>
   </trkpt>
   <trkpt lat="59.770680000000006" lon="10.16722">
    <ele>318.07</ele>
   </trkpt>
   <trkpt lat="59.77058" lon="10.167440000000001">
    <ele>315.36</ele>
   </trkpt>
   <trkpt lat="59.770500000000006" lon="10.16811">
    <ele>311.94000000000005</ele>
   </trkpt>
   <trkpt lat="59.770430000000005" lon="10.16839">
    <ele>310.83000000000004</ele>
   </trkpt>
   <trkpt lat="59.770340000000004" lon="10.168560000000001">
    <ele>310.22</ele>
   </trkpt>
   <trkpt lat="59.77019000000001" lon="10.168690000000002">
    <ele>307.64000000000004</ele>
   </trkpt>
   <trkpt lat="59.76990000000001" lon="10.168880000000001">
    <ele>305.9</ele>
   </trkpt>
   <trkpt lat="59.76962" lon="10.16915">
    <ele>305.72</ele>
   </trkpt>
   <trkpt lat="59.769510000000004" lon="10.169860000000002">
    <ele>302.23</ele>
   </trkpt>
   <trkpt lat="59.76941000000001" lon="10.170340000000001">
    <ele>301.63</ele>
   </trkpt>
   <trkpt lat="59.76916000000001" lon="10.17112">
    <ele>299.00000000000006</ele>
   </trkpt>
   <trkpt lat="59.7689" lon="10.17167">
    <ele>301.13</ele>
   </trkpt>
   <trkpt lat="59.768750000000004" lon="10.17211">
    <ele>301.67</ele>
   </trkpt>
   <trkpt lat="59.768440000000005" lon="10.17286">
    <ele>301.94000000000005</ele>
   </trkpt>
   <trkpt lat="59.768510000000006" lon="10.173350000000001">
    <ele>297.33000000000004</ele>
   </trkpt>
   <trkpt lat="59.768570000000004" lon="10.173580000000001">
    <ele>295.89000000000004</ele>
   </trkpt>
   <trkpt lat="59.768660000000004" lon="10.174050000000001">
    <ele>294.13</ele>
   </trkpt>
   <trkpt lat="59.76865000000001" lon="10.17431">
    <ele>293.3</ele>
   </trkpt>
   <trkpt lat="59.76867000000001" lon="10.17444">
    <ele>293.3</ele>
   </trkpt>
   <trkpt lat="59.76874000000001" lon="10.17455">
    <ele>292.12000000000006</ele>
   </trkpt>
   <trkpt lat="59.76881" lon="10.17459">
    <ele>292.12000000000006</ele>
   </trkpt>
   <trkpt lat="59.76894000000001" lon="10.174570000000001">
    <ele>291.29</ele>
   </trkpt>
   <trkpt lat="59.76903000000001" lon="10.174600000000002">
    <ele>290.63</ele>
   </trkpt>
   <trkpt lat="59.769270000000006" lon="10.174800000000001">
    <ele>287.39000000000004</ele>
   </trkpt>
   <trkpt lat="59.769690000000004" lon="10.174900000000001">
    <ele>279.14</ele>
   </trkpt>
   <trkpt lat="59.769740000000006" lon="10.174930000000002">
    <ele>278.64</ele>
   </trkpt>
   <trkpt lat="59.76979000000001" lon="10.17511">
    <ele>277.54</ele>
   </trkpt>
   <trkpt lat="59.769830000000006" lon="10.17516">
    <ele>277.54</ele>
   </trkpt>
   <trkpt lat="59.76991" lon="10.17514">
    <ele>276.66</ele>
   </trkpt>
   <trkpt lat="59.76997000000001" lon="10.17516">
    <ele>276.09</ele>
   </trkpt>
   <trkpt lat="59.77004" lon="10.17525">
    <ele>274.8</ele>
   </trkpt>
   <trkpt lat="59.770030000000006" lon="10.17553">
    <ele>273.33</ele>
   </trkpt>
   <trkpt lat="59.770120000000006" lon="10.175930000000001">
    <ele>268.94</ele>
   </trkpt>
   <trkpt lat="59.770120000000006" lon="10.176070000000001">
    <ele>267.35</ele>
   </trkpt>
   <trkpt lat="59.77009" lon="10.176200000000001">
    <ele>267.35</ele>
   </trkpt>
   <trkpt lat="59.770010000000006" lon="10.17632">
    <ele>264.26</ele>
   </trkpt>
   <trkpt lat="59.769980000000004" lon="10.176430000000002">
    <ele>262.58000000000004</ele>
   </trkpt>
   <trkpt lat="59.769960000000005" lon="10.17661">
    <ele>260.8</ele>
   </trkpt>
   <trkpt lat="59.769920000000006" lon="10.17675">
    <ele>258.87000000000006</ele>
   </trkpt>
   <trkpt lat="59.76990000000001" lon="10.176960000000001">
    <ele>257.76000000000005</ele>
   </trkpt>
   <trkpt lat="59.769850000000005" lon="10.17706">
    <ele>254.02</ele>
   </trkpt>
   <trkpt lat="59.76979000000001" lon="10.17713">
    <ele>254.02</ele>
   </trkpt>
   <trkpt lat="59.769760000000005" lon="10.177230000000002">
    <ele>251.69000000000003</ele>
   </trkpt>
   <trkpt lat="59.76977000000001" lon="10.177420000000001">
    <ele>249.61</ele>
   </trkpt>
   <trkpt lat="59.769830000000006" lon="10.17763">
    <ele>247.62</ele>
   </trkpt>
   <trkpt lat="59.76993" lon="10.17782">
    <ele>244.09000000000003</ele>
   </trkpt>
   <trkpt lat="59.77008000000001" lon="10.178320000000001">
    <ele>240.42000000000002</ele>
   </trkpt>
   <trkpt lat="59.77009" lon="10.178460000000001">
    <ele>239.67000000000002</ele>
   </trkpt>
   <trkpt lat="59.77013" lon="10.178550000000001">
    <ele>239.67000000000002</ele>
   </trkpt>
   <trkpt lat="59.77013" lon="10.17894">
    <ele>238.09000000000003</ele>
   </trkpt>
   <trkpt lat="59.7702" lon="10.17969">
    <ele>231.08</ele>
   </trkpt>
   <trkpt lat="59.77002" lon="10.179820000000001">
    <ele>227.94000000000003</ele>
   </trkpt>
   <trkpt lat="59.769920000000006" lon="10.179950000000002">
    <ele>227.49</ele>
   </trkpt>
   <trkpt lat="59.76990000000001" lon="10.18013">
    <ele>226.81</ele>
   </trkpt>
   <trkpt lat="59.76999000000001" lon="10.18044">
    <ele>226.41000000000003</ele>
   </trkpt>
   <trkpt lat="59.77024000000001" lon="10.18092">
    <ele>228.07000000000002</ele>
   </trkpt>
   <trkpt lat="59.770340000000004" lon="10.18125">
    <ele>228.47</ele>
   </trkpt>
   <trkpt lat="59.77047" lon="10.18255">
    <ele>226.59</ele>
   </trkpt>
   <trkpt lat="59.770450000000004" lon="10.18299">
    <ele>226.41000000000003</ele>
   </trkpt>
   <trkpt lat="59.77042" lon="10.183200000000001">
    <ele>226.41000000000003</ele>
   </trkpt>
   <trkpt lat="59.770160000000004" lon="10.18364">
    <ele>226.85000000000002</ele>
   </trkpt>
   <trkpt lat="59.77009" lon="10.1837">
    <ele>227.72</ele>
   </trkpt>
   <trkpt lat="59.76995" lon="10.183750000000002">
    <ele>229.22</ele>
   </trkpt>
   <trkpt lat="59.76986000000001" lon="10.183720000000001">
    <ele>230.16000000000003</ele>
   </trkpt>
   <trkpt lat="59.769740000000006" lon="10.18364">
    <ele>231.63000000000002</ele>
   </trkpt>
   <trkpt lat="59.769690000000004" lon="10.18364">
    <ele>231.63000000000002</ele>
   </trkpt>
   <trkpt lat="59.76963000000001" lon="10.1837">
    <ele>231.63000000000002</ele>
   </trkpt>
   <trkpt lat="59.76952000000001" lon="10.18421">
    <ele>235.90000000000003</ele>
   </trkpt>
   <trkpt lat="59.76946" lon="10.18439">
    <ele>236.57000000000002</ele>
   </trkpt>
   <trkpt lat="59.769380000000005" lon="10.18449">
    <ele>237.44</ele>
   </trkpt>
   <trkpt lat="59.76930000000001" lon="10.184560000000001">
    <ele>237.87000000000003</ele>
   </trkpt>
   <trkpt lat="59.769220000000004" lon="10.18457">
    <ele>238.12000000000003</ele>
   </trkpt>
   <trkpt lat="59.7691" lon="10.18454">
    <ele>239.23000000000002</ele>
   </trkpt>
   <trkpt lat="59.76894000000001" lon="10.184660000000001">
    <ele>240.02</ele>
   </trkpt>
   <trkpt lat="59.768730000000005" lon="10.18477">
    <ele>242.25000000000003</ele>
   </trkpt>
   <trkpt lat="59.76863" lon="10.1849">
    <ele>242.99</ele>
   </trkpt>
   <trkpt lat="59.76859" lon="10.184890000000001">
    <ele>243.63</ele>
   </trkpt>
   <trkpt lat="59.76854" lon="10.184830000000002">
    <ele>244.34000000000003</ele>
   </trkpt>
   <trkpt lat="59.76847000000001" lon="10.184790000000001">
    <ele>246.93</ele>
   </trkpt>
   <trkpt lat="59.76831000000001" lon="10.184790000000001">
    <ele>248.97000000000003</ele>
   </trkpt>
   <trkpt lat="59.768170000000005" lon="10.18457">
    <ele>250.16</ele>
   </trkpt>
   <trkpt lat="59.768040000000006" lon="10.18443">
    <ele>250.56</ele>
   </trkpt>
   <trkpt lat="59.76791000000001" lon="10.184370000000001">
    <ele>250.70000000000002</ele>
   </trkpt>
   <trkpt lat="59.767830000000004" lon="10.18426">
    <ele>251.20000000000002</ele>
   </trkpt>
   <trkpt lat="59.76767" lon="10.183940000000002">
    <ele>251.98000000000002</ele>
   </trkpt>
   <trkpt lat="59.76753000000001" lon="10.183800000000002">
    <ele>252.71000000000004</ele>
   </trkpt>
   <trkpt lat="59.76747" lon="10.18377">
    <ele>252.78</ele>
   </trkpt>
   <trkpt lat="59.76724000000001" lon="10.183750000000002">
    <ele>253.08</ele>
   </trkpt>
   <trkpt lat="59.767070000000004" lon="10.1836">
    <ele>253.54000000000005</ele>
   </trkpt>
   <trkpt lat="59.766960000000005" lon="10.18355">
    <ele>253.74</ele>
   </trkpt>
   <trkpt lat="59.76664" lon="10.183530000000001">
    <ele>254.26999999999998</ele>
   </trkpt>
   <trkpt lat="59.76648" lon="10.183440000000001">
    <ele>254.32000000000005</ele>
   </trkpt>
   <trkpt lat="59.766290000000005" lon="10.18327">
    <ele>253.9</ele>
   </trkpt>
   <trkpt lat="59.766180000000006" lon="10.18327">
    <ele>253.66</ele>
   </trkpt>
   <trkpt lat="59.765950000000004" lon="10.183150000000001">
    <ele>252.17</ele>
   </trkpt>
   <trkpt lat="59.76585000000001" lon="10.183010000000001">
    <ele>252.19000000000003</ele>
   </trkpt>
   <trkpt lat="59.765750000000004" lon="10.182730000000001">
    <ele>252.47000000000003</ele>
   </trkpt>
   <trkpt lat="59.765660000000004" lon="10.1826">
    <ele>252.09000000000003</ele>
   </trkpt>
   <trkpt lat="59.765440000000005" lon="10.18241">
    <ele>251.01000000000002</ele>
   </trkpt>
   <trkpt lat="59.765260000000005" lon="10.182350000000001">
    <ele>251.47000000000003</ele>
   </trkpt>
   <trkpt lat="59.764990000000004" lon="10.182350000000001">
    <ele>251.70000000000002</ele>
   </trkpt>
   <trkpt lat="59.76485" lon="10.18238">
    <ele>251.63000000000002</ele>
   </trkpt>
   <trkpt lat="59.76471000000001" lon="10.182350000000001">
    <ele>251.21000000000004</ele>
   </trkpt>
   <trkpt lat="59.76456" lon="10.182260000000001">
    <ele>250.06</ele>
   </trkpt>
   <trkpt lat="59.76442000000001" lon="10.18215">
    <ele>248.43</ele>
   </trkpt>
   <trkpt lat="59.76438" lon="10.1821">
    <ele>248.43</ele>
   </trkpt>
   <trkpt lat="59.76431" lon="10.1821">
    <ele>248.43</ele>
   </trkpt>
   <trkpt lat="59.76422" lon="10.18213">
    <ele>247.44000000000003</ele>
   </trkpt>
   <trkpt lat="59.764140000000005" lon="10.18218">
    <ele>247.22000000000003</ele>
   </trkpt>
   <trkpt lat="59.764" lon="10.182260000000001">
    <ele>246.44000000000003</ele>
   </trkpt>
   <trkpt lat="59.763920000000006" lon="10.18237">
    <ele>245.64000000000001</ele>
   </trkpt>
   <trkpt lat="59.763690000000004" lon="10.18289">
    <ele>243.68</ele>
   </trkpt>
   <trkpt lat="59.76362" lon="10.183430000000001">
    <ele>241.97000000000003</ele>
   </trkpt>
   <trkpt lat="59.76361000000001" lon="10.183810000000001">
    <ele>238.97</ele>
   </trkpt>
   <trkpt lat="59.763525003601266" lon="10.18478000213769">
    <ele>234.67000000000002</ele>
   </trkpt>
   <trkpt lat="59.76344" lon="10.18575">
    <ele>225.08</ele>
   </trkpt>
   <trkpt lat="59.763450000000006" lon="10.186290000000001">
    <ele>221.55</ele>
   </trkpt>
   <trkpt lat="59.763560000000005" lon="10.18664">
    <ele>221.75000000000003</ele>
   </trkpt>
   <trkpt lat="59.76371" lon="10.18739">
    <ele>223.59</ele>
   </trkpt>
   <trkpt lat="59.763720000000006" lon="10.187610000000001">
    <ele>223.9</ele>
   </trkpt>
   <trkpt lat="59.76370000000001" lon="10.188030000000001">
    <ele>224.23000000000002</ele>
   </trkpt>
   <trkpt lat="59.76359000543423" lon="10.18922500379978">
    <ele>228.39000000000001</ele>
   </trkpt>
   <trkpt lat="59.76348000000001" lon="10.190420000000001">
    <ele>235.52</ele>
   </trkpt>
   <trkpt lat="59.76324" lon="10.19142">
    <ele>237.63</ele>
   </trkpt>
   <trkpt lat="59.76292000000001" lon="10.19264">
    <ele>241.67000000000002</ele>
   </trkpt>
   <trkpt lat="59.762840000000004" lon="10.193050000000001">
    <ele>241.99</ele>
   </trkpt>
   <trkpt lat="59.762640000000005" lon="10.193790000000002">
    <ele>241.43000000000004</ele>
   </trkpt>
   <trkpt lat="59.76258000000001" lon="10.19415">
    <ele>241.53000000000003</ele>
   </trkpt>
   <trkpt lat="59.762570000000004" lon="10.19435">
    <ele>241.87000000000003</ele>
   </trkpt>
   <trkpt lat="59.76261" lon="10.19461">
    <ele>242.35</ele>
   </trkpt>
   <trkpt lat="59.76292000000001" lon="10.19583">
    <ele>250.81000000000003</ele>
   </trkpt>
   <trkpt lat="59.762950000000004" lon="10.196240000000001">
    <ele>253.43000000000004</ele>
   </trkpt>
   <trkpt lat="59.762980000000006" lon="10.196370000000002">
    <ele>255.08</ele>
   </trkpt>
   <trkpt lat="59.76305000000001" lon="10.19654">
    <ele>256.55</ele>
   </trkpt>
   <trkpt lat="59.763270000000006" lon="10.19692">
    <ele>259.89</ele>
   </trkpt>
   <trkpt lat="59.763560000000005" lon="10.197550000000001">
    <ele>261.47</ele>
   </trkpt>
   <trkpt lat="59.763650000000005" lon="10.197830000000002">
    <ele>262.15</ele>
   </trkpt>
   <trkpt lat="59.76384" lon="10.1986">
    <ele>262.02000000000004</ele>
   </trkpt>
   <trkpt lat="59.763960000000004" lon="10.1988">
    <ele>260.72</ele>
   </trkpt>
   <trkpt lat="59.764050000000005" lon="10.19899">
    <ele>260.08000000000004</ele>
   </trkpt>
   <trkpt lat="59.76408000000001" lon="10.19917">
    <ele>259.78000000000003</ele>
   </trkpt>
   <trkpt lat="59.76411" lon="10.199420000000002">
    <ele>259.41</ele>
   </trkpt>
   <trkpt lat="59.764070000000004" lon="10.19964">
    <ele>260.45</ele>
   </trkpt>
   <trkpt lat="59.76409" lon="10.199890000000002">
    <ele>261.93</ele>
   </trkpt>
   <trkpt lat="59.76406000000001" lon="10.200370000000001">
    <ele>267.02000000000004</ele>
   </trkpt>
   <trkpt lat="59.76386000000001" lon="10.2009">
    <ele>273.7</ele>
   </trkpt>
   <trkpt lat="59.7638" lon="10.201170000000001">
    <ele>276.06</ele>
   </trkpt>
   <trkpt lat="59.76379000000001" lon="10.20151">
    <ele>276.95000000000005</ele>
   </trkpt>
   <trkpt lat="59.763720000000006" lon="10.2018">
    <ele>276.88</ele>
   </trkpt>
   <trkpt lat="59.763580000000005" lon="10.202150000000001">
    <ele>277.08000000000004</ele>
   </trkpt>
   <trkpt lat="59.763580000000005" lon="10.202390000000001">
    <ele>276.7</ele>
   </trkpt>
   <trkpt lat="59.763690000000004" lon="10.20279">
    <ele>275.46000000000004</ele>
   </trkpt>
   <trkpt lat="59.76377000000001" lon="10.20378">
    <ele>281.67</ele>
   </trkpt>
   <trkpt lat="59.763760000000005" lon="10.204030000000001">
    <ele>281.73</ele>
   </trkpt>
   <trkpt lat="59.76371" lon="10.204210000000002">
    <ele>281.33000000000004</ele>
   </trkpt>
   <trkpt lat="59.76370000000001" lon="10.20423">
    <ele>281.33000000000004</ele>
   </trkpt>
   <trkpt lat="59.76297" lon="10.20472">
    <ele>284.67</ele>
   </trkpt>
   <trkpt lat="59.76276000000001" lon="10.205160000000001">
    <ele>282.98</ele>
   </trkpt>
   <trkpt lat="59.762280000000004" lon="10.20587">
    <ele>278.85</ele>
   </trkpt>
   <trkpt lat="59.76200000000001" lon="10.205990000000002">
    <ele>277.30000000000007</ele>
   </trkpt>
   <trkpt lat="59.76192" lon="10.205950000000001">
    <ele>277.21</ele>
   </trkpt>
   <trkpt lat="59.76178" lon="10.205770000000001">
    <ele>277.54</ele>
   </trkpt>
   <trkpt lat="59.76174" lon="10.205670000000001">
    <ele>277.68</ele>
   </trkpt>
   <trkpt lat="59.76169" lon="10.205380000000002">
    <ele>278.78000000000003</ele>
   </trkpt>
   <trkpt lat="59.761790000000005" lon="10.205060000000001">
    <ele>281.82</ele>
   </trkpt>
   <trkpt lat="59.76183" lon="10.20471">
    <ele>283.42</ele>
   </trkpt>
   <trkpt lat="59.761750000000006" lon="10.203840000000001">
    <ele>285.17</ele>
   </trkpt>
   <trkpt lat="59.761660000000006" lon="10.20363">
    <ele>284.54</ele>
   </trkpt>
   <trkpt lat="59.76162000000001" lon="10.2034">
    <ele>284.57000000000005</ele>
   </trkpt>
   <trkpt lat="59.761610000000005" lon="10.203100000000001">
    <ele>284.27000000000004</ele>
   </trkpt>
   <trkpt lat="59.761540000000004" lon="10.202820000000001">
    <ele>282.35</ele>
   </trkpt>
   <trkpt lat="59.761500000000005" lon="10.202810000000001">
    <ele>282.35</ele>
   </trkpt>
   <trkpt lat="59.76124000000001" lon="10.20311">
    <ele>275.87</ele>
   </trkpt>
   <trkpt lat="59.76095000000001" lon="10.203270000000002">
    <ele>272.35</ele>
   </trkpt>
   <trkpt lat="59.76089" lon="10.20306">
    <ele>270.92</ele>
   </trkpt>
   <trkpt lat="59.760850000000005" lon="10.20261">
    <ele>269.43</ele>
   </trkpt>
   <trkpt lat="59.7608" lon="10.20237">
    <ele>269.11</ele>
   </trkpt>
   <trkpt lat="59.76070000000001" lon="10.20226">
    <ele>269.09</ele>
   </trkpt>
   <trkpt lat="59.76059000000001" lon="10.20194">
    <ele>268.41</ele>
   </trkpt>
   <trkpt lat="59.760450000000006" lon="10.201740000000001">
    <ele>267.70000000000005</ele>
   </trkpt>
   <trkpt lat="59.760250000000006" lon="10.20162">
    <ele>266.34000000000003</ele>
   </trkpt>
   <trkpt lat="59.760200000000005" lon="10.20153">
    <ele>265.87</ele>
   </trkpt>
   <trkpt lat="59.76010000000001" lon="10.20104">
    <ele>265.49</ele>
   </trkpt>
   <trkpt lat="59.760000000000005" lon="10.200830000000002">
    <ele>265.28000000000003</ele>
   </trkpt>
   <trkpt lat="59.759930000000004" lon="10.200830000000002">
    <ele>265.24</ele>
   </trkpt>
   <trkpt lat="59.75981" lon="10.20091">
    <ele>265.41</ele>
   </trkpt>
   <trkpt lat="59.75963" lon="10.201070000000001">
    <ele>266.8</ele>
   </trkpt>
   <trkpt lat="59.75959" lon="10.20115">
    <ele>266.8</ele>
   </trkpt>
   <trkpt lat="59.75954000000001" lon="10.20132">
    <ele>267.29</ele>
   </trkpt>
   <trkpt lat="59.759420000000006" lon="10.201540000000001">
    <ele>267.64000000000004</ele>
   </trkpt>
   <trkpt lat="59.759330000000006" lon="10.201770000000002">
    <ele>267.1</ele>
   </trkpt>
   <trkpt lat="59.75920000000001" lon="10.2019">
    <ele>265.45</ele>
   </trkpt>
   <trkpt lat="59.759100000000004" lon="10.201860000000002">
    <ele>264.72</ele>
   </trkpt>
   <trkpt lat="59.75907000000001" lon="10.202110000000001">
    <ele>264.70000000000005</ele>
   </trkpt>
   <trkpt lat="59.758770000000005" lon="10.20198">
    <ele>272.89000000000004</ele>
   </trkpt>
   <trkpt lat="59.758700000000005" lon="10.202010000000001">
    <ele>273.94</ele>
   </trkpt>
   <trkpt lat="59.758570000000006" lon="10.201870000000001">
    <ele>275.91</ele>
   </trkpt>
   <trkpt lat="59.758300000000006" lon="10.202">
    <ele>276.32</ele>
   </trkpt>
   <trkpt lat="59.75817000000001" lon="10.202110000000001">
    <ele>275.89000000000004</ele>
   </trkpt>
   <trkpt lat="59.758120000000005" lon="10.20231">
    <ele>275.68</ele>
   </trkpt>
   <trkpt lat="59.75809" lon="10.20256">
    <ele>275.91</ele>
   </trkpt>
   <trkpt lat="59.75791" lon="10.202760000000001">
    <ele>275.97</ele>
   </trkpt>
   <trkpt lat="59.7578" lon="10.20283">
    <ele>275.6</ele>
   </trkpt>
   <trkpt lat="59.757650000000005" lon="10.202800000000002">
    <ele>274.65</ele>
   </trkpt>
   <trkpt lat="59.757290000000005" lon="10.202950000000001">
    <ele>269.95000000000005</ele>
   </trkpt>
   <trkpt lat="59.757020000000004" lon="10.20334">
    <ele>264.72</ele>
   </trkpt>
   <trkpt lat="59.75683000000001" lon="10.20406">
    <ele>262.26000000000005</ele>
   </trkpt>
   <trkpt lat="59.756800000000005" lon="10.20447">
    <ele>258.47</ele>
   </trkpt>
   <trkpt lat="59.75674000000001" lon="10.204460000000001">
    <ele>258.20000000000005</ele>
   </trkpt>
   <trkpt lat="59.7565" lon="10.204350000000002">
    <ele>255.04999999999998</ele>
   </trkpt>
   <trkpt lat="59.756170000000004" lon="10.204">
    <ele>251.64000000000001</ele>
   </trkpt>
   <trkpt lat="59.75602000000001" lon="10.204020000000002">
    <ele>251.35000000000002</ele>
   </trkpt>
   <trkpt lat="59.75587" lon="10.204080000000001">
    <ele>250.56</ele>
   </trkpt>
   <trkpt lat="59.755750000000006" lon="10.20404">
    <ele>249.72000000000003</ele>
   </trkpt>
   <trkpt lat="59.755660000000006" lon="10.20404">
    <ele>248.91000000000003</ele>
   </trkpt>
   <trkpt lat="59.75545" lon="10.20415">
    <ele>245.92000000000002</ele>
   </trkpt>
   <trkpt lat="59.75533000000001" lon="10.204170000000001">
    <ele>244.81000000000003</ele>
   </trkpt>
   <trkpt lat="59.755190000000006" lon="10.20423">
    <ele>242.74</ele>
   </trkpt>
   <trkpt lat="59.75502" lon="10.20425">
    <ele>240.84000000000003</ele>
   </trkpt>
   <trkpt lat="59.75489" lon="10.2042">
    <ele>238.53</ele>
   </trkpt>
   <trkpt lat="59.754780000000004" lon="10.204130000000001">
    <ele>236.73000000000002</ele>
   </trkpt>
   <trkpt lat="59.75457000000001" lon="10.20424">
    <ele>232.67000000000002</ele>
   </trkpt>
   <trkpt lat="59.754400000000004" lon="10.20423">
    <ele>230.12</ele>
   </trkpt>
   <trkpt lat="59.754290000000005" lon="10.20439">
    <ele>229.20000000000002</ele>
   </trkpt>
   <trkpt lat="59.754200000000004" lon="10.204460000000001">
    <ele>228.9</ele>
   </trkpt>
   <trkpt lat="59.75415" lon="10.20447">
    <ele>228.9</ele>
   </trkpt>
   <trkpt lat="59.754110000000004" lon="10.204450000000001">
    <ele>228.9</ele>
   </trkpt>
   <trkpt lat="59.753960000000006" lon="10.20425">
    <ele>228.29000000000002</ele>
   </trkpt>
   <trkpt lat="59.75385000000001" lon="10.20405">
    <ele>227.51000000000002</ele>
   </trkpt>
   <trkpt lat="59.75377" lon="10.204">
    <ele>227.44000000000003</ele>
   </trkpt>
   <trkpt lat="59.753620000000005" lon="10.204">
    <ele>227.39000000000001</ele>
   </trkpt>
   <trkpt lat="59.7535" lon="10.20396">
    <ele>227.5</ele>
   </trkpt>
   <trkpt lat="59.75343" lon="10.203690000000002">
    <ele>227.20000000000002</ele>
   </trkpt>
   <trkpt lat="59.753440000000005" lon="10.2033">
    <ele>225.98000000000002</ele>
   </trkpt>
   <trkpt lat="59.753420000000006" lon="10.203190000000001">
    <ele>225.98000000000002</ele>
   </trkpt>
   <trkpt lat="59.75311000000001" lon="10.20242">
    <ele>221.4</ele>
   </trkpt>
  </trkseg>
 </trk>
</gpx>
