<?xml version="1.0" encoding="UTF-8"?>
<gpx creator="StravaGPX" version="1.1" xmlns="http://www.topografix.com/GPX/1/1" xmlns:xsi="http://www.w3.org/2001/XMLSchema-instance" xsi:schemaLocation="http://www.topografix.com/GPX/1/1 http://www.topografix.com/GPX/1/1/gpx.xsd">
 <metadata>
  <name>Haukåsen-Mariholtet-v1</name>
  <author>
   <name>Nikita Zhevnitskiy</name>
   <link href="https://www.strava.com/athletes/59309702"/>
  </author>
  <copyright author="OpenStreetMap contributors">
   <year>2020</year>
   <license>https://www.openstreetmap.org/copyright</license>
  </copyright>
  <link href="https://www.strava.com/routes/3504450276501917752"/>
 </metadata>
 <trk>
  <name>Haukåsen-Mariholtet-v1</name>
  <link href="https://www.strava.com/routes/3504450276501917752"/>
  <type>trail_running</type>
  <trkseg>
   <trkpt lat="59.86596000000001" lon="10.8421">
    <ele>135.70000000000002</ele>
   </trkpt>
   <trkpt lat="59.86594" lon="10.84279">
    <ele>136.04000000000002</ele>
   </trkpt>
   <trkpt lat="59.86598000000001" lon="10.84281">
    <ele>136.04000000000002</ele>
   </trkpt>
   <trkpt lat="59.86600000000001" lon="10.84285">
    <ele>135.82000000000002</ele>
   </trkpt>
   <trkpt lat="59.866020000000006" lon="10.84298">
    <ele>135.82000000000002</ele>
   </trkpt>
   <trkpt lat="59.866060000000004" lon="10.84397">
    <ele>134.20000000000002</ele>
   </trkpt>
   <trkpt lat="59.86600000000001" lon="10.844510000000001">
    <ele>134.85</ele>
   </trkpt>
   <trkpt lat="59.865950000000005" lon="10.84481">
    <ele>135.38</ele>
   </trkpt>
   <trkpt lat="59.865660000000005" lon="10.84543">
    <ele>136.47</ele>
   </trkpt>
   <trkpt lat="59.86565" lon="10.84551">
    <ele>136.32000000000002</ele>
   </trkpt>
   <trkpt lat="59.865460000000006" lon="10.84537">
    <ele>134.76000000000002</ele>
   </trkpt>
   <trkpt lat="59.86534" lon="10.845320000000001">
    <ele>133.86</ele>
   </trkpt>
   <trkpt lat="59.86527" lon="10.845360000000001">
    <ele>133.62</ele>
   </trkpt>
   <trkpt lat="59.86504000000001" lon="10.845550000000001">
    <ele>132.29000000000002</ele>
   </trkpt>
   <trkpt lat="59.864560000000004" lon="10.845460000000001">
    <ele>132.9</ele>
   </trkpt>
   <trkpt lat="59.86437000000001" lon="10.84537">
    <ele>135.38</ele>
   </trkpt>
   <trkpt lat="59.864290000000004" lon="10.84523">
    <ele>136.70000000000002</ele>
   </trkpt>
   <trkpt lat="59.863960000000006" lon="10.84496">
    <ele>138.75</ele>
   </trkpt>
   <trkpt lat="59.86390000000001" lon="10.84486">
    <ele>138.95000000000002</ele>
   </trkpt>
   <trkpt lat="59.863530000000004" lon="10.84472">
    <ele>139.23000000000002</ele>
   </trkpt>
   <trkpt lat="59.863420000000005" lon="10.844520000000001">
    <ele>137.66</ele>
   </trkpt>
   <trkpt lat="59.86337" lon="10.844470000000001">
    <ele>137.66</ele>
   </trkpt>
   <trkpt lat="59.86337" lon="10.844520000000001">
    <ele>128.19</ele>
   </trkpt>
   <trkpt lat="59.86327000000001" lon="10.844430000000001">
    <ele>128.29000000000002</ele>
   </trkpt>
   <trkpt lat="59.86323" lon="10.84426">
    <ele>129.28</ele>
   </trkpt>
   <trkpt lat="59.86323" lon="10.8442">
    <ele>129.62</ele>
   </trkpt>
   <trkpt lat="59.863150000000005" lon="10.8442">
    <ele>135.24</ele>
   </trkpt>
   <trkpt lat="59.8631" lon="10.844240000000001">
    <ele>135.24</ele>
   </trkpt>
   <trkpt lat="59.862880000000004" lon="10.843960000000001">
    <ele>132.12</ele>
   </trkpt>
   <trkpt lat="59.862480000000005" lon="10.843670000000001">
    <ele>127.38000000000002</ele>
   </trkpt>
   <trkpt lat="59.86245" lon="10.8437">
    <ele>126.45</ele>
   </trkpt>
   <trkpt lat="59.86242000000001" lon="10.84378">
    <ele>124.46000000000001</ele>
   </trkpt>
   <trkpt lat="59.86238" lon="10.844000000000001">
    <ele>122.68</ele>
   </trkpt>
   <trkpt lat="59.86238" lon="10.8445">
    <ele>123.7</ele>
   </trkpt>
   <trkpt lat="59.86236" lon="10.844890000000001">
    <ele>126.42</ele>
   </trkpt>
   <trkpt lat="59.862260000000006" lon="10.845450000000001">
    <ele>127.16000000000003</ele>
   </trkpt>
   <trkpt lat="59.86229" lon="10.845640000000001">
    <ele>126.73</ele>
   </trkpt>
   <trkpt lat="59.86227" lon="10.84618">
    <ele>129.32000000000002</ele>
   </trkpt>
   <trkpt lat="59.86231000000001" lon="10.846530000000001">
    <ele>132.89000000000001</ele>
   </trkpt>
   <trkpt lat="59.86244000000001" lon="10.84712">
    <ele>137.12</ele>
   </trkpt>
   <trkpt lat="59.86247" lon="10.847520000000001">
    <ele>142.20000000000002</ele>
   </trkpt>
   <trkpt lat="59.862210000000005" lon="10.848370000000001">
    <ele>146.73</ele>
   </trkpt>
   <trkpt lat="59.86171" lon="10.84908">
    <ele>156.25</ele>
   </trkpt>
   <trkpt lat="59.86141000000001" lon="10.849340000000002">
    <ele>159.62</ele>
   </trkpt>
   <trkpt lat="59.861270000000005" lon="10.84952">
    <ele>161.02</ele>
   </trkpt>
   <trkpt lat="59.861200000000004" lon="10.84964">
    <ele>163.0</ele>
   </trkpt>
   <trkpt lat="59.861160000000005" lon="10.849870000000001">
    <ele>163.75</ele>
   </trkpt>
   <trkpt lat="59.86115" lon="10.85022">
    <ele>164.58</ele>
   </trkpt>
   <trkpt lat="59.86112000000001" lon="10.850320000000002">
    <ele>163.97</ele>
   </trkpt>
   <trkpt lat="59.861070000000005" lon="10.85039">
    <ele>163.97</ele>
   </trkpt>
   <trkpt lat="59.86072000000001" lon="10.85068">
    <ele>161.71</ele>
   </trkpt>
   <trkpt lat="59.860170000000004" lon="10.851420000000001">
    <ele>162.21</ele>
   </trkpt>
   <trkpt lat="59.860130000000005" lon="10.85143">
    <ele>162.21</ele>
   </trkpt>
   <trkpt lat="59.86008" lon="10.851410000000001">
    <ele>162.21</ele>
   </trkpt>
   <trkpt lat="59.859950000000005" lon="10.851550000000001">
    <ele>162.25</ele>
   </trkpt>
   <trkpt lat="59.859790000000004" lon="10.8518">
    <ele>162.63000000000002</ele>
   </trkpt>
   <trkpt lat="59.85972" lon="10.851880000000001">
    <ele>162.93</ele>
   </trkpt>
   <trkpt lat="59.859700000000004" lon="10.852110000000001">
    <ele>163.17000000000002</ele>
   </trkpt>
   <trkpt lat="59.859750000000005" lon="10.85232">
    <ele>163.55</ele>
   </trkpt>
   <trkpt lat="59.85960000000001" lon="10.852760000000002">
    <ele>166.5</ele>
   </trkpt>
   <trkpt lat="59.85953000000001" lon="10.852820000000001">
    <ele>167.97</ele>
   </trkpt>
   <trkpt lat="59.85943" lon="10.85288">
    <ele>169.47</ele>
   </trkpt>
   <trkpt lat="59.85920000000001" lon="10.85321">
    <ele>173.87000000000003</ele>
   </trkpt>
   <trkpt lat="59.859080000000006" lon="10.853280000000002">
    <ele>174.62000000000003</ele>
   </trkpt>
   <trkpt lat="59.859010000000005" lon="10.853290000000001">
    <ele>174.88</ele>
   </trkpt>
   <trkpt lat="59.85887" lon="10.853250000000001">
    <ele>175.09000000000003</ele>
   </trkpt>
   <trkpt lat="59.85878" lon="10.85349">
    <ele>176.81000000000003</ele>
   </trkpt>
   <trkpt lat="59.858650000000004" lon="10.85373">
    <ele>177.33</ele>
   </trkpt>
   <trkpt lat="59.858410000000006" lon="10.853720000000001">
    <ele>179.3</ele>
   </trkpt>
   <trkpt lat="59.858140000000006" lon="10.85379">
    <ele>180.14000000000001</ele>
   </trkpt>
   <trkpt lat="59.857980000000005" lon="10.853800000000001">
    <ele>181.21</ele>
   </trkpt>
   <trkpt lat="59.85783000000001" lon="10.853840000000002">
    <ele>181.74</ele>
   </trkpt>
   <trkpt lat="59.85759" lon="10.854130000000001">
    <ele>181.44000000000003</ele>
   </trkpt>
   <trkpt lat="59.85737" lon="10.854560000000001">
    <ele>185.64000000000001</ele>
   </trkpt>
   <trkpt lat="59.857110000000006" lon="10.854800000000001">
    <ele>190.43</ele>
   </trkpt>
   <trkpt lat="59.85674" lon="10.855640000000001">
    <ele>190.59</ele>
   </trkpt>
   <trkpt lat="59.856590000000004" lon="10.85588">
    <ele>190.87</ele>
   </trkpt>
   <trkpt lat="59.85643" lon="10.85599">
    <ele>191.92000000000002</ele>
   </trkpt>
   <trkpt lat="59.856260000000006" lon="10.85623">
    <ele>191.3</ele>
   </trkpt>
   <trkpt lat="59.856100000000005" lon="10.85635">
    <ele>191.48000000000002</ele>
   </trkpt>
   <trkpt lat="59.85587" lon="10.85636">
    <ele>191.59</ele>
   </trkpt>
   <trkpt lat="59.855720000000005" lon="10.856420000000002">
    <ele>191.25</ele>
   </trkpt>
   <trkpt lat="59.85553" lon="10.85669">
    <ele>191.04000000000002</ele>
   </trkpt>
   <trkpt lat="59.85535" lon="10.856810000000001">
    <ele>190.54000000000002</ele>
   </trkpt>
   <trkpt lat="59.85526000000001" lon="10.856950000000001">
    <ele>189.43</ele>
   </trkpt>
   <trkpt lat="59.85517000000001" lon="10.85725">
    <ele>189.26000000000002</ele>
   </trkpt>
   <trkpt lat="59.85515" lon="10.857510000000001">
    <ele>190.71</ele>
   </trkpt>
   <trkpt lat="59.85506" lon="10.857840000000001">
    <ele>195.04000000000002</ele>
   </trkpt>
   <trkpt lat="59.85493" lon="10.85805">
    <ele>196.58</ele>
   </trkpt>
   <trkpt lat="59.85477" lon="10.858170000000001">
    <ele>197.5</ele>
   </trkpt>
   <trkpt lat="59.854600000000005" lon="10.858170000000001">
    <ele>197.18</ele>
   </trkpt>
   <trkpt lat="59.854260000000004" lon="10.858490000000002">
    <ele>196.98000000000002</ele>
   </trkpt>
   <trkpt lat="59.85378000000001" lon="10.858690000000001">
    <ele>196.15</ele>
   </trkpt>
   <trkpt lat="59.85371000000001" lon="10.8588">
    <ele>196.0</ele>
   </trkpt>
   <trkpt lat="59.853640000000006" lon="10.85909">
    <ele>196.22</ele>
   </trkpt>
   <trkpt lat="59.853820000000006" lon="10.859580000000001">
    <ele>197.83</ele>
   </trkpt>
   <trkpt lat="59.853880000000004" lon="10.85993">
    <ele>198.08</ele>
   </trkpt>
   <trkpt lat="59.85392" lon="10.860370000000001">
    <ele>199.22</ele>
   </trkpt>
   <trkpt lat="59.85401" lon="10.860600000000002">
    <ele>201.76000000000002</ele>
   </trkpt>
   <trkpt lat="59.85419" lon="10.860790000000001">
    <ele>205.98000000000002</ele>
   </trkpt>
   <trkpt lat="59.85434000000001" lon="10.860990000000001">
    <ele>208.89000000000001</ele>
   </trkpt>
   <trkpt lat="59.854400000000005" lon="10.861270000000001">
    <ele>209.87000000000003</ele>
   </trkpt>
   <trkpt lat="59.854350000000004" lon="10.861690000000001">
    <ele>212.99</ele>
   </trkpt>
   <trkpt lat="59.854290000000006" lon="10.861910000000002">
    <ele>215.47000000000003</ele>
   </trkpt>
   <trkpt lat="59.85416000000001" lon="10.862160000000001">
    <ele>216.96</ele>
   </trkpt>
   <trkpt lat="59.8541" lon="10.862400000000001">
    <ele>220.06</ele>
   </trkpt>
   <trkpt lat="59.85408" lon="10.86261">
    <ele>221.13000000000002</ele>
   </trkpt>
   <trkpt lat="59.85408" lon="10.86288">
    <ele>222.20000000000002</ele>
   </trkpt>
   <trkpt lat="59.85399" lon="10.86334">
    <ele>224.41000000000003</ele>
   </trkpt>
   <trkpt lat="59.85394" lon="10.864">
    <ele>223.18</ele>
   </trkpt>
   <trkpt lat="59.853770000000004" lon="10.86428">
    <ele>224.74</ele>
   </trkpt>
   <trkpt lat="59.8537" lon="10.86448">
    <ele>226.74</ele>
   </trkpt>
   <trkpt lat="59.85356" lon="10.8648">
    <ele>228.91000000000003</ele>
   </trkpt>
   <trkpt lat="59.85320000000001" lon="10.86585">
    <ele>234.27</ele>
   </trkpt>
   <trkpt lat="59.853030000000004" lon="10.86627">
    <ele>235.08</ele>
   </trkpt>
   <trkpt lat="59.85295000000001" lon="10.86641">
    <ele>235.19</ele>
   </trkpt>
   <trkpt lat="59.85286000000001" lon="10.86646">
    <ele>235.35000000000002</ele>
   </trkpt>
   <trkpt lat="59.85262" lon="10.866790000000002">
    <ele>236.21000000000004</ele>
   </trkpt>
   <trkpt lat="59.85221000000001" lon="10.866940000000001">
    <ele>237.07000000000002</ele>
   </trkpt>
   <trkpt lat="59.85208000000001" lon="10.86706">
    <ele>236.89000000000001</ele>
   </trkpt>
   <trkpt lat="59.85193" lon="10.86734">
    <ele>236.11</ele>
   </trkpt>
   <trkpt lat="59.85188000000001" lon="10.86749">
    <ele>236.06</ele>
   </trkpt>
   <trkpt lat="59.85179000000001" lon="10.86782">
    <ele>235.5</ele>
   </trkpt>
   <trkpt lat="59.851760000000006" lon="10.868170000000001">
    <ele>234.46000000000004</ele>
   </trkpt>
   <trkpt lat="59.85177" lon="10.868450000000001">
    <ele>234.10000000000002</ele>
   </trkpt>
   <trkpt lat="59.85174000000001" lon="10.868590000000001">
    <ele>234.0</ele>
   </trkpt>
   <trkpt lat="59.851620000000004" lon="10.8688">
    <ele>233.26000000000002</ele>
   </trkpt>
   <trkpt lat="59.85134000000001" lon="10.86968">
    <ele>229.85000000000002</ele>
   </trkpt>
   <trkpt lat="59.851020000000005" lon="10.87058">
    <ele>231.81</ele>
   </trkpt>
   <trkpt lat="59.85094" lon="10.87096">
    <ele>233.91</ele>
   </trkpt>
   <trkpt lat="59.85094" lon="10.8718">
    <ele>236.14000000000001</ele>
   </trkpt>
   <trkpt lat="59.8509" lon="10.872200000000001">
    <ele>238.99</ele>
   </trkpt>
   <trkpt lat="59.85078000000001" lon="10.872630000000001">
    <ele>242.65000000000003</ele>
   </trkpt>
   <trkpt lat="59.850770000000004" lon="10.87279">
    <ele>245.85</ele>
   </trkpt>
   <trkpt lat="59.850910000000006" lon="10.87349">
    <ele>247.37</ele>
   </trkpt>
   <trkpt lat="59.850970000000004" lon="10.874350000000002">
    <ele>246.83</ele>
   </trkpt>
   <trkpt lat="59.85094" lon="10.874540000000001">
    <ele>246.66000000000003</ele>
   </trkpt>
   <trkpt lat="59.85078000000001" lon="10.87484">
    <ele>247.8</ele>
   </trkpt>
   <trkpt lat="59.85067000000001" lon="10.87526">
    <ele>247.48000000000002</ele>
   </trkpt>
   <trkpt lat="59.850280000000005" lon="10.87528">
    <ele>248.8</ele>
   </trkpt>
   <trkpt lat="59.850030000000004" lon="10.875240000000002">
    <ele>247.96</ele>
   </trkpt>
   <trkpt lat="59.849920000000004" lon="10.875300000000001">
    <ele>248.45000000000002</ele>
   </trkpt>
   <trkpt lat="59.8498" lon="10.875530000000001">
    <ele>250.45</ele>
   </trkpt>
   <trkpt lat="59.849630000000005" lon="10.875610000000002">
    <ele>250.75000000000003</ele>
   </trkpt>
   <trkpt lat="59.84949" lon="10.875910000000001">
    <ele>252.01000000000002</ele>
   </trkpt>
   <trkpt lat="59.84933" lon="10.87602">
    <ele>253.45000000000002</ele>
   </trkpt>
   <trkpt lat="59.84906" lon="10.87634">
    <ele>257.12</ele>
   </trkpt>
   <trkpt lat="59.848400000000005" lon="10.876510000000001">
    <ele>256.89</ele>
   </trkpt>
   <trkpt lat="59.848310000000005" lon="10.87681">
    <ele>258.89</ele>
   </trkpt>
   <trkpt lat="59.84803" lon="10.87724">
    <ele>259.86</ele>
   </trkpt>
   <trkpt lat="59.84798000000001" lon="10.87739">
    <ele>260.49</ele>
   </trkpt>
   <trkpt lat="59.84792" lon="10.878070000000001">
    <ele>263.42</ele>
   </trkpt>
   <trkpt lat="59.84781" lon="10.878520000000002">
    <ele>264.68</ele>
   </trkpt>
   <trkpt lat="59.84774" lon="10.878580000000001">
    <ele>264.45</ele>
   </trkpt>
   <trkpt lat="59.84752" lon="10.878540000000001">
    <ele>267.03000000000003</ele>
   </trkpt>
   <trkpt lat="59.847280000000005" lon="10.878390000000001">
    <ele>266.99</ele>
   </trkpt>
   <trkpt lat="59.84714" lon="10.878430000000002">
    <ele>266.69000000000005</ele>
   </trkpt>
   <trkpt lat="59.84687" lon="10.87874">
    <ele>266.66</ele>
   </trkpt>
   <trkpt lat="59.84673000000001" lon="10.878820000000001">
    <ele>265.37</ele>
   </trkpt>
   <trkpt lat="59.84649" lon="10.878660000000002">
    <ele>262.5</ele>
   </trkpt>
   <trkpt lat="59.846180000000004" lon="10.87864">
    <ele>260.20000000000005</ele>
   </trkpt>
   <trkpt lat="59.845760000000006" lon="10.87888">
    <ele>254.4</ele>
   </trkpt>
   <trkpt lat="59.84568" lon="10.879240000000001">
    <ele>249.38000000000002</ele>
   </trkpt>
   <trkpt lat="59.845560000000006" lon="10.87936">
    <ele>244.87000000000003</ele>
   </trkpt>
   <trkpt lat="59.84552000000001" lon="10.87949">
    <ele>240.07000000000002</ele>
   </trkpt>
   <trkpt lat="59.845560000000006" lon="10.879850000000001">
    <ele>235.62000000000003</ele>
   </trkpt>
   <trkpt lat="59.845510000000004" lon="10.87987">
    <ele>234.03</ele>
   </trkpt>
   <trkpt lat="59.84552000000001" lon="10.88001">
    <ele>228.95000000000002</ele>
   </trkpt>
   <trkpt lat="59.84541000000001" lon="10.8802">
    <ele>225.83</ele>
   </trkpt>
   <trkpt lat="59.845330000000004" lon="10.880080000000001">
    <ele>220.45</ele>
   </trkpt>
   <trkpt lat="59.845240000000004" lon="10.879990000000001">
    <ele>219.05</ele>
   </trkpt>
   <trkpt lat="59.845110000000005" lon="10.87997">
    <ele>214.35</ele>
   </trkpt>
   <trkpt lat="59.84498000000001" lon="10.879710000000001">
    <ele>205.67000000000002</ele>
   </trkpt>
   <trkpt lat="59.84489000000001" lon="10.879790000000002">
    <ele>202.29000000000002</ele>
   </trkpt>
   <trkpt lat="59.844800000000006" lon="10.87973">
    <ele>200.69</ele>
   </trkpt>
   <trkpt lat="59.844770000000004" lon="10.879750000000001">
    <ele>199.22</ele>
   </trkpt>
   <trkpt lat="59.84463" lon="10.88002">
    <ele>195.33</ele>
   </trkpt>
   <trkpt lat="59.844710000000006" lon="10.880490000000002">
    <ele>195.43</ele>
   </trkpt>
   <trkpt lat="59.84485000000001" lon="10.88086">
    <ele>195.77</ele>
   </trkpt>
   <trkpt lat="59.844840000000005" lon="10.88189">
    <ele>201.70000000000002</ele>
   </trkpt>
   <trkpt lat="59.84488" lon="10.88213">
    <ele>202.41</ele>
   </trkpt>
   <trkpt lat="59.844930000000005" lon="10.8823">
    <ele>202.51000000000002</ele>
   </trkpt>
   <trkpt lat="59.84494000000001" lon="10.88245">
    <ele>202.75</ele>
   </trkpt>
   <trkpt lat="59.84492" lon="10.88255">
    <ele>202.75</ele>
   </trkpt>
   <trkpt lat="59.844840000000005" lon="10.882750000000001">
    <ele>203.11</ele>
   </trkpt>
   <trkpt lat="59.844750000000005" lon="10.882850000000001">
    <ele>203.29000000000002</ele>
   </trkpt>
   <trkpt lat="59.84454" lon="10.883030000000002">
    <ele>202.75</ele>
   </trkpt>
   <trkpt lat="59.84449000000001" lon="10.8831">
    <ele>202.61</ele>
   </trkpt>
   <trkpt lat="59.844440000000006" lon="10.883280000000001">
    <ele>202.49</ele>
   </trkpt>
   <trkpt lat="59.84440000000001" lon="10.88363">
    <ele>202.54000000000002</ele>
   </trkpt>
   <trkpt lat="59.84436" lon="10.883740000000001">
    <ele>202.61</ele>
   </trkpt>
   <trkpt lat="59.844280000000005" lon="10.883790000000001">
    <ele>202.91</ele>
   </trkpt>
   <trkpt lat="59.844080000000005" lon="10.88408">
    <ele>203.01000000000002</ele>
   </trkpt>
   <trkpt lat="59.84394" lon="10.88441">
    <ele>202.87</ele>
   </trkpt>
   <trkpt lat="59.8436" lon="10.88503">
    <ele>203.15000000000003</ele>
   </trkpt>
   <trkpt lat="59.84342" lon="10.88554">
    <ele>200.39000000000001</ele>
   </trkpt>
   <trkpt lat="59.843070000000004" lon="10.885990000000001">
    <ele>195.08</ele>
   </trkpt>
   <trkpt lat="59.84284" lon="10.88635">
    <ele>192.20000000000002</ele>
   </trkpt>
   <trkpt lat="59.842620000000004" lon="10.88682">
    <ele>191.53</ele>
   </trkpt>
   <trkpt lat="59.84245000000001" lon="10.887080000000001">
    <ele>191.53</ele>
   </trkpt>
   <trkpt lat="59.842130000000004" lon="10.887300000000002">
    <ele>191.75</ele>
   </trkpt>
   <trkpt lat="59.84207000000001" lon="10.88779">
    <ele>188.79000000000002</ele>
   </trkpt>
   <trkpt lat="59.842180000000006" lon="10.888330000000002">
    <ele>190.49</ele>
   </trkpt>
   <trkpt lat="59.842180000000006" lon="10.888580000000001">
    <ele>191.09</ele>
   </trkpt>
   <trkpt lat="59.8421" lon="10.888710000000001">
    <ele>190.25</ele>
   </trkpt>
   <trkpt lat="59.841750000000005" lon="10.88898">
    <ele>188.52</ele>
   </trkpt>
   <trkpt lat="59.84141" lon="10.88949">
    <ele>186.42</ele>
   </trkpt>
   <trkpt lat="59.84129000000001" lon="10.889520000000001">
    <ele>186.27</ele>
   </trkpt>
   <trkpt lat="59.84078" lon="10.88992">
    <ele>188.52</ele>
   </trkpt>
   <trkpt lat="59.840650000000004" lon="10.89001">
    <ele>189.06</ele>
   </trkpt>
   <trkpt lat="59.84047" lon="10.890080000000001">
    <ele>190.11</ele>
   </trkpt>
   <trkpt lat="59.839740000000006" lon="10.890030000000001">
    <ele>185.84</ele>
   </trkpt>
   <trkpt lat="59.839044999892224" lon="10.890045000315459">
    <ele>182.8</ele>
   </trkpt>
   <trkpt lat="59.838350000000005" lon="10.89006">
    <ele>175.64000000000001</ele>
   </trkpt>
   <trkpt lat="59.838060000000006" lon="10.890210000000002">
    <ele>173.35</ele>
   </trkpt>
   <trkpt lat="59.83785" lon="10.89039">
    <ele>170.17000000000002</ele>
   </trkpt>
   <trkpt lat="59.837610000000005" lon="10.890680000000001">
    <ele>165.64000000000001</ele>
   </trkpt>
   <trkpt lat="59.837500000000006" lon="10.89113">
    <ele>162.97</ele>
   </trkpt>
   <trkpt lat="59.83724000000001" lon="10.891670000000001">
    <ele>160.75</ele>
   </trkpt>
   <trkpt lat="59.83708000000001" lon="10.891850000000002">
    <ele>161.07999999999998</ele>
   </trkpt>
   <trkpt lat="59.83690000000001" lon="10.892280000000001">
    <ele>162.42000000000002</ele>
   </trkpt>
   <trkpt lat="59.83666" lon="10.89254">
    <ele>162.17000000000002</ele>
   </trkpt>
   <trkpt lat="59.83634000000001" lon="10.89278">
    <ele>162.98000000000002</ele>
   </trkpt>
   <trkpt lat="59.83621000000001" lon="10.89283">
    <ele>163.32000000000002</ele>
   </trkpt>
   <trkpt lat="59.83607000000001" lon="10.89296">
    <ele>164.01000000000002</ele>
   </trkpt>
   <trkpt lat="59.83597" lon="10.89309">
    <ele>164.19</ele>
   </trkpt>
   <trkpt lat="59.836110000000005" lon="10.893070000000002">
    <ele>165.29000000000002</ele>
   </trkpt>
   <trkpt lat="59.83634000000001" lon="10.893070000000002">
    <ele>165.93</ele>
   </trkpt>
   <trkpt lat="59.836600000000004" lon="10.89315">
    <ele>166.16</ele>
   </trkpt>
   <trkpt lat="59.83684" lon="10.89309">
    <ele>169.51000000000002</ele>
   </trkpt>
   <trkpt lat="59.837160000000004" lon="10.892880000000002">
    <ele>172.45000000000002</ele>
   </trkpt>
   <trkpt lat="59.83733" lon="10.892840000000001">
    <ele>174.89000000000001</ele>
   </trkpt>
   <trkpt lat="59.83753000000001" lon="10.892890000000001">
    <ele>176.56000000000003</ele>
   </trkpt>
   <trkpt lat="59.83796" lon="10.89319">
    <ele>182.94000000000003</ele>
   </trkpt>
   <trkpt lat="59.838260000000005" lon="10.89348">
    <ele>184.11</ele>
   </trkpt>
   <trkpt lat="59.83849000000001" lon="10.893740000000001">
    <ele>186.17</ele>
   </trkpt>
   <trkpt lat="59.838550000000005" lon="10.893770000000002">
    <ele>186.37</ele>
   </trkpt>
   <trkpt lat="59.838750000000005" lon="10.893790000000001">
    <ele>187.04000000000002</ele>
   </trkpt>
   <trkpt lat="59.839180000000006" lon="10.893870000000001">
    <ele>187.05</ele>
   </trkpt>
   <trkpt lat="59.83925000000001" lon="10.89395">
    <ele>187.28</ele>
   </trkpt>
   <trkpt lat="59.83939" lon="10.89418">
    <ele>188.54000000000002</ele>
   </trkpt>
   <trkpt lat="59.83950000000001" lon="10.89455">
    <ele>193.52</ele>
   </trkpt>
   <trkpt lat="59.839690000000004" lon="10.89545">
    <ele>200.20000000000002</ele>
   </trkpt>
   <trkpt lat="59.839760000000005" lon="10.895570000000001">
    <ele>201.9</ele>
   </trkpt>
   <trkpt lat="59.84002" lon="10.895850000000001">
    <ele>205.79000000000002</ele>
   </trkpt>
   <trkpt lat="59.840140000000005" lon="10.89592">
    <ele>206.25</ele>
   </trkpt>
   <trkpt lat="59.840210000000006" lon="10.89601">
    <ele>206.39000000000001</ele>
   </trkpt>
   <trkpt lat="59.84033" lon="10.89606">
    <ele>206.94</ele>
   </trkpt>
   <trkpt lat="59.84056" lon="10.89597">
    <ele>207.27</ele>
   </trkpt>
   <trkpt lat="59.84069" lon="10.895990000000001">
    <ele>207.26000000000002</ele>
   </trkpt>
   <trkpt lat="59.840880000000006" lon="10.896070000000002">
    <ele>206.85</ele>
   </trkpt>
   <trkpt lat="59.841060000000006" lon="10.89619">
    <ele>206.6</ele>
   </trkpt>
   <trkpt lat="59.84127" lon="10.89616">
    <ele>206.16</ele>
   </trkpt>
   <trkpt lat="59.84138000000001" lon="10.89619">
    <ele>206.08</ele>
   </trkpt>
   <trkpt lat="59.841640000000005" lon="10.896210000000002">
    <ele>206.35</ele>
   </trkpt>
   <trkpt lat="59.842000000000006" lon="10.89605">
    <ele>207.78000000000003</ele>
   </trkpt>
   <trkpt lat="59.842470000000006" lon="10.89588">
    <ele>208.33</ele>
   </trkpt>
   <trkpt lat="59.84263000000001" lon="10.89572">
    <ele>208.96</ele>
   </trkpt>
   <trkpt lat="59.843090000000004" lon="10.89511">
    <ele>210.47000000000003</ele>
   </trkpt>
   <trkpt lat="59.843160000000005" lon="10.895000000000001">
    <ele>210.67000000000002</ele>
   </trkpt>
   <trkpt lat="59.84326000000001" lon="10.894910000000001">
    <ele>210.74</ele>
   </trkpt>
   <trkpt lat="59.843590000000006" lon="10.894680000000001">
    <ele>211.12000000000003</ele>
   </trkpt>
   <trkpt lat="59.84385" lon="10.89446">
    <ele>211.67000000000002</ele>
   </trkpt>
   <trkpt lat="59.844120000000004" lon="10.89418">
    <ele>211.86</ele>
   </trkpt>
   <trkpt lat="59.844480000000004" lon="10.89403">
    <ele>212.05</ele>
   </trkpt>
   <trkpt lat="59.84492" lon="10.893910000000002">
    <ele>212.48000000000002</ele>
   </trkpt>
   <trkpt lat="59.845130000000005" lon="10.89381">
    <ele>212.97000000000003</ele>
   </trkpt>
   <trkpt lat="59.84535" lon="10.89366">
    <ele>213.39000000000001</ele>
   </trkpt>
   <trkpt lat="59.845560000000006" lon="10.893590000000001">
    <ele>214.05</ele>
   </trkpt>
   <trkpt lat="59.845740000000006" lon="10.893460000000001">
    <ele>214.75000000000003</ele>
   </trkpt>
   <trkpt lat="59.846090000000004" lon="10.893310000000001">
    <ele>216.10000000000002</ele>
   </trkpt>
   <trkpt lat="59.846160000000005" lon="10.893300000000002">
    <ele>216.26</ele>
   </trkpt>
   <trkpt lat="59.84622" lon="10.89324">
    <ele>216.45000000000002</ele>
   </trkpt>
   <trkpt lat="59.846340000000005" lon="10.893180000000001">
    <ele>217.18</ele>
   </trkpt>
   <trkpt lat="59.84662" lon="10.893160000000002">
    <ele>219.29000000000002</ele>
   </trkpt>
   <trkpt lat="59.84676" lon="10.89311">
    <ele>220.19000000000003</ele>
   </trkpt>
   <trkpt lat="59.847150000000006" lon="10.892880000000002">
    <ele>223.59</ele>
   </trkpt>
   <trkpt lat="59.847300000000004" lon="10.89281">
    <ele>223.28</ele>
   </trkpt>
   <trkpt lat="59.84781" lon="10.89248">
    <ele>217.14000000000001</ele>
   </trkpt>
   <trkpt lat="59.84798000000001" lon="10.892520000000001">
    <ele>215.25000000000003</ele>
   </trkpt>
   <trkpt lat="59.84801" lon="10.892560000000001">
    <ele>215.25000000000003</ele>
   </trkpt>
   <trkpt lat="59.848060000000004" lon="10.89253">
    <ele>213.8</ele>
   </trkpt>
   <trkpt lat="59.84828" lon="10.89249">
    <ele>211.19000000000003</ele>
   </trkpt>
   <trkpt lat="59.84841000000001" lon="10.892560000000001">
    <ele>210.56000000000003</ele>
   </trkpt>
   <trkpt lat="59.848490000000005" lon="10.892560000000001">
    <ele>210.45000000000002</ele>
   </trkpt>
   <trkpt lat="59.848560000000006" lon="10.8925">
    <ele>210.32</ele>
   </trkpt>
   <trkpt lat="59.84870000000001" lon="10.89226">
    <ele>210.03000000000003</ele>
   </trkpt>
   <trkpt lat="59.84877" lon="10.89206">
    <ele>210.29</ele>
   </trkpt>
   <trkpt lat="59.84882" lon="10.891680000000001">
    <ele>210.92000000000002</ele>
   </trkpt>
   <trkpt lat="59.849140000000006" lon="10.891680000000001">
    <ele>214.93</ele>
   </trkpt>
   <trkpt lat="59.849360000000004" lon="10.89161">
    <ele>215.79</ele>
   </trkpt>
   <trkpt lat="59.849500000000006" lon="10.891480000000001">
    <ele>216.65</ele>
   </trkpt>
   <trkpt lat="59.84966000000001" lon="10.89151">
    <ele>217.96</ele>
   </trkpt>
   <trkpt lat="59.849900000000005" lon="10.891680000000001">
    <ele>222.28</ele>
   </trkpt>
   <trkpt lat="59.85002000000001" lon="10.89169">
    <ele>225.67000000000002</ele>
   </trkpt>
   <trkpt lat="59.85014" lon="10.89179">
    <ele>228.64000000000001</ele>
   </trkpt>
   <trkpt lat="59.850350000000006" lon="10.89187">
    <ele>230.47</ele>
   </trkpt>
   <trkpt lat="59.85056" lon="10.89183">
    <ele>233.77</ele>
   </trkpt>
   <trkpt lat="59.850840000000005" lon="10.89197">
    <ele>236.8</ele>
   </trkpt>
   <trkpt lat="59.851090000000006" lon="10.892000000000001">
    <ele>238.54000000000002</ele>
   </trkpt>
   <trkpt lat="59.85139" lon="10.892080000000002">
    <ele>237.74</ele>
   </trkpt>
   <trkpt lat="59.85166" lon="10.89198">
    <ele>237.33</ele>
   </trkpt>
   <trkpt lat="59.851820000000004" lon="10.891860000000001">
    <ele>236.95000000000002</ele>
   </trkpt>
   <trkpt lat="59.852000000000004" lon="10.89165">
    <ele>236.92000000000002</ele>
   </trkpt>
   <trkpt lat="59.85215" lon="10.89136">
    <ele>236.85000000000002</ele>
   </trkpt>
   <trkpt lat="59.852270000000004" lon="10.89095">
    <ele>238.02</ele>
   </trkpt>
   <trkpt lat="59.85262" lon="10.890970000000001">
    <ele>248.65</ele>
   </trkpt>
   <trkpt lat="59.85282000000001" lon="10.891020000000001">
    <ele>252.41000000000003</ele>
   </trkpt>
   <trkpt lat="59.85295000000001" lon="10.89117">
    <ele>255.51000000000002</ele>
   </trkpt>
   <trkpt lat="59.85305" lon="10.891110000000001">
    <ele>257.65999999999997</ele>
   </trkpt>
   <trkpt lat="59.853280000000005" lon="10.891200000000001">
    <ele>260.53000000000003</ele>
   </trkpt>
   <trkpt lat="59.85380000000001" lon="10.89112">
    <ele>262.91</ele>
   </trkpt>
   <trkpt lat="59.854350000000004" lon="10.89127">
    <ele>263.49</ele>
   </trkpt>
   <trkpt lat="59.854580000000006" lon="10.89122">
    <ele>261.79</ele>
   </trkpt>
   <trkpt lat="59.85492000000001" lon="10.89099">
    <ele>257.98</ele>
   </trkpt>
   <trkpt lat="59.855810000000005" lon="10.89094">
    <ele>263.29</ele>
   </trkpt>
   <trkpt lat="59.85624000000001" lon="10.89079">
    <ele>261.19000000000005</ele>
   </trkpt>
   <trkpt lat="59.85656" lon="10.890740000000001">
    <ele>258.65000000000003</ele>
   </trkpt>
   <trkpt lat="59.85678000000001" lon="10.890580000000002">
    <ele>254.62</ele>
   </trkpt>
   <trkpt lat="59.85714000000001" lon="10.890500000000001">
    <ele>250.67</ele>
   </trkpt>
   <trkpt lat="59.857690000000005" lon="10.89023">
    <ele>245.20000000000002</ele>
   </trkpt>
   <trkpt lat="59.85781000000001" lon="10.89029">
    <ele>243.97000000000003</ele>
   </trkpt>
   <trkpt lat="59.85808000000001" lon="10.89034">
    <ele>242.57</ele>
   </trkpt>
   <trkpt lat="59.85808000000001" lon="10.890160000000002">
    <ele>240.79000000000002</ele>
   </trkpt>
   <trkpt lat="59.85808000000001" lon="10.89034">
    <ele>242.57</ele>
   </trkpt>
   <trkpt lat="59.85812000000001" lon="10.890630000000002">
    <ele>245.70000000000002</ele>
   </trkpt>
   <trkpt lat="59.858160000000005" lon="10.89071">
    <ele>246.52</ele>
   </trkpt>
   <trkpt lat="59.858320000000006" lon="10.89066">
    <ele>249.82000000000002</ele>
   </trkpt>
   <trkpt lat="59.8586" lon="10.8907">
    <ele>252.25000000000003</ele>
   </trkpt>
   <trkpt lat="59.858740000000004" lon="10.89067">
    <ele>253.14000000000001</ele>
   </trkpt>
   <trkpt lat="59.858880000000006" lon="10.890550000000001">
    <ele>253.35000000000002</ele>
   </trkpt>
   <trkpt lat="59.85906000000001" lon="10.890460000000001">
    <ele>252.34</ele>
   </trkpt>
   <trkpt lat="59.85945" lon="10.89043">
    <ele>252.04000000000005</ele>
   </trkpt>
   <trkpt lat="59.85961" lon="10.890500000000001">
    <ele>252.54999999999998</ele>
   </trkpt>
   <trkpt lat="59.85978000000001" lon="10.89061">
    <ele>252.85000000000002</ele>
   </trkpt>
   <trkpt lat="59.859950000000005" lon="10.890630000000002">
    <ele>252.20000000000002</ele>
   </trkpt>
   <trkpt lat="59.860040000000005" lon="10.89067">
    <ele>252.47000000000003</ele>
   </trkpt>
   <trkpt lat="59.86041" lon="10.890540000000001">
    <ele>254.60000000000005</ele>
   </trkpt>
   <trkpt lat="59.86057" lon="10.89039">
    <ele>255.18</ele>
   </trkpt>
   <trkpt lat="59.860670000000006" lon="10.890270000000001">
    <ele>255.34</ele>
   </trkpt>
   <trkpt lat="59.86074000000001" lon="10.89028">
    <ele>255.21000000000004</ele>
   </trkpt>
   <trkpt lat="59.860870000000006" lon="10.89042">
    <ele>253.75000000000003</ele>
   </trkpt>
   <trkpt lat="59.861290000000004" lon="10.89052">
    <ele>248.09000000000003</ele>
   </trkpt>
   <trkpt lat="59.861580000000004" lon="10.890460000000001">
    <ele>247.21</ele>
   </trkpt>
   <trkpt lat="59.86189" lon="10.89024">
    <ele>244.93</ele>
   </trkpt>
   <trkpt lat="59.862080000000006" lon="10.889990000000001">
    <ele>245.36</ele>
   </trkpt>
   <trkpt lat="59.86234" lon="10.8899">
    <ele>245.48000000000002</ele>
   </trkpt>
   <trkpt lat="59.86262000000001" lon="10.88976">
    <ele>245.83</ele>
   </trkpt>
   <trkpt lat="59.862820000000006" lon="10.889710000000001">
    <ele>246.33</ele>
   </trkpt>
   <trkpt lat="59.86300000000001" lon="10.88963">
    <ele>247.13000000000002</ele>
   </trkpt>
   <trkpt lat="59.86309000000001" lon="10.889460000000001">
    <ele>246.85000000000002</ele>
   </trkpt>
   <trkpt lat="59.863220000000005" lon="10.88929">
    <ele>245.57</ele>
   </trkpt>
   <trkpt lat="59.86352000000001" lon="10.88898">
    <ele>243.3</ele>
   </trkpt>
   <trkpt lat="59.86366" lon="10.88898">
    <ele>241.35</ele>
   </trkpt>
   <trkpt lat="59.863730000000004" lon="10.889050000000001">
    <ele>240.54000000000002</ele>
   </trkpt>
   <trkpt lat="59.86379" lon="10.889190000000001">
    <ele>238.08</ele>
   </trkpt>
   <trkpt lat="59.864430000000006" lon="10.88865">
    <ele>229.74</ele>
   </trkpt>
   <trkpt lat="59.864630000000005" lon="10.888430000000001">
    <ele>228.58</ele>
   </trkpt>
   <trkpt lat="59.864810000000006" lon="10.888280000000002">
    <ele>227.82000000000002</ele>
   </trkpt>
   <trkpt lat="59.86502000000001" lon="10.888160000000001">
    <ele>226.59</ele>
   </trkpt>
   <trkpt lat="59.865480000000005" lon="10.8876">
    <ele>220.82000000000002</ele>
   </trkpt>
   <trkpt lat="59.86563" lon="10.88732">
    <ele>217.08</ele>
   </trkpt>
   <trkpt lat="59.865750000000006" lon="10.88718">
    <ele>216.25000000000003</ele>
   </trkpt>
   <trkpt lat="59.865860000000005" lon="10.8871">
    <ele>211.87000000000003</ele>
   </trkpt>
   <trkpt lat="59.86601" lon="10.887030000000001">
    <ele>208.65000000000003</ele>
   </trkpt>
   <trkpt lat="59.866310000000006" lon="10.886780000000002">
    <ele>205.94</ele>
   </trkpt>
   <trkpt lat="59.866460000000004" lon="10.886780000000002">
    <ele>205.25</ele>
   </trkpt>
   <trkpt lat="59.866670000000006" lon="10.88672">
    <ele>204.39000000000001</ele>
   </trkpt>
   <trkpt lat="59.867290000000004" lon="10.88593">
    <ele>196.44</ele>
   </trkpt>
   <trkpt lat="59.8674" lon="10.88588">
    <ele>195.36</ele>
   </trkpt>
   <trkpt lat="59.867610000000006" lon="10.88593">
    <ele>193.61</ele>
   </trkpt>
   <trkpt lat="59.867740000000005" lon="10.885890000000002">
    <ele>192.83</ele>
   </trkpt>
   <trkpt lat="59.86809" lon="10.88574">
    <ele>191.75</ele>
   </trkpt>
   <trkpt lat="59.86847" lon="10.885390000000001">
    <ele>190.54000000000002</ele>
   </trkpt>
   <trkpt lat="59.868570000000005" lon="10.88532">
    <ele>190.54000000000002</ele>
   </trkpt>
   <trkpt lat="59.86867" lon="10.885280000000002">
    <ele>189.72000000000003</ele>
   </trkpt>
   <trkpt lat="59.868900000000004" lon="10.885230000000002">
    <ele>189.26000000000002</ele>
   </trkpt>
   <trkpt lat="59.869130000000006" lon="10.88521">
    <ele>189.18</ele>
   </trkpt>
   <trkpt lat="59.869220000000006" lon="10.885140000000002">
    <ele>189.00000000000003</ele>
   </trkpt>
   <trkpt lat="59.86932" lon="10.884970000000001">
    <ele>188.72000000000003</ele>
   </trkpt>
   <trkpt lat="59.86936000000001" lon="10.88503">
    <ele>190.06</ele>
   </trkpt>
   <trkpt lat="59.86957" lon="10.885090000000002">
    <ele>194.05</ele>
   </trkpt>
   <trkpt lat="59.86965000000001" lon="10.88535">
    <ele>195.61</ele>
   </trkpt>
   <trkpt lat="59.86961" lon="10.88601">
    <ele>196.62</ele>
   </trkpt>
   <trkpt lat="59.86965000000001" lon="10.88616">
    <ele>197.92000000000002</ele>
   </trkpt>
   <trkpt lat="59.86976000000001" lon="10.88639">
    <ele>198.68</ele>
   </trkpt>
   <trkpt lat="59.869780000000006" lon="10.886640000000002">
    <ele>199.59</ele>
   </trkpt>
   <trkpt lat="59.86977" lon="10.886840000000001">
    <ele>201.08</ele>
   </trkpt>
   <trkpt lat="59.869910000000004" lon="10.88747">
    <ele>206.5</ele>
   </trkpt>
   <trkpt lat="59.86994000000001" lon="10.887720000000002">
    <ele>208.09000000000003</ele>
   </trkpt>
   <trkpt lat="59.86997" lon="10.88812">
    <ele>209.17000000000002</ele>
   </trkpt>
   <trkpt lat="59.86994000000001" lon="10.888800000000002">
    <ele>211.92000000000002</ele>
   </trkpt>
   <trkpt lat="59.86994000000001" lon="10.888810000000001">
    <ele>211.92000000000002</ele>
   </trkpt>
   <trkpt lat="59.869870000000006" lon="10.889380000000001">
    <ele>213.70000000000002</ele>
   </trkpt>
   <trkpt lat="59.869780000000006" lon="10.88973">
    <ele>214.32</ele>
   </trkpt>
   <trkpt lat="59.86954000000001" lon="10.89042">
    <ele>218.98</ele>
   </trkpt>
   <trkpt lat="59.869460000000004" lon="10.89056">
    <ele>218.98</ele>
   </trkpt>
   <trkpt lat="59.86923" lon="10.89089">
    <ele>221.63000000000002</ele>
   </trkpt>
   <trkpt lat="59.86916000000001" lon="10.89108">
    <ele>223.11</ele>
   </trkpt>
   <trkpt lat="59.86914" lon="10.891330000000002">
    <ele>225.5</ele>
   </trkpt>
   <trkpt lat="59.86914" lon="10.891470000000002">
    <ele>226.22000000000003</ele>
   </trkpt>
   <trkpt lat="59.869240000000005" lon="10.89217">
    <ele>229.23000000000002</ele>
   </trkpt>
   <trkpt lat="59.86919" lon="10.892850000000001">
    <ele>231.87</ele>
   </trkpt>
   <trkpt lat="59.869240000000005" lon="10.893410000000001">
    <ele>236.73000000000002</ele>
   </trkpt>
   <trkpt lat="59.86927000000001" lon="10.894020000000001">
    <ele>240.02</ele>
   </trkpt>
   <trkpt lat="59.8693" lon="10.89418">
    <ele>241.00000000000003</ele>
   </trkpt>
   <trkpt lat="59.86956000000001" lon="10.894870000000001">
    <ele>241.53000000000003</ele>
   </trkpt>
   <trkpt lat="59.869600000000005" lon="10.89511">
    <ele>240.05</ele>
   </trkpt>
   <trkpt lat="59.86961" lon="10.895430000000001">
    <ele>239.42000000000002</ele>
   </trkpt>
   <trkpt lat="59.86959" lon="10.896080000000001">
    <ele>237.43000000000004</ele>
   </trkpt>
   <trkpt lat="59.86959" lon="10.89615">
    <ele>237.21000000000004</ele>
   </trkpt>
   <trkpt lat="59.869600000000005" lon="10.896370000000001">
    <ele>236.16</ele>
   </trkpt>
   <trkpt lat="59.86984" lon="10.89769">
    <ele>230.15</ele>
   </trkpt>
   <trkpt lat="59.86988" lon="10.89779">
    <ele>229.62</ele>
   </trkpt>
   <trkpt lat="59.870110000000004" lon="10.897960000000001">
    <ele>226.82000000000002</ele>
   </trkpt>
   <trkpt lat="59.870250000000006" lon="10.898050000000001">
    <ele>226.26000000000002</ele>
   </trkpt>
   <trkpt lat="59.87032000000001" lon="10.89807">
    <ele>225.26000000000002</ele>
   </trkpt>
   <trkpt lat="59.870400000000004" lon="10.898050000000001">
    <ele>224.98000000000002</ele>
   </trkpt>
   <trkpt lat="59.87077000000001" lon="10.897860000000001">
    <ele>220.26000000000002</ele>
   </trkpt>
   <trkpt lat="59.87091" lon="10.89783">
    <ele>218.43</ele>
   </trkpt>
   <trkpt lat="59.87098" lon="10.897870000000001">
    <ele>218.19000000000003</ele>
   </trkpt>
   <trkpt lat="59.871050000000004" lon="10.897950000000002">
    <ele>218.00000000000003</ele>
   </trkpt>
   <trkpt lat="59.8712" lon="10.89854">
    <ele>216.85000000000002</ele>
   </trkpt>
   <trkpt lat="59.871340000000004" lon="10.89891">
    <ele>217.42000000000002</ele>
   </trkpt>
   <trkpt lat="59.87160000000001" lon="10.89907">
    <ele>219.82000000000002</ele>
   </trkpt>
   <trkpt lat="59.87221" lon="10.89921">
    <ele>233.23000000000002</ele>
   </trkpt>
   <trkpt lat="59.87229000000001" lon="10.899260000000002">
    <ele>233.66</ele>
   </trkpt>
   <trkpt lat="59.87238000000001" lon="10.89938">
    <ele>234.70000000000002</ele>
   </trkpt>
   <trkpt lat="59.87248" lon="10.89947">
    <ele>235.66</ele>
   </trkpt>
   <trkpt lat="59.87265000000001" lon="10.89952">
    <ele>238.21000000000004</ele>
   </trkpt>
   <trkpt lat="59.872840000000004" lon="10.89999">
    <ele>238.01000000000002</ele>
   </trkpt>
   <trkpt lat="59.87297" lon="10.90018">
    <ele>241.31000000000003</ele>
   </trkpt>
   <trkpt lat="59.87315" lon="10.90071">
    <ele>245.16000000000003</ele>
   </trkpt>
   <trkpt lat="59.87322" lon="10.900820000000001">
    <ele>245.98000000000002</ele>
   </trkpt>
   <trkpt lat="59.873290000000004" lon="10.901190000000001">
    <ele>247.37</ele>
   </trkpt>
   <trkpt lat="59.87333" lon="10.90127">
    <ele>247.60000000000002</ele>
   </trkpt>
   <trkpt lat="59.873380000000004" lon="10.90132">
    <ele>247.72000000000003</ele>
   </trkpt>
   <trkpt lat="59.87353" lon="10.90165">
    <ele>247.72000000000003</ele>
   </trkpt>
   <trkpt lat="59.87366000000001" lon="10.90177">
    <ele>248.8</ele>
   </trkpt>
   <trkpt lat="59.873740000000005" lon="10.90198">
    <ele>251.09000000000003</ele>
   </trkpt>
   <trkpt lat="59.87375000000001" lon="10.9021">
    <ele>252.34</ele>
   </trkpt>
   <trkpt lat="59.873850000000004" lon="10.902230000000001">
    <ele>253.36</ele>
   </trkpt>
   <trkpt lat="59.873960000000004" lon="10.902180000000001">
    <ele>255.16</ele>
   </trkpt>
   <trkpt lat="59.87413000000001" lon="10.902030000000002">
    <ele>257.29</ele>
   </trkpt>
   <trkpt lat="59.87415000000001" lon="10.90197">
    <ele>257.71</ele>
   </trkpt>
   <trkpt lat="59.87418" lon="10.901940000000002">
    <ele>257.71</ele>
   </trkpt>
   <trkpt lat="59.874320000000004" lon="10.90197">
    <ele>258.35</ele>
   </trkpt>
   <trkpt lat="59.874430000000004" lon="10.90207">
    <ele>258.35</ele>
   </trkpt>
   <trkpt lat="59.874500000000005" lon="10.902050000000001">
    <ele>258.29</ele>
   </trkpt>
   <trkpt lat="59.87462000000001" lon="10.90196">
    <ele>258.68</ele>
   </trkpt>
   <trkpt lat="59.87469000000001" lon="10.901940000000002">
    <ele>259.23</ele>
   </trkpt>
   <trkpt lat="59.87476" lon="10.901940000000002">
    <ele>259.49</ele>
   </trkpt>
   <trkpt lat="59.87487" lon="10.90191">
    <ele>259.70000000000005</ele>
   </trkpt>
   <trkpt lat="59.874930000000006" lon="10.901950000000001">
    <ele>260.64000000000004</ele>
   </trkpt>
   <trkpt lat="59.87507000000001" lon="10.90191">
    <ele>260.8</ele>
   </trkpt>
   <trkpt lat="59.875440000000005" lon="10.901890000000002">
    <ele>259.68</ele>
   </trkpt>
   <trkpt lat="59.87558000000001" lon="10.901810000000001">
    <ele>259.05</ele>
   </trkpt>
   <trkpt lat="59.875640000000004" lon="10.90187">
    <ele>258.91</ele>
   </trkpt>
   <trkpt lat="59.8757" lon="10.90188">
    <ele>258.91</ele>
   </trkpt>
   <trkpt lat="59.87581000000001" lon="10.901850000000001">
    <ele>258.83</ele>
   </trkpt>
   <trkpt lat="59.87588" lon="10.901850000000001">
    <ele>258.78000000000003</ele>
   </trkpt>
   <trkpt lat="59.87606" lon="10.901940000000002">
    <ele>257.84000000000003</ele>
   </trkpt>
   <trkpt lat="59.87623000000001" lon="10.90191">
    <ele>257.3</ele>
   </trkpt>
   <trkpt lat="59.87639000000001" lon="10.901940000000002">
    <ele>256.98</ele>
   </trkpt>
   <trkpt lat="59.876540000000006" lon="10.901900000000001">
    <ele>256.42</ele>
   </trkpt>
   <trkpt lat="59.876650000000005" lon="10.901940000000002">
    <ele>254.85000000000002</ele>
   </trkpt>
   <trkpt lat="59.876720000000006" lon="10.901890000000002">
    <ele>254.85000000000002</ele>
   </trkpt>
   <trkpt lat="59.876810000000006" lon="10.901900000000001">
    <ele>253.86</ele>
   </trkpt>
   <trkpt lat="59.87695000000001" lon="10.901840000000002">
    <ele>251.60999999999999</ele>
   </trkpt>
   <trkpt lat="59.87706000000001" lon="10.90173">
    <ele>251.46</ele>
   </trkpt>
   <trkpt lat="59.8772" lon="10.901760000000001">
    <ele>251.60000000000005</ele>
   </trkpt>
   <trkpt lat="59.877520000000004" lon="10.902040000000001">
    <ele>247.94000000000003</ele>
   </trkpt>
   <trkpt lat="59.87755000000001" lon="10.902030000000002">
    <ele>246.83</ele>
   </trkpt>
   <trkpt lat="59.877610000000004" lon="10.902090000000001">
    <ele>245.47000000000003</ele>
   </trkpt>
   <trkpt lat="59.877770000000005" lon="10.902170000000002">
    <ele>238.81000000000003</ele>
   </trkpt>
   <trkpt lat="59.87782000000001" lon="10.902310000000002">
    <ele>237.21000000000004</ele>
   </trkpt>
   <trkpt lat="59.877900000000004" lon="10.902410000000001">
    <ele>236.20000000000002</ele>
   </trkpt>
   <trkpt lat="59.878150000000005" lon="10.902550000000002">
    <ele>235.85000000000002</ele>
   </trkpt>
   <trkpt lat="59.878420000000006" lon="10.902660000000001">
    <ele>234.95000000000002</ele>
   </trkpt>
   <trkpt lat="59.87854000000001" lon="10.90263">
    <ele>234.46000000000004</ele>
   </trkpt>
   <trkpt lat="59.87865000000001" lon="10.902550000000002">
    <ele>234.06</ele>
   </trkpt>
   <trkpt lat="59.87917" lon="10.90258">
    <ele>225.86</ele>
   </trkpt>
   <trkpt lat="59.879290000000005" lon="10.902650000000001">
    <ele>223.34</ele>
   </trkpt>
   <trkpt lat="59.879340000000006" lon="10.90272">
    <ele>222.94000000000003</ele>
   </trkpt>
   <trkpt lat="59.879470000000005" lon="10.90333">
    <ele>223.12</ele>
   </trkpt>
   <trkpt lat="59.879470000000005" lon="10.903540000000001">
    <ele>222.87</ele>
   </trkpt>
   <trkpt lat="59.87950000000001" lon="10.903670000000002">
    <ele>222.55</ele>
   </trkpt>
   <trkpt lat="59.87961000000001" lon="10.90384">
    <ele>221.63000000000002</ele>
   </trkpt>
   <trkpt lat="59.879870000000004" lon="10.90404">
    <ele>224.86</ele>
   </trkpt>
   <trkpt lat="59.88004000000001" lon="10.90435">
    <ele>225.58</ele>
   </trkpt>
   <trkpt lat="59.88026000000001" lon="10.90435">
    <ele>225.95000000000002</ele>
   </trkpt>
   <trkpt lat="59.88035000000001" lon="10.904430000000001">
    <ele>227.0</ele>
   </trkpt>
   <trkpt lat="59.88053000000001" lon="10.904390000000001">
    <ele>229.72</ele>
   </trkpt>
   <trkpt lat="59.88074" lon="10.904580000000001">
    <ele>230.70000000000002</ele>
   </trkpt>
   <trkpt lat="59.88100000000001" lon="10.90446">
    <ele>236.81</ele>
   </trkpt>
   <trkpt lat="59.88118000000001" lon="10.904530000000001">
    <ele>240.82</ele>
   </trkpt>
   <trkpt lat="59.88136000000001" lon="10.9045">
    <ele>243.49</ele>
   </trkpt>
   <trkpt lat="59.881460000000004" lon="10.904570000000001">
    <ele>245.50000000000003</ele>
   </trkpt>
   <trkpt lat="59.881600000000006" lon="10.904580000000001">
    <ele>246.58</ele>
   </trkpt>
   <trkpt lat="59.881870000000006" lon="10.9045">
    <ele>246.61</ele>
   </trkpt>
   <trkpt lat="59.882070000000006" lon="10.904480000000001">
    <ele>245.28000000000003</ele>
   </trkpt>
   <trkpt lat="59.882270000000005" lon="10.90437">
    <ele>245.53000000000003</ele>
   </trkpt>
   <trkpt lat="59.882540000000006" lon="10.90437">
    <ele>246.70000000000002</ele>
   </trkpt>
   <trkpt lat="59.882670000000005" lon="10.904330000000002">
    <ele>246.31000000000003</ele>
   </trkpt>
   <trkpt lat="59.88290000000001" lon="10.90431">
    <ele>246.45000000000002</ele>
   </trkpt>
   <trkpt lat="59.88308000000001" lon="10.904250000000001">
    <ele>246.51</ele>
   </trkpt>
   <trkpt lat="59.883210000000005" lon="10.90427">
    <ele>247.16000000000003</ele>
   </trkpt>
   <trkpt lat="59.883390000000006" lon="10.90422">
    <ele>247.17000000000002</ele>
   </trkpt>
   <trkpt lat="59.88367" lon="10.90435">
    <ele>246.38000000000002</ele>
   </trkpt>
   <trkpt lat="59.88393000000001" lon="10.904340000000001">
    <ele>246.64000000000001</ele>
   </trkpt>
   <trkpt lat="59.884190000000004" lon="10.904250000000001">
    <ele>244.89000000000001</ele>
   </trkpt>
   <trkpt lat="59.884280000000004" lon="10.904300000000001">
    <ele>244.50000000000003</ele>
   </trkpt>
   <trkpt lat="59.88452" lon="10.904340000000001">
    <ele>243.37000000000003</ele>
   </trkpt>
   <trkpt lat="59.884730000000005" lon="10.904440000000001">
    <ele>242.33</ele>
   </trkpt>
   <trkpt lat="59.88472" lon="10.904430000000001">
    <ele>242.40000000000003</ele>
   </trkpt>
   <trkpt lat="59.88485000000001" lon="10.9045">
    <ele>241.39000000000001</ele>
   </trkpt>
   <trkpt lat="59.88497" lon="10.904490000000001">
    <ele>239.20000000000002</ele>
   </trkpt>
   <trkpt lat="59.88508" lon="10.904430000000001">
    <ele>237.34000000000003</ele>
   </trkpt>
   <trkpt lat="59.88541000000001" lon="10.904390000000001">
    <ele>233.47</ele>
   </trkpt>
   <trkpt lat="59.885670000000005" lon="10.904440000000001">
    <ele>230.31</ele>
   </trkpt>
   <trkpt lat="59.88584" lon="10.90445">
    <ele>229.49</ele>
   </trkpt>
   <trkpt lat="59.88598" lon="10.9045">
    <ele>229.0</ele>
   </trkpt>
   <trkpt lat="59.88633000000001" lon="10.90483">
    <ele>224.46</ele>
   </trkpt>
   <trkpt lat="59.886540000000004" lon="10.90498">
    <ele>218.22000000000003</ele>
   </trkpt>
   <trkpt lat="59.88683" lon="10.90501">
    <ele>214.36</ele>
   </trkpt>
   <trkpt lat="59.88698000000001" lon="10.905130000000002">
    <ele>211.52</ele>
   </trkpt>
   <trkpt lat="59.887080000000005" lon="10.90511">
    <ele>209.61</ele>
   </trkpt>
   <trkpt lat="59.887260000000005" lon="10.90516">
    <ele>206.81000000000003</ele>
   </trkpt>
   <trkpt lat="59.88725" lon="10.90515">
    <ele>206.97</ele>
   </trkpt>
   <trkpt lat="59.887370000000004" lon="10.905240000000001">
    <ele>206.09000000000003</ele>
   </trkpt>
   <trkpt lat="59.88765000000001" lon="10.905370000000001">
    <ele>204.90000000000003</ele>
   </trkpt>
   <trkpt lat="59.88774000000001" lon="10.90539">
    <ele>205.18000000000004</ele>
   </trkpt>
   <trkpt lat="59.887930000000004" lon="10.90531">
    <ele>205.28</ele>
   </trkpt>
   <trkpt lat="59.888110000000005" lon="10.90531">
    <ele>205.13</ele>
   </trkpt>
   <trkpt lat="59.88830000000001" lon="10.90525">
    <ele>204.58</ele>
   </trkpt>
   <trkpt lat="59.888600000000004" lon="10.904940000000002">
    <ele>203.74</ele>
   </trkpt>
   <trkpt lat="59.88866" lon="10.90483">
    <ele>203.95000000000002</ele>
   </trkpt>
   <trkpt lat="59.888720000000006" lon="10.904480000000001">
    <ele>208.17000000000002</ele>
   </trkpt>
   <trkpt lat="59.88877000000001" lon="10.90436">
    <ele>209.05</ele>
   </trkpt>
   <trkpt lat="59.88884" lon="10.90431">
    <ele>210.3</ele>
   </trkpt>
   <trkpt lat="59.88918" lon="10.904330000000002">
    <ele>210.66</ele>
   </trkpt>
   <trkpt lat="59.889390000000006" lon="10.904420000000002">
    <ele>208.49</ele>
   </trkpt>
   <trkpt lat="59.88946000000001" lon="10.904420000000002">
    <ele>207.92000000000002</ele>
   </trkpt>
   <trkpt lat="59.889450000000004" lon="10.904420000000002">
    <ele>207.92000000000002</ele>
   </trkpt>
   <trkpt lat="59.88965" lon="10.904430000000001">
    <ele>206.49</ele>
   </trkpt>
   <trkpt lat="59.889810000000004" lon="10.904490000000001">
    <ele>203.52</ele>
   </trkpt>
   <trkpt lat="59.89014" lon="10.9044">
    <ele>196.46</ele>
   </trkpt>
   <trkpt lat="59.890330000000006" lon="10.904300000000001">
    <ele>197.45000000000002</ele>
   </trkpt>
   <trkpt lat="59.890460000000004" lon="10.90437">
    <ele>200.88</ele>
   </trkpt>
   <trkpt lat="59.890550000000005" lon="10.904490000000001">
    <ele>202.91</ele>
   </trkpt>
   <trkpt lat="59.890750000000004" lon="10.904950000000001">
    <ele>206.54000000000002</ele>
   </trkpt>
   <trkpt lat="59.89088" lon="10.905100000000001">
    <ele>208.07</ele>
   </trkpt>
   <trkpt lat="59.891220000000004" lon="10.90506">
    <ele>209.85</ele>
   </trkpt>
   <trkpt lat="59.89133" lon="10.90507">
    <ele>210.98000000000002</ele>
   </trkpt>
   <trkpt lat="59.89143000000001" lon="10.90498">
    <ele>211.48000000000002</ele>
   </trkpt>
   <trkpt lat="59.891580000000005" lon="10.904900000000001">
    <ele>212.37000000000003</ele>
   </trkpt>
   <trkpt lat="59.89164" lon="10.90482">
    <ele>213.70000000000002</ele>
   </trkpt>
   <trkpt lat="59.89175" lon="10.904770000000001">
    <ele>214.45000000000002</ele>
   </trkpt>
   <trkpt lat="59.891780000000004" lon="10.90502">
    <ele>214.29</ele>
   </trkpt>
   <trkpt lat="59.89171" lon="10.905270000000002">
    <ele>213.1</ele>
   </trkpt>
   <trkpt lat="59.89166" lon="10.905610000000001">
    <ele>212.03000000000003</ele>
   </trkpt>
   <trkpt lat="59.89166" lon="10.906080000000001">
    <ele>208.67000000000002</ele>
   </trkpt>
   <trkpt lat="59.891690000000004" lon="10.906540000000001">
    <ele>206.43000000000004</ele>
   </trkpt>
   <trkpt lat="59.89168000000001" lon="10.906880000000001">
    <ele>204.62000000000003</ele>
   </trkpt>
   <trkpt lat="59.89164" lon="10.906910000000002">
    <ele>204.77</ele>
   </trkpt>
   <trkpt lat="59.89168000000001" lon="10.906880000000001">
    <ele>204.62000000000003</ele>
   </trkpt>
   <trkpt lat="59.891690000000004" lon="10.906540000000001">
    <ele>206.43000000000004</ele>
   </trkpt>
   <trkpt lat="59.89166" lon="10.906080000000001">
    <ele>209.76000000000002</ele>
   </trkpt>
   <trkpt lat="59.89166" lon="10.905610000000001">
    <ele>212.03000000000003</ele>
   </trkpt>
   <trkpt lat="59.89171" lon="10.905270000000002">
    <ele>213.1</ele>
   </trkpt>
   <trkpt lat="59.89193" lon="10.90459">
    <ele>214.3</ele>
   </trkpt>
   <trkpt lat="59.89202" lon="10.904100000000001">
    <ele>214.72000000000003</ele>
   </trkpt>
   <trkpt lat="59.89204" lon="10.90334">
    <ele>216.86</ele>
   </trkpt>
   <trkpt lat="59.89202" lon="10.902500000000002">
    <ele>221.70000000000002</ele>
   </trkpt>
   <trkpt lat="59.89204" lon="10.9023">
    <ele>221.70000000000002</ele>
   </trkpt>
   <trkpt lat="59.892120000000006" lon="10.90211">
    <ele>223.05</ele>
   </trkpt>
   <trkpt lat="59.892390000000006" lon="10.901760000000001">
    <ele>226.15</ele>
   </trkpt>
   <trkpt lat="59.89269" lon="10.90145">
    <ele>227.86</ele>
   </trkpt>
   <trkpt lat="59.892790000000005" lon="10.90137">
    <ele>227.86</ele>
   </trkpt>
   <trkpt lat="59.893080000000005" lon="10.901240000000001">
    <ele>229.53</ele>
   </trkpt>
   <trkpt lat="59.89325" lon="10.90121">
    <ele>229.88000000000002</ele>
   </trkpt>
   <trkpt lat="59.893550000000005" lon="10.90122">
    <ele>230.12</ele>
   </trkpt>
   <trkpt lat="59.894110000000005" lon="10.901290000000001">
    <ele>229.11</ele>
   </trkpt>
   <trkpt lat="59.89423000000001" lon="10.901330000000002">
    <ele>229.19000000000003</ele>
   </trkpt>
   <trkpt lat="59.89443000000001" lon="10.90145">
    <ele>229.45000000000002</ele>
   </trkpt>
   <trkpt lat="59.894850000000005" lon="10.90192">
    <ele>232.54000000000002</ele>
   </trkpt>
   <trkpt lat="59.89506000000001" lon="10.9021">
    <ele>235.19</ele>
   </trkpt>
   <trkpt lat="59.895120000000006" lon="10.9021">
    <ele>235.19</ele>
   </trkpt>
   <trkpt lat="59.89517000000001" lon="10.90207">
    <ele>235.19</ele>
   </trkpt>
   <trkpt lat="59.89522" lon="10.90191">
    <ele>236.09</ele>
   </trkpt>
   <trkpt lat="59.895230000000005" lon="10.90146">
    <ele>239.54000000000002</ele>
   </trkpt>
   <trkpt lat="59.895270000000004" lon="10.90126">
    <ele>239.54000000000002</ele>
   </trkpt>
   <trkpt lat="59.89538" lon="10.90088">
    <ele>242.6</ele>
   </trkpt>
   <trkpt lat="59.895410000000005" lon="10.90065">
    <ele>242.6</ele>
   </trkpt>
   <trkpt lat="59.89542" lon="10.900400000000001">
    <ele>245.62000000000003</ele>
   </trkpt>
   <trkpt lat="59.895500000000006" lon="10.900390000000002">
    <ele>247.15</ele>
   </trkpt>
   <trkpt lat="59.89566000000001" lon="10.900450000000001">
    <ele>248.49</ele>
   </trkpt>
   <trkpt lat="59.895770000000006" lon="10.90055">
    <ele>250.9</ele>
   </trkpt>
   <trkpt lat="59.89618000000001" lon="10.90071">
    <ele>260.23</ele>
   </trkpt>
   <trkpt lat="59.896440000000005" lon="10.900860000000002">
    <ele>265.96000000000004</ele>
   </trkpt>
   <trkpt lat="59.89659" lon="10.900770000000001">
    <ele>270.46000000000004</ele>
   </trkpt>
   <trkpt lat="59.896750000000004" lon="10.900770000000001">
    <ele>276.90000000000003</ele>
   </trkpt>
   <trkpt lat="59.89721000000001" lon="10.900590000000001">
    <ele>284.48</ele>
   </trkpt>
   <trkpt lat="59.897690000000004" lon="10.900500000000001">
    <ele>287.09000000000003</ele>
   </trkpt>
   <trkpt lat="59.89781000000001" lon="10.900500000000001">
    <ele>285.8</ele>
   </trkpt>
   <trkpt lat="59.89795" lon="10.90056">
    <ele>285.03</ele>
   </trkpt>
   <trkpt lat="59.89815000000001" lon="10.90055">
    <ele>283.31</ele>
   </trkpt>
   <trkpt lat="59.898300000000006" lon="10.90057">
    <ele>283.22</ele>
   </trkpt>
   <trkpt lat="59.89858" lon="10.900670000000002">
    <ele>283.52000000000004</ele>
   </trkpt>
   <trkpt lat="59.89864000000001" lon="10.90065">
    <ele>283.86</ele>
   </trkpt>
   <trkpt lat="59.898700000000005" lon="10.90056">
    <ele>284.89000000000004</ele>
   </trkpt>
   <trkpt lat="59.89884000000001" lon="10.900450000000001">
    <ele>286.13000000000005</ele>
   </trkpt>
   <trkpt lat="59.89891000000001" lon="10.900450000000001">
    <ele>287.90999999999997</ele>
   </trkpt>
   <trkpt lat="59.89925" lon="10.90033">
    <ele>294.3</ele>
   </trkpt>
   <trkpt lat="59.899350000000005" lon="10.900350000000001">
    <ele>295.12000000000006</ele>
   </trkpt>
   <trkpt lat="59.899390000000004" lon="10.90038">
    <ele>298.24</ele>
   </trkpt>
   <trkpt lat="59.89956000000001" lon="10.900350000000001">
    <ele>301.56000000000006</ele>
   </trkpt>
   <trkpt lat="59.89963" lon="10.90038">
    <ele>301.56000000000006</ele>
   </trkpt>
   <trkpt lat="59.89969000000001" lon="10.900440000000001">
    <ele>302.32000000000005</ele>
   </trkpt>
   <trkpt lat="59.899840000000005" lon="10.90042">
    <ele>304.43</ele>
   </trkpt>
   <trkpt lat="59.90003000000001" lon="10.900580000000001">
    <ele>305.48</ele>
   </trkpt>
   <trkpt lat="59.900130000000004" lon="10.90056">
    <ele>306.37</ele>
   </trkpt>
   <trkpt lat="59.90021000000001" lon="10.900450000000001">
    <ele>307.74</ele>
   </trkpt>
   <trkpt lat="59.90043000000001" lon="10.90043">
    <ele>311.35</ele>
   </trkpt>
   <trkpt lat="59.90063000000001" lon="10.90037">
    <ele>314.36</ele>
   </trkpt>
   <trkpt lat="59.900920000000006" lon="10.90041">
    <ele>317.57</ele>
   </trkpt>
   <trkpt lat="59.90093" lon="10.90041">
    <ele>317.57</ele>
   </trkpt>
   <trkpt lat="59.90101000000001" lon="10.90032">
    <ele>319.15999999999997</ele>
   </trkpt>
   <trkpt lat="59.901050000000005" lon="10.900200000000002">
    <ele>319.99000000000007</ele>
   </trkpt>
   <trkpt lat="59.90104" lon="10.90005">
    <ele>321.97</ele>
   </trkpt>
   <trkpt lat="59.90088000000001" lon="10.899750000000001">
    <ele>328.07</ele>
   </trkpt>
   <trkpt lat="59.90081000000001" lon="10.899460000000001">
    <ele>331.12</ele>
   </trkpt>
   <trkpt lat="59.90082" lon="10.899360000000001">
    <ele>332.54</ele>
   </trkpt>
   <trkpt lat="59.90091" lon="10.899120000000002">
    <ele>334.41</ele>
   </trkpt>
   <trkpt lat="59.90110000000001" lon="10.89897">
    <ele>336.25000000000006</ele>
   </trkpt>
   <trkpt lat="59.901230000000005" lon="10.898750000000001">
    <ele>337.65</ele>
   </trkpt>
   <trkpt lat="59.90131" lon="10.89836">
    <ele>339.16</ele>
   </trkpt>
   <trkpt lat="59.901520000000005" lon="10.898190000000001">
    <ele>341.26</ele>
   </trkpt>
   <trkpt lat="59.9016" lon="10.897810000000002">
    <ele>341.98</ele>
   </trkpt>
   <trkpt lat="59.901590000000006" lon="10.897720000000001">
    <ele>342.1</ele>
   </trkpt>
   <trkpt lat="59.901630000000004" lon="10.897530000000001">
    <ele>342.44</ele>
   </trkpt>
   <trkpt lat="59.9018" lon="10.897480000000002">
    <ele>342.99</ele>
   </trkpt>
   <trkpt lat="59.901920000000004" lon="10.89738">
    <ele>343.76</ele>
   </trkpt>
   <trkpt lat="59.902170000000005" lon="10.897450000000001">
    <ele>345.19000000000005</ele>
   </trkpt>
   <trkpt lat="59.902530000000006" lon="10.89722">
    <ele>347.29</ele>
   </trkpt>
   <trkpt lat="59.9027" lon="10.89719">
    <ele>347.95000000000005</ele>
   </trkpt>
   <trkpt lat="59.90285000000001" lon="10.89713">
    <ele>349.44</ele>
   </trkpt>
   <trkpt lat="59.90305000000001" lon="10.89713">
    <ele>353.29</ele>
   </trkpt>
   <trkpt lat="59.903150000000004" lon="10.89709">
    <ele>353.87</ele>
   </trkpt>
   <trkpt lat="59.90325000000001" lon="10.897120000000001">
    <ele>355.26</ele>
   </trkpt>
   <trkpt lat="59.90332000000001" lon="10.897120000000001">
    <ele>355.26</ele>
   </trkpt>
   <trkpt lat="59.90348" lon="10.897060000000002">
    <ele>357.13</ele>
   </trkpt>
   <trkpt lat="59.903580000000005" lon="10.89708">
    <ele>358.09000000000003</ele>
   </trkpt>
   <trkpt lat="59.903620000000004" lon="10.897060000000002">
    <ele>358.09000000000003</ele>
   </trkpt>
   <trkpt lat="59.903670000000005" lon="10.897020000000001">
    <ele>358.18000000000006</ele>
   </trkpt>
   <trkpt lat="59.903650000000006" lon="10.89695">
    <ele>358.18000000000006</ele>
   </trkpt>
   <trkpt lat="59.90393" lon="10.89559">
    <ele>352.59000000000003</ele>
   </trkpt>
   <trkpt lat="59.903960000000005" lon="10.895480000000001">
    <ele>352.57000000000005</ele>
   </trkpt>
   <trkpt lat="59.904" lon="10.8953">
    <ele>352.14</ele>
   </trkpt>
   <trkpt lat="59.904120000000006" lon="10.89511">
    <ele>351.77000000000004</ele>
   </trkpt>
   <trkpt lat="59.90411" lon="10.89503">
    <ele>351.73</ele>
   </trkpt>
   <trkpt lat="59.904070000000004" lon="10.89493">
    <ele>351.73</ele>
   </trkpt>
   <trkpt lat="59.904160000000005" lon="10.89405">
    <ele>347.19000000000005</ele>
   </trkpt>
   <trkpt lat="59.904210000000006" lon="10.8938">
    <ele>341.12</ele>
   </trkpt>
   <trkpt lat="59.90424" lon="10.89337">
    <ele>336.52000000000004</ele>
   </trkpt>
   <trkpt lat="59.90437000000001" lon="10.892740000000002">
    <ele>335.9200000000001</ele>
   </trkpt>
   <trkpt lat="59.904450000000004" lon="10.892550000000002">
    <ele>336.37</ele>
   </trkpt>
   <trkpt lat="59.90442" lon="10.89226">
    <ele>336.40000000000003</ele>
   </trkpt>
   <trkpt lat="59.904300000000006" lon="10.891900000000001">
    <ele>335.25000000000006</ele>
   </trkpt>
   <trkpt lat="59.904270000000004" lon="10.891710000000002">
    <ele>333.29</ele>
   </trkpt>
   <trkpt lat="59.90431" lon="10.891520000000002">
    <ele>332.29</ele>
   </trkpt>
   <trkpt lat="59.90447" lon="10.89123">
    <ele>325.81000000000006</ele>
   </trkpt>
   <trkpt lat="59.90458" lon="10.89093">
    <ele>322.34000000000003</ele>
   </trkpt>
   <trkpt lat="59.90455000000001" lon="10.890550000000001">
    <ele>316.56</ele>
   </trkpt>
   <trkpt lat="59.904540000000004" lon="10.89053">
    <ele>316.56</ele>
   </trkpt>
   <trkpt lat="59.90442" lon="10.890120000000001">
    <ele>307.11000000000007</ele>
   </trkpt>
   <trkpt lat="59.904210000000006" lon="10.88967">
    <ele>302.63</ele>
   </trkpt>
   <trkpt lat="59.904090000000004" lon="10.889510000000001">
    <ele>298.46</ele>
   </trkpt>
   <trkpt lat="59.903740000000006" lon="10.88893">
    <ele>292.99</ele>
   </trkpt>
   <trkpt lat="59.903670000000005" lon="10.88873">
    <ele>291.04</ele>
   </trkpt>
   <trkpt lat="59.903620000000004" lon="10.888290000000001">
    <ele>289.66</ele>
   </trkpt>
   <trkpt lat="59.90361000000001" lon="10.887870000000001">
    <ele>288.86</ele>
   </trkpt>
   <trkpt lat="59.90355" lon="10.88743">
    <ele>287.53000000000003</ele>
   </trkpt>
   <trkpt lat="59.90337" lon="10.887080000000001">
    <ele>286.39000000000004</ele>
   </trkpt>
   <trkpt lat="59.903150000000004" lon="10.886590000000002">
    <ele>283.74000000000007</ele>
   </trkpt>
   <trkpt lat="59.90317" lon="10.886330000000001">
    <ele>284.18000000000006</ele>
   </trkpt>
   <trkpt lat="59.903150000000004" lon="10.886050000000001">
    <ele>286.55</ele>
   </trkpt>
   <trkpt lat="59.90306" lon="10.885890000000002">
    <ele>288.25</ele>
   </trkpt>
   <trkpt lat="59.90294000000001" lon="10.88574">
    <ele>286.55</ele>
   </trkpt>
   <trkpt lat="59.902840000000005" lon="10.8855">
    <ele>283.73</ele>
   </trkpt>
   <trkpt lat="59.90281" lon="10.88527">
    <ele>282.85</ele>
   </trkpt>
   <trkpt lat="59.902820000000006" lon="10.88489">
    <ele>283.89000000000004</ele>
   </trkpt>
   <trkpt lat="59.902640000000005" lon="10.884640000000001">
    <ele>287.83000000000004</ele>
   </trkpt>
   <trkpt lat="59.90236" lon="10.8841">
    <ele>286.2</ele>
   </trkpt>
   <trkpt lat="59.902170000000005" lon="10.8839">
    <ele>284.65000000000003</ele>
   </trkpt>
   <trkpt lat="59.90153000000001" lon="10.883410000000001">
    <ele>283.04</ele>
   </trkpt>
   <trkpt lat="59.9014" lon="10.88324">
    <ele>282.13000000000005</ele>
   </trkpt>
   <trkpt lat="59.90131" lon="10.883090000000001">
    <ele>281.88</ele>
   </trkpt>
   <trkpt lat="59.901160000000004" lon="10.88274">
    <ele>280.18</ele>
   </trkpt>
   <trkpt lat="59.901050000000005" lon="10.88254">
    <ele>280.16</ele>
   </trkpt>
   <trkpt lat="59.90097000000001" lon="10.88217">
    <ele>284.94</ele>
   </trkpt>
   <trkpt lat="59.90101000000001" lon="10.88199">
    <ele>286.81</ele>
   </trkpt>
   <trkpt lat="59.90109" lon="10.88189">
    <ele>287.68000000000006</ele>
   </trkpt>
   <trkpt lat="59.901180000000004" lon="10.88164">
    <ele>289.12000000000006</ele>
   </trkpt>
   <trkpt lat="59.90101000000001" lon="10.881260000000001">
    <ele>290.45000000000005</ele>
   </trkpt>
   <trkpt lat="59.900850000000005" lon="10.88114">
    <ele>288.03000000000003</ele>
   </trkpt>
   <trkpt lat="59.900580000000005" lon="10.88108">
    <ele>286.83000000000004</ele>
   </trkpt>
   <trkpt lat="59.900490000000005" lon="10.881010000000002">
    <ele>284.89000000000004</ele>
   </trkpt>
   <trkpt lat="59.90041000000001" lon="10.8809">
    <ele>282.94</ele>
   </trkpt>
   <trkpt lat="59.90041000000001" lon="10.88072">
    <ele>280.30000000000007</ele>
   </trkpt>
   <trkpt lat="59.900360000000006" lon="10.88062">
    <ele>278.87</ele>
   </trkpt>
   <trkpt lat="59.900270000000006" lon="10.88052">
    <ele>277.73</ele>
   </trkpt>
   <trkpt lat="59.90025000000001" lon="10.880460000000001">
    <ele>276.78000000000003</ele>
   </trkpt>
   <trkpt lat="59.90035" lon="10.88011">
    <ele>268.33</ele>
   </trkpt>
   <trkpt lat="59.900290000000005" lon="10.88">
    <ele>266.75000000000006</ele>
   </trkpt>
   <trkpt lat="59.900200000000005" lon="10.879510000000002">
    <ele>264.19000000000005</ele>
   </trkpt>
   <trkpt lat="59.900110000000005" lon="10.879240000000001">
    <ele>262.64000000000004</ele>
   </trkpt>
   <trkpt lat="59.89992" lon="10.878960000000001">
    <ele>257.77</ele>
   </trkpt>
   <trkpt lat="59.89981" lon="10.878720000000001">
    <ele>250.99000000000004</ele>
   </trkpt>
   <trkpt lat="59.899640000000005" lon="10.87851">
    <ele>245.48000000000002</ele>
   </trkpt>
   <trkpt lat="59.89943" lon="10.877870000000001">
    <ele>234.33</ele>
   </trkpt>
   <trkpt lat="59.899330000000006" lon="10.877780000000001">
    <ele>232.19</ele>
   </trkpt>
   <trkpt lat="59.89927000000001" lon="10.877680000000002">
    <ele>229.82000000000002</ele>
   </trkpt>
   <trkpt lat="59.89925" lon="10.87753">
    <ele>228.73000000000002</ele>
   </trkpt>
   <trkpt lat="59.898920000000004" lon="10.877310000000001">
    <ele>222.67000000000002</ele>
   </trkpt>
   <trkpt lat="59.89884000000001" lon="10.877120000000001">
    <ele>221.50000000000003</ele>
   </trkpt>
   <trkpt lat="59.898770000000006" lon="10.876750000000001">
    <ele>220.00000000000003</ele>
   </trkpt>
   <trkpt lat="59.8988" lon="10.8764">
    <ele>216.76</ele>
   </trkpt>
   <trkpt lat="59.898740000000004" lon="10.87617">
    <ele>213.01</ele>
   </trkpt>
   <trkpt lat="59.898740000000004" lon="10.876180000000002">
    <ele>213.01</ele>
   </trkpt>
   <trkpt lat="59.89876" lon="10.87593">
    <ele>209.57</ele>
   </trkpt>
   <trkpt lat="59.899100000000004" lon="10.876000000000001">
    <ele>210.27</ele>
   </trkpt>
   <trkpt lat="59.89943" lon="10.876240000000001">
    <ele>212.78000000000003</ele>
   </trkpt>
   <trkpt lat="59.89972" lon="10.876560000000001">
    <ele>212.14000000000001</ele>
   </trkpt>
   <trkpt lat="59.899950000000004" lon="10.87676">
    <ele>210.52</ele>
   </trkpt>
   <trkpt lat="59.90053" lon="10.876850000000001">
    <ele>209.68</ele>
   </trkpt>
   <trkpt lat="59.901" lon="10.876790000000002">
    <ele>209.66</ele>
   </trkpt>
   <trkpt lat="59.901300000000006" lon="10.876880000000002">
    <ele>209.79</ele>
   </trkpt>
   <trkpt lat="59.9016" lon="10.876890000000001">
    <ele>209.53000000000003</ele>
   </trkpt>
   <trkpt lat="59.901700000000005" lon="10.876850000000001">
    <ele>209.47</ele>
   </trkpt>
   <trkpt lat="59.901770000000006" lon="10.876750000000001">
    <ele>209.69</ele>
   </trkpt>
   <trkpt lat="59.901920000000004" lon="10.87664">
    <ele>210.71</ele>
   </trkpt>
   <trkpt lat="59.90232" lon="10.87673">
    <ele>209.47</ele>
   </trkpt>
   <trkpt lat="59.902390000000004" lon="10.87672">
    <ele>209.26000000000002</ele>
   </trkpt>
   <trkpt lat="59.902570000000004" lon="10.876790000000002">
    <ele>208.79</ele>
   </trkpt>
   <trkpt lat="59.902710000000006" lon="10.876740000000002">
    <ele>208.88</ele>
   </trkpt>
   <trkpt lat="59.90272" lon="10.87686">
    <ele>206.51000000000002</ele>
   </trkpt>
   <trkpt lat="59.902890000000006" lon="10.87672">
    <ele>205.85</ele>
   </trkpt>
   <trkpt lat="59.90294000000001" lon="10.876550000000002">
    <ele>206.31000000000003</ele>
   </trkpt>
   <trkpt lat="59.902930000000005" lon="10.876560000000001">
    <ele>206.31000000000003</ele>
   </trkpt>
   <trkpt lat="59.902930000000005" lon="10.87653">
    <ele>210.37000000000003</ele>
   </trkpt>
   <trkpt lat="59.90209000000001" lon="10.87636">
    <ele>208.64000000000001</ele>
   </trkpt>
   <trkpt lat="59.90142" lon="10.875860000000001">
    <ele>208.04000000000002</ele>
   </trkpt>
   <trkpt lat="59.90156" lon="10.87556">
    <ele>214.05</ele>
   </trkpt>
   <trkpt lat="59.901810000000005" lon="10.875390000000001">
    <ele>224.96</ele>
   </trkpt>
   <trkpt lat="59.901920000000004" lon="10.875340000000001">
    <ele>226.46</ele>
   </trkpt>
   <trkpt lat="59.90203" lon="10.875330000000002">
    <ele>232.79000000000002</ele>
   </trkpt>
   <trkpt lat="59.90218000000001" lon="10.875390000000001">
    <ele>236.38</ele>
   </trkpt>
   <trkpt lat="59.90231000000001" lon="10.875470000000002">
    <ele>238.0</ele>
   </trkpt>
   <trkpt lat="59.90260000000001" lon="10.87532">
    <ele>239.88</ele>
   </trkpt>
   <trkpt lat="59.902770000000004" lon="10.87528">
    <ele>242.27</ele>
   </trkpt>
   <trkpt lat="59.90307000000001" lon="10.87508">
    <ele>247.11</ele>
   </trkpt>
   <trkpt lat="59.90332000000001" lon="10.87498">
    <ele>248.74</ele>
   </trkpt>
   <trkpt lat="59.90370000000001" lon="10.87467">
    <ele>251.18</ele>
   </trkpt>
   <trkpt lat="59.90372000000001" lon="10.874550000000001">
    <ele>252.24</ele>
   </trkpt>
   <trkpt lat="59.903710000000004" lon="10.87443">
    <ele>254.16</ele>
   </trkpt>
   <trkpt lat="59.903800000000004" lon="10.874310000000001">
    <ele>255.86</ele>
   </trkpt>
   <trkpt lat="59.90381000000001" lon="10.874160000000002">
    <ele>257.90000000000003</ele>
   </trkpt>
   <trkpt lat="59.903760000000005" lon="10.87396">
    <ele>260.3</ele>
   </trkpt>
   <trkpt lat="59.90372000000001" lon="10.87367">
    <ele>263.56</ele>
   </trkpt>
   <trkpt lat="59.903510000000004" lon="10.87334">
    <ele>259.75000000000006</ele>
   </trkpt>
   <trkpt lat="59.90346" lon="10.87297">
    <ele>255.12</ele>
   </trkpt>
   <trkpt lat="59.90339" lon="10.872810000000001">
    <ele>252.65000000000003</ele>
   </trkpt>
   <trkpt lat="59.903270000000006" lon="10.87241">
    <ele>247.14000000000001</ele>
   </trkpt>
   <trkpt lat="59.903240000000004" lon="10.872250000000001">
    <ele>245.45000000000002</ele>
   </trkpt>
   <trkpt lat="59.90332000000001" lon="10.871820000000001">
    <ele>240.0</ele>
   </trkpt>
   <trkpt lat="59.90328" lon="10.871590000000001">
    <ele>238.07000000000002</ele>
   </trkpt>
   <trkpt lat="59.903290000000005" lon="10.870780000000002">
    <ele>230.96</ele>
   </trkpt>
   <trkpt lat="59.90355" lon="10.870450000000002">
    <ele>230.84</ele>
   </trkpt>
   <trkpt lat="59.904160000000005" lon="10.86935">
    <ele>230.5</ele>
   </trkpt>
   <trkpt lat="59.904500000000006" lon="10.86908">
    <ele>230.53</ele>
   </trkpt>
   <trkpt lat="59.904630000000004" lon="10.86888">
    <ele>230.64000000000001</ele>
   </trkpt>
   <trkpt lat="59.90505" lon="10.86799">
    <ele>236.11</ele>
   </trkpt>
   <trkpt lat="59.90518" lon="10.86781">
    <ele>237.84000000000003</ele>
   </trkpt>
   <trkpt lat="59.905930000000005" lon="10.867030000000002">
    <ele>239.42000000000002</ele>
   </trkpt>
   <trkpt lat="59.90619" lon="10.866700000000002">
    <ele>242.95000000000002</ele>
   </trkpt>
   <trkpt lat="59.906200000000005" lon="10.866280000000001">
    <ele>245.26000000000002</ele>
   </trkpt>
   <trkpt lat="59.906110000000005" lon="10.866060000000001">
    <ele>246.15</ele>
   </trkpt>
   <trkpt lat="59.906110000000005" lon="10.865720000000001">
    <ele>247.48000000000002</ele>
   </trkpt>
   <trkpt lat="59.9063" lon="10.864980000000001">
    <ele>247.37</ele>
   </trkpt>
   <trkpt lat="59.906330000000004" lon="10.86461">
    <ele>245.50000000000003</ele>
   </trkpt>
   <trkpt lat="59.906290000000006" lon="10.86414">
    <ele>244.9</ele>
   </trkpt>
   <trkpt lat="59.90625000000001" lon="10.863900000000001">
    <ele>244.97000000000003</ele>
   </trkpt>
   <trkpt lat="59.906200000000005" lon="10.863750000000001">
    <ele>244.97000000000003</ele>
   </trkpt>
   <trkpt lat="59.90616000000001" lon="10.86369">
    <ele>244.83</ele>
   </trkpt>
   <trkpt lat="59.90597" lon="10.863480000000001">
    <ele>244.11</ele>
   </trkpt>
   <trkpt lat="59.90569000000001" lon="10.863090000000001">
    <ele>241.64000000000001</ele>
   </trkpt>
   <trkpt lat="59.90536" lon="10.86247">
    <ele>236.15000000000003</ele>
   </trkpt>
   <trkpt lat="59.90511000000001" lon="10.86223">
    <ele>233.34</ele>
   </trkpt>
   <trkpt lat="59.90452999994977" lon="10.861999995883451">
    <ele>232.37</ele>
   </trkpt>
   <trkpt lat="59.90395" lon="10.861770000000002">
    <ele>231.20000000000002</ele>
   </trkpt>
   <trkpt lat="59.903650000000006" lon="10.861490000000002">
    <ele>228.08</ele>
   </trkpt>
   <trkpt lat="59.903560000000006" lon="10.861440000000002">
    <ele>227.03</ele>
   </trkpt>
   <trkpt lat="59.903200000000005" lon="10.861440000000002">
    <ele>225.46</ele>
   </trkpt>
   <trkpt lat="59.90305000000001" lon="10.86137">
    <ele>224.95000000000002</ele>
   </trkpt>
   <trkpt lat="59.90296000000001" lon="10.86125">
    <ele>223.75</ele>
   </trkpt>
   <trkpt lat="59.90243" lon="10.860280000000001">
    <ele>213.97000000000003</ele>
   </trkpt>
   <trkpt lat="59.90216" lon="10.860140000000001">
    <ele>209.67000000000002</ele>
   </trkpt>
   <trkpt lat="59.90207" lon="10.86001">
    <ele>208.25</ele>
   </trkpt>
   <trkpt lat="59.90203" lon="10.85992">
    <ele>207.22</ele>
   </trkpt>
   <trkpt lat="59.90196" lon="10.859060000000001">
    <ele>205.05</ele>
   </trkpt>
   <trkpt lat="59.901740000000004" lon="10.858400000000001">
    <ele>200.66</ele>
   </trkpt>
   <trkpt lat="59.90169" lon="10.85819">
    <ele>200.8</ele>
   </trkpt>
   <trkpt lat="59.90158" lon="10.857970000000002">
    <ele>201.01000000000002</ele>
   </trkpt>
   <trkpt lat="59.901140000000005" lon="10.85757">
    <ele>202.43000000000004</ele>
   </trkpt>
   <trkpt lat="59.90104" lon="10.85729">
    <ele>201.4</ele>
   </trkpt>
   <trkpt lat="59.90104" lon="10.857220000000002">
    <ele>201.4</ele>
   </trkpt>
   <trkpt lat="59.90104" lon="10.857230000000001">
    <ele>201.4</ele>
   </trkpt>
   <trkpt lat="59.90108000000001" lon="10.856300000000001">
    <ele>202.32000000000002</ele>
   </trkpt>
   <trkpt lat="59.90111" lon="10.855920000000001">
    <ele>202.12</ele>
   </trkpt>
   <trkpt lat="59.901140000000005" lon="10.855780000000001">
    <ele>201.77</ele>
   </trkpt>
   <trkpt lat="59.90122" lon="10.855550000000001">
    <ele>201.14000000000001</ele>
   </trkpt>
   <trkpt lat="59.90126000000001" lon="10.855350000000001">
    <ele>200.57000000000002</ele>
   </trkpt>
   <trkpt lat="59.90124" lon="10.854800000000001">
    <ele>195.74</ele>
   </trkpt>
   <trkpt lat="59.901210000000006" lon="10.85468">
    <ele>195.4</ele>
   </trkpt>
   <trkpt lat="59.90126000000001" lon="10.85453">
    <ele>194.55</ele>
   </trkpt>
   <trkpt lat="59.90133" lon="10.85438">
    <ele>193.04000000000002</ele>
   </trkpt>
   <trkpt lat="59.901540000000004" lon="10.8542">
    <ele>188.36</ele>
   </trkpt>
   <trkpt lat="59.901830000000004" lon="10.85391">
    <ele>186.59</ele>
   </trkpt>
   <trkpt lat="59.901920000000004" lon="10.853850000000001">
    <ele>186.32000000000002</ele>
   </trkpt>
   <trkpt lat="59.902480000000004" lon="10.853660000000001">
    <ele>185.00000000000003</ele>
   </trkpt>
   <trkpt lat="59.903110000000005" lon="10.85335">
    <ele>183.50000000000003</ele>
   </trkpt>
   <trkpt lat="59.903220000000005" lon="10.853280000000002">
    <ele>183.50000000000003</ele>
   </trkpt>
   <trkpt lat="59.903270000000006" lon="10.85322">
    <ele>183.50000000000003</ele>
   </trkpt>
   <trkpt lat="59.903380000000006" lon="10.853000000000002">
    <ele>183.26</ele>
   </trkpt>
   <trkpt lat="59.903400000000005" lon="10.85138">
    <ele>183.39000000000001</ele>
   </trkpt>
   <trkpt lat="59.90337" lon="10.85138">
    <ele>180.61</ele>
   </trkpt>
   <trkpt lat="59.90339" lon="10.851180000000001">
    <ele>180.76</ele>
   </trkpt>
   <trkpt lat="59.90348" lon="10.85105">
    <ele>180.69000000000003</ele>
   </trkpt>
   <trkpt lat="59.90348" lon="10.851080000000001">
    <ele>180.76</ele>
   </trkpt>
   <trkpt lat="59.904210000000006" lon="10.851080000000001">
    <ele>181.41000000000003</ele>
   </trkpt>
   <trkpt lat="59.9044" lon="10.851070000000002">
    <ele>180.89000000000001</ele>
   </trkpt>
   <trkpt lat="59.904560000000004" lon="10.85102">
    <ele>180.89000000000001</ele>
   </trkpt>
   <trkpt lat="59.904560000000004" lon="10.85096">
    <ele>180.89000000000001</ele>
   </trkpt>
   <trkpt lat="59.904410000000006" lon="10.85039">
    <ele>181.6</ele>
   </trkpt>
   <trkpt lat="59.90426000000001" lon="10.84965">
    <ele>182.67000000000002</ele>
   </trkpt>
   <trkpt lat="59.90429" lon="10.848080000000001">
    <ele>185.54000000000002</ele>
   </trkpt>
   <trkpt lat="59.904360000000004" lon="10.847610000000001">
    <ele>185.87</ele>
   </trkpt>
   <trkpt lat="59.9044" lon="10.84698">
    <ele>185.08</ele>
   </trkpt>
   <trkpt lat="59.90438" lon="10.84694">
    <ele>185.08</ele>
   </trkpt>
   <trkpt lat="59.90433" lon="10.846950000000001">
    <ele>185.08</ele>
   </trkpt>
   <trkpt lat="59.904320000000006" lon="10.84693">
    <ele>185.08</ele>
   </trkpt>
   <trkpt lat="59.90431" lon="10.84675">
    <ele>185.31</ele>
   </trkpt>
   <trkpt lat="59.904230000000005" lon="10.8466">
    <ele>185.31</ele>
   </trkpt>
   <trkpt lat="59.904180000000004" lon="10.84641">
    <ele>185.54000000000002</ele>
   </trkpt>
   <trkpt lat="59.904140000000005" lon="10.846060000000001">
    <ele>185.54000000000002</ele>
   </trkpt>
   <trkpt lat="59.904180000000004" lon="10.84537">
    <ele>188.23000000000002</ele>
   </trkpt>
   <trkpt lat="59.90422" lon="10.84523">
    <ele>188.53</ele>
   </trkpt>
   <trkpt lat="59.904360000000004" lon="10.845">
    <ele>188.82000000000002</ele>
   </trkpt>
   <trkpt lat="59.90442" lon="10.84482">
    <ele>188.97000000000003</ele>
   </trkpt>
   <trkpt lat="59.904430000000005" lon="10.84454">
    <ele>188.98000000000002</ele>
   </trkpt>
   <trkpt lat="59.904320000000006" lon="10.84397">
    <ele>188.00000000000003</ele>
   </trkpt>
   <trkpt lat="59.9042" lon="10.843720000000001">
    <ele>186.55</ele>
   </trkpt>
   <trkpt lat="59.90415000000001" lon="10.843670000000001">
    <ele>186.29000000000002</ele>
   </trkpt>
   <trkpt lat="59.90410000000001" lon="10.843670000000001">
    <ele>186.10000000000002</ele>
   </trkpt>
   <trkpt lat="59.90408000000001" lon="10.8435">
    <ele>184.12</ele>
   </trkpt>
   <trkpt lat="59.90408000000001" lon="10.843210000000001">
    <ele>182.34</ele>
   </trkpt>
   <trkpt lat="59.90417000000001" lon="10.842860000000002">
    <ele>179.3</ele>
   </trkpt>
   <trkpt lat="59.90417000000001" lon="10.842780000000001">
    <ele>178.54</ele>
   </trkpt>
   <trkpt lat="59.904140000000005" lon="10.84267">
    <ele>177.11</ele>
   </trkpt>
   <trkpt lat="59.90428000000001" lon="10.842440000000002">
    <ele>175.0</ele>
   </trkpt>
   <trkpt lat="59.90438" lon="10.842070000000001">
    <ele>171.86</ele>
   </trkpt>
   <trkpt lat="59.9044" lon="10.84182">
    <ele>171.86</ele>
   </trkpt>
   <trkpt lat="59.90439000000001" lon="10.84162">
    <ele>171.23000000000002</ele>
   </trkpt>
   <trkpt lat="59.90428000000001" lon="10.841180000000001">
    <ele>169.11</ele>
   </trkpt>
   <trkpt lat="59.904540000000004" lon="10.841050000000001">
    <ele>167.36</ele>
   </trkpt>
   <trkpt lat="59.90473000000001" lon="10.840610000000002">
    <ele>162.74</ele>
   </trkpt>
   <trkpt lat="59.904810000000005" lon="10.840530000000001">
    <ele>159.84</ele>
   </trkpt>
   <trkpt lat="59.90493000000001" lon="10.84046">
    <ele>158.24</ele>
   </trkpt>
   <trkpt lat="59.90500000000001" lon="10.840390000000001">
    <ele>156.4</ele>
   </trkpt>
   <trkpt lat="59.904990000000005" lon="10.840290000000001">
    <ele>155.76000000000002</ele>
   </trkpt>
   <trkpt lat="59.90502000000001" lon="10.840100000000001">
    <ele>152.99</ele>
   </trkpt>
   <trkpt lat="59.905030000000004" lon="10.83976">
    <ele>151.49</ele>
   </trkpt>
   <trkpt lat="59.90500000000001" lon="10.83975">
    <ele>151.49</ele>
   </trkpt>
   <trkpt lat="59.90496" lon="10.839390000000002">
    <ele>150.78000000000003</ele>
   </trkpt>
   <trkpt lat="59.904920000000004" lon="10.839360000000001">
    <ele>150.78000000000003</ele>
   </trkpt>
   <trkpt lat="59.904920000000004" lon="10.83918">
    <ele>150.12</ele>
   </trkpt>
   <trkpt lat="59.90494" lon="10.83905">
    <ele>148.81000000000003</ele>
   </trkpt>
   <trkpt lat="59.904970000000006" lon="10.83899">
    <ele>148.81000000000003</ele>
   </trkpt>
   <trkpt lat="59.90572" lon="10.838460000000001">
    <ele>140.75</ele>
   </trkpt>
   <trkpt lat="59.90617500020421" lon="10.838250002860395">
    <ele>138.8</ele>
   </trkpt>
   <trkpt lat="59.90663000000001" lon="10.838040000000001">
    <ele>135.96</ele>
   </trkpt>
   <trkpt lat="59.90668" lon="10.838000000000001">
    <ele>135.96</ele>
   </trkpt>
   <trkpt lat="59.906760000000006" lon="10.837860000000001">
    <ele>134.69</ele>
   </trkpt>
   <trkpt lat="59.906760000000006" lon="10.837510000000002">
    <ele>133.4</ele>
   </trkpt>
   <trkpt lat="59.906710000000004" lon="10.83642">
    <ele>128.72</ele>
   </trkpt>
   <trkpt lat="59.906850000000006" lon="10.836390000000002">
    <ele>128.31</ele>
   </trkpt>
   <trkpt lat="59.90691" lon="10.836250000000001">
    <ele>128.38000000000002</ele>
   </trkpt>
   <trkpt lat="59.907140000000005" lon="10.83609">
    <ele>128.34</ele>
   </trkpt>
   <trkpt lat="59.907160000000005" lon="10.83604">
    <ele>128.34</ele>
   </trkpt>
  </trkseg>
 </trk>
</gpx>
