<?xml version="1.0" encoding="UTF-8"?>
<gpx creator="StravaGPX" version="1.1" xmlns="http://www.topografix.com/GPX/1/1" xmlns:xsi="http://www.w3.org/2001/XMLSchema-instance" xsi:schemaLocation="http://www.topografix.com/GPX/1/1 http://www.topografix.com/GPX/1/1/gpx.xsd">
 <metadata>
  <name>Kristiansund Havmaraton 2024</name>
  <author>
   <name>Are Fetveit</name>
   <link href="https://www.strava.com/athletes/34008689"/>
  </author>
  <copyright author="OpenStreetMap contributors">
   <year>2020</year>
   <license>https://www.openstreetmap.org/copyright</license>
  </copyright>
  <link href="https://www.strava.com/routes/3238220187995037550"/>
 </metadata>
 <trk>
  <name>Kristiansund Havmaraton 2024</name>
  <link href="https://www.strava.com/routes/3238220187995037550"/>
  <type>trail_running</type>
  <trkseg>
   <trkpt lat="63.12442000000001" lon="7.735830000000001">
    <ele>21.16</ele>
   </trkpt>
   <trkpt lat="63.12442000000001" lon="7.735200000000001">
    <ele>20.96</ele>
   </trkpt>
   <trkpt lat="63.12444000000001" lon="7.73498">
    <ele>20.96</ele>
   </trkpt>
   <trkpt lat="63.12451000000001" lon="7.734640000000001">
    <ele>20.96</ele>
   </trkpt>
   <trkpt lat="63.124480000000005" lon="7.734610000000001">
    <ele>20.96</ele>
   </trkpt>
   <trkpt lat="63.124430000000004" lon="7.734470000000001">
    <ele>21.040000000000003</ele>
   </trkpt>
   <trkpt lat="63.12415501113156" lon="7.732689983028735">
    <ele>20.73</ele>
   </trkpt>
   <trkpt lat="63.12388000000001" lon="7.730910000000001">
    <ele>17.53</ele>
   </trkpt>
   <trkpt lat="63.12367000412308" lon="7.7298299922853735">
    <ele>16.86</ele>
   </trkpt>
   <trkpt lat="63.12346000000001" lon="7.728750000000001">
    <ele>15.46</ele>
   </trkpt>
   <trkpt lat="63.12341000000001" lon="7.728580000000001">
    <ele>14.68</ele>
   </trkpt>
   <trkpt lat="63.123310000000004" lon="7.7283800000000005">
    <ele>14.34</ele>
   </trkpt>
   <trkpt lat="63.123250000000006" lon="7.7283100000000005">
    <ele>14.34</ele>
   </trkpt>
   <trkpt lat="63.12310000000001" lon="7.728320000000001">
    <ele>13.840000000000002</ele>
   </trkpt>
   <trkpt lat="63.122780000000006" lon="7.7277000000000005">
    <ele>12.98</ele>
   </trkpt>
   <trkpt lat="63.12267000000001" lon="7.72761">
    <ele>12.98</ele>
   </trkpt>
   <trkpt lat="63.12268" lon="7.72761">
    <ele>12.98</ele>
   </trkpt>
   <trkpt lat="63.122420000000005" lon="7.72768">
    <ele>11.930000000000001</ele>
   </trkpt>
   <trkpt lat="63.12219" lon="7.727860000000001">
    <ele>10.190000000000001</ele>
   </trkpt>
   <trkpt lat="63.12212" lon="7.728000000000001">
    <ele>9.88</ele>
   </trkpt>
   <trkpt lat="63.12194" lon="7.728140000000001">
    <ele>9.15</ele>
   </trkpt>
   <trkpt lat="63.12189000000001" lon="7.728060000000001">
    <ele>8.66</ele>
   </trkpt>
   <trkpt lat="63.12182000000001" lon="7.728070000000001">
    <ele>8.4</ele>
   </trkpt>
   <trkpt lat="63.121640000000006" lon="7.728180000000001">
    <ele>8.040000000000001</ele>
   </trkpt>
   <trkpt lat="63.12163" lon="7.72829">
    <ele>8.040000000000001</ele>
   </trkpt>
   <trkpt lat="63.12140000000001" lon="7.728680000000001">
    <ele>6.5600000000000005</ele>
   </trkpt>
   <trkpt lat="63.121230000000004" lon="7.72876">
    <ele>4.81</ele>
   </trkpt>
   <trkpt lat="63.12118" lon="7.728980000000001">
    <ele>4.0600000000000005</ele>
   </trkpt>
   <trkpt lat="63.120490000000004" lon="7.72904">
    <ele>4.36</ele>
   </trkpt>
   <trkpt lat="63.11979" lon="7.72939">
    <ele>4.2</ele>
   </trkpt>
   <trkpt lat="63.119640000000004" lon="7.729500000000001">
    <ele>4.15</ele>
   </trkpt>
   <trkpt lat="63.11956000000001" lon="7.72951">
    <ele>4.04</ele>
   </trkpt>
   <trkpt lat="63.119510000000005" lon="7.729470000000001">
    <ele>4.04</ele>
   </trkpt>
   <trkpt lat="63.11947000000001" lon="7.7293">
    <ele>4.010000000000001</ele>
   </trkpt>
   <trkpt lat="63.119420000000005" lon="7.72925">
    <ele>4.03</ele>
   </trkpt>
   <trkpt lat="63.119350000000004" lon="7.72911">
    <ele>4.08</ele>
   </trkpt>
   <trkpt lat="63.119330000000005" lon="7.72909">
    <ele>4.08</ele>
   </trkpt>
   <trkpt lat="63.119080000000004" lon="7.72939">
    <ele>3.920000000000001</ele>
   </trkpt>
   <trkpt lat="63.11874" lon="7.729940000000001">
    <ele>4.050000000000001</ele>
   </trkpt>
   <trkpt lat="63.118370000000006" lon="7.7304">
    <ele>4.34</ele>
   </trkpt>
   <trkpt lat="63.11811000000001" lon="7.730600000000001">
    <ele>4.44</ele>
   </trkpt>
   <trkpt lat="63.117920000000005" lon="7.730720000000001">
    <ele>4.44</ele>
   </trkpt>
   <trkpt lat="63.11750000000001" lon="7.731090000000001">
    <ele>4.580000000000001</ele>
   </trkpt>
   <trkpt lat="63.11737000000001" lon="7.73129">
    <ele>4.670000000000001</ele>
   </trkpt>
   <trkpt lat="63.117020000000004" lon="7.73167">
    <ele>5.46</ele>
   </trkpt>
   <trkpt lat="63.116870000000006" lon="7.73174">
    <ele>5.840000000000001</ele>
   </trkpt>
   <trkpt lat="63.11675" lon="7.7319">
    <ele>6.5200000000000005</ele>
   </trkpt>
   <trkpt lat="63.116670000000006" lon="7.73207">
    <ele>7.08</ele>
   </trkpt>
   <trkpt lat="63.116130000000005" lon="7.732290000000001">
    <ele>9.3</ele>
   </trkpt>
   <trkpt lat="63.116110000000006" lon="7.7323200000000005">
    <ele>9.250000000000002</ele>
   </trkpt>
   <trkpt lat="63.11600000000001" lon="7.732380000000001">
    <ele>9.250000000000002</ele>
   </trkpt>
   <trkpt lat="63.115990000000004" lon="7.73237">
    <ele>9.250000000000002</ele>
   </trkpt>
   <trkpt lat="63.11536" lon="7.732740000000001">
    <ele>6.61</ele>
   </trkpt>
   <trkpt lat="63.11535000000001" lon="7.73261">
    <ele>6.540000000000001</ele>
   </trkpt>
   <trkpt lat="63.115" lon="7.7327900000000005">
    <ele>5.91</ele>
   </trkpt>
   <trkpt lat="63.114740000000005" lon="7.73282">
    <ele>5.36</ele>
   </trkpt>
   <trkpt lat="63.11462" lon="7.732810000000001">
    <ele>5.36</ele>
   </trkpt>
   <trkpt lat="63.11431" lon="7.732740000000001">
    <ele>4.920000000000001</ele>
   </trkpt>
   <trkpt lat="63.11384" lon="7.732620000000001">
    <ele>4.46</ele>
   </trkpt>
   <trkpt lat="63.11345000000001" lon="7.732550000000001">
    <ele>4.180000000000001</ele>
   </trkpt>
   <trkpt lat="63.11328" lon="7.732550000000001">
    <ele>4.07</ele>
   </trkpt>
   <trkpt lat="63.11268500004548" lon="7.7326850027691165">
    <ele>4.109999999999999</ele>
   </trkpt>
   <trkpt lat="63.11209" lon="7.73282">
    <ele>4.010000000000001</ele>
   </trkpt>
   <trkpt lat="63.11135" lon="7.732880000000001">
    <ele>4.16</ele>
   </trkpt>
   <trkpt lat="63.110980000000005" lon="7.73303">
    <ele>3.9000000000000004</ele>
   </trkpt>
   <trkpt lat="63.11052500004229" lon="7.733170002200647">
    <ele>4.109999999999999</ele>
   </trkpt>
   <trkpt lat="63.11007000000001" lon="7.73331">
    <ele>4.03</ele>
   </trkpt>
   <trkpt lat="63.109440000000006" lon="7.732660000000001">
    <ele>4.010000000000001</ele>
   </trkpt>
   <trkpt lat="63.10924000000001" lon="7.73237">
    <ele>3.94</ele>
   </trkpt>
   <trkpt lat="63.109120000000004" lon="7.732130000000001">
    <ele>3.95</ele>
   </trkpt>
   <trkpt lat="63.108810000000005" lon="7.731590000000001">
    <ele>4.08</ele>
   </trkpt>
   <trkpt lat="63.10875000000001" lon="7.731400000000001">
    <ele>4.08</ele>
   </trkpt>
   <trkpt lat="63.10844" lon="7.729890000000001">
    <ele>4.920000000000001</ele>
   </trkpt>
   <trkpt lat="63.10844" lon="7.729710000000001">
    <ele>5.42</ele>
   </trkpt>
   <trkpt lat="63.10846000000001" lon="7.729620000000001">
    <ele>5.42</ele>
   </trkpt>
   <trkpt lat="63.108540000000005" lon="7.72946">
    <ele>6.83</ele>
   </trkpt>
   <trkpt lat="63.108810000000005" lon="7.729240000000001">
    <ele>10.41</ele>
   </trkpt>
   <trkpt lat="63.109190000000005" lon="7.728890000000001">
    <ele>14.49</ele>
   </trkpt>
   <trkpt lat="63.109170000000006" lon="7.728790000000001">
    <ele>14.38</ele>
   </trkpt>
   <trkpt lat="63.109190000000005" lon="7.728650000000001">
    <ele>14.74</ele>
   </trkpt>
   <trkpt lat="63.109230000000004" lon="7.728610000000001">
    <ele>15.14</ele>
   </trkpt>
   <trkpt lat="63.108920000000005" lon="7.72707">
    <ele>16.439999999999998</ele>
   </trkpt>
   <trkpt lat="63.108790000000006" lon="7.72681">
    <ele>17.37</ele>
   </trkpt>
   <trkpt lat="63.108810000000005" lon="7.726610000000001">
    <ele>17.560000000000002</ele>
   </trkpt>
   <trkpt lat="63.108810000000005" lon="7.726490000000001">
    <ele>18.21</ele>
   </trkpt>
   <trkpt lat="63.108670000000004" lon="7.72571">
    <ele>19.720000000000002</ele>
   </trkpt>
   <trkpt lat="63.108700000000006" lon="7.725510000000001">
    <ele>23.860000000000003</ele>
   </trkpt>
   <trkpt lat="63.10904000000001" lon="7.724530000000001">
    <ele>28.34</ele>
   </trkpt>
   <trkpt lat="63.10905" lon="7.724550000000001">
    <ele>28.76</ele>
   </trkpt>
   <trkpt lat="63.109190000000005" lon="7.724130000000001">
    <ele>30.560000000000002</ele>
   </trkpt>
   <trkpt lat="63.10922000000001" lon="7.724130000000001">
    <ele>30.560000000000002</ele>
   </trkpt>
   <trkpt lat="63.10924000000001" lon="7.723980000000001">
    <ele>31.110000000000003</ele>
   </trkpt>
   <trkpt lat="63.10925" lon="7.723960000000001">
    <ele>31.110000000000003</ele>
   </trkpt>
   <trkpt lat="63.10945" lon="7.723920000000001">
    <ele>31.35</ele>
   </trkpt>
   <trkpt lat="63.11010500013483" lon="7.723735004166467">
    <ele>30.740000000000002</ele>
   </trkpt>
   <trkpt lat="63.110760000000006" lon="7.72355">
    <ele>29.95</ele>
   </trkpt>
   <trkpt lat="63.11090000000001" lon="7.723520000000001">
    <ele>29.810000000000002</ele>
   </trkpt>
   <trkpt lat="63.11090000000001" lon="7.7235700000000005">
    <ele>29.68</ele>
   </trkpt>
   <trkpt lat="63.11146000000001" lon="7.7234300000000005">
    <ele>32.14</ele>
   </trkpt>
   <trkpt lat="63.11191500017749" lon="7.723300002002228">
    <ele>34.870000000000005</ele>
   </trkpt>
   <trkpt lat="63.112370000000006" lon="7.7231700000000005">
    <ele>37.4</ele>
   </trkpt>
   <trkpt lat="63.113070000541214" lon="7.722890013497637">
    <ele>40.300000000000004</ele>
   </trkpt>
   <trkpt lat="63.11377000053056" lon="7.72261001350226">
    <ele>45.13</ele>
   </trkpt>
   <trkpt lat="63.114470000000004" lon="7.72233">
    <ele>50.370000000000005</ele>
   </trkpt>
   <trkpt lat="63.11450000000001" lon="7.72238">
    <ele>50.35</ele>
   </trkpt>
   <trkpt lat="63.11459000000001" lon="7.722830000000001">
    <ele>50.080000000000005</ele>
   </trkpt>
   <trkpt lat="63.11473000000001" lon="7.72301">
    <ele>49.86</ele>
   </trkpt>
   <trkpt lat="63.11475000000001" lon="7.7231000000000005">
    <ele>49.650000000000006</ele>
   </trkpt>
   <trkpt lat="63.1148" lon="7.723190000000001">
    <ele>49.11</ele>
   </trkpt>
   <trkpt lat="63.115140000000004" lon="7.7235000000000005">
    <ele>46.760000000000005</ele>
   </trkpt>
   <trkpt lat="63.115260000000006" lon="7.72369">
    <ele>46.720000000000006</ele>
   </trkpt>
   <trkpt lat="63.11531000000001" lon="7.723730000000001">
    <ele>46.720000000000006</ele>
   </trkpt>
   <trkpt lat="63.11527" lon="7.72341">
    <ele>50.17</ele>
   </trkpt>
   <trkpt lat="63.115280000000006" lon="7.72268">
    <ele>53.370000000000005</ele>
   </trkpt>
   <trkpt lat="63.11520000000001" lon="7.72165">
    <ele>55.2</ele>
   </trkpt>
   <trkpt lat="63.115030000000004" lon="7.720320000000001">
    <ele>56.14</ele>
   </trkpt>
   <trkpt lat="63.114830000000005" lon="7.7189700000000006">
    <ele>55.510000000000005</ele>
   </trkpt>
   <trkpt lat="63.11482" lon="7.718700000000001">
    <ele>55.02</ele>
   </trkpt>
   <trkpt lat="63.11486000000001" lon="7.71827">
    <ele>53.480000000000004</ele>
   </trkpt>
   <trkpt lat="63.11477000000001" lon="7.718120000000001">
    <ele>53.480000000000004</ele>
   </trkpt>
   <trkpt lat="63.114700000000006" lon="7.717960000000001">
    <ele>53.160000000000004</ele>
   </trkpt>
   <trkpt lat="63.11459000000001" lon="7.717320000000001">
    <ele>53.13</ele>
   </trkpt>
   <trkpt lat="63.114360000000005" lon="7.71705">
    <ele>53.31</ele>
   </trkpt>
   <trkpt lat="63.11426000000001" lon="7.717040000000001">
    <ele>53.52</ele>
   </trkpt>
   <trkpt lat="63.11417000000001" lon="7.717080000000001">
    <ele>53.83</ele>
   </trkpt>
   <trkpt lat="63.11410000000001" lon="7.7171">
    <ele>54.01</ele>
   </trkpt>
   <trkpt lat="63.11408000000001" lon="7.71616">
    <ele>57.36</ele>
   </trkpt>
   <trkpt lat="63.114000000000004" lon="7.71595">
    <ele>57.580000000000005</ele>
   </trkpt>
   <trkpt lat="63.113960000000006" lon="7.71534">
    <ele>54.68000000000001</ele>
   </trkpt>
   <trkpt lat="63.113910000000004" lon="7.715180000000001">
    <ele>54.67</ele>
   </trkpt>
   <trkpt lat="63.11386" lon="7.715140000000001">
    <ele>55.00000000000001</ele>
   </trkpt>
   <trkpt lat="63.113670000000006" lon="7.715140000000001">
    <ele>57.24</ele>
   </trkpt>
   <trkpt lat="63.11356000000001" lon="7.714910000000001">
    <ele>58.410000000000004</ele>
   </trkpt>
   <trkpt lat="63.11347000000001" lon="7.71466">
    <ele>59.21000000000001</ele>
   </trkpt>
   <trkpt lat="63.11345000000001" lon="7.714530000000001">
    <ele>59.24000000000001</ele>
   </trkpt>
   <trkpt lat="63.113400000000006" lon="7.714410000000001">
    <ele>59.17000000000001</ele>
   </trkpt>
   <trkpt lat="63.113310000000006" lon="7.714010000000001">
    <ele>59.18</ele>
   </trkpt>
   <trkpt lat="63.11328" lon="7.71377">
    <ele>58.84</ele>
   </trkpt>
   <trkpt lat="63.113290000000006" lon="7.713470000000001">
    <ele>57.790000000000006</ele>
   </trkpt>
   <trkpt lat="63.11321" lon="7.712930000000001">
    <ele>57.510000000000005</ele>
   </trkpt>
   <trkpt lat="63.113110000000006" lon="7.712470000000001">
    <ele>56.81</ele>
   </trkpt>
   <trkpt lat="63.113150000000005" lon="7.712370000000001">
    <ele>56.32</ele>
   </trkpt>
   <trkpt lat="63.113240000000005" lon="7.712330000000001">
    <ele>54.98</ele>
   </trkpt>
   <trkpt lat="63.11328" lon="7.712210000000001">
    <ele>52.99</ele>
   </trkpt>
   <trkpt lat="63.11332" lon="7.7118400000000005">
    <ele>48.260000000000005</ele>
   </trkpt>
   <trkpt lat="63.113490000000006" lon="7.71173">
    <ele>42.03</ele>
   </trkpt>
   <trkpt lat="63.1135" lon="7.7117">
    <ele>42.03</ele>
   </trkpt>
   <trkpt lat="63.11348" lon="7.711530000000001">
    <ele>40.080000000000005</ele>
   </trkpt>
   <trkpt lat="63.1135" lon="7.7113000000000005">
    <ele>33.620000000000005</ele>
   </trkpt>
   <trkpt lat="63.11352000000001" lon="7.711270000000001">
    <ele>31.650000000000002</ele>
   </trkpt>
   <trkpt lat="63.113530000000004" lon="7.71119">
    <ele>30.02</ele>
   </trkpt>
   <trkpt lat="63.11361000000001" lon="7.711110000000001">
    <ele>27.900000000000002</ele>
   </trkpt>
   <trkpt lat="63.113710000000005" lon="7.71079">
    <ele>26.490000000000002</ele>
   </trkpt>
   <trkpt lat="63.11374000000001" lon="7.710610000000001">
    <ele>25.84</ele>
   </trkpt>
   <trkpt lat="63.11375" lon="7.709960000000001">
    <ele>21.42</ele>
   </trkpt>
   <trkpt lat="63.11379" lon="7.7097500000000005">
    <ele>20.75</ele>
   </trkpt>
   <trkpt lat="63.113890000000005" lon="7.709580000000001">
    <ele>18.79</ele>
   </trkpt>
   <trkpt lat="63.113890000000005" lon="7.709480000000001">
    <ele>18.02</ele>
   </trkpt>
   <trkpt lat="63.113980000000005" lon="7.709220000000001">
    <ele>14.92</ele>
   </trkpt>
   <trkpt lat="63.11401000000001" lon="7.708970000000001">
    <ele>14.06</ele>
   </trkpt>
   <trkpt lat="63.11397" lon="7.708830000000001">
    <ele>13.31</ele>
   </trkpt>
   <trkpt lat="63.113960000000006" lon="7.70858">
    <ele>11.73</ele>
   </trkpt>
   <trkpt lat="63.113980000000005" lon="7.70835">
    <ele>9.45</ele>
   </trkpt>
   <trkpt lat="63.11397" lon="7.70821">
    <ele>8.76</ele>
   </trkpt>
   <trkpt lat="63.11404" lon="7.707860000000001">
    <ele>7.53</ele>
   </trkpt>
   <trkpt lat="63.11410000000001" lon="7.7077100000000005">
    <ele>7.680000000000001</ele>
   </trkpt>
   <trkpt lat="63.114180000000005" lon="7.707000000000001">
    <ele>9.45</ele>
   </trkpt>
   <trkpt lat="63.11430000000001" lon="7.70668">
    <ele>15.770000000000003</ele>
   </trkpt>
   <trkpt lat="63.114320000000006" lon="7.7064900000000005">
    <ele>16.360000000000003</ele>
   </trkpt>
   <trkpt lat="63.11430000000001" lon="7.706270000000001">
    <ele>16.21</ele>
   </trkpt>
   <trkpt lat="63.11430000000001" lon="7.705710000000001">
    <ele>14.520000000000001</ele>
   </trkpt>
   <trkpt lat="63.11421000000001" lon="7.705220000000001">
    <ele>10.31</ele>
   </trkpt>
   <trkpt lat="63.11421000000001" lon="7.705000000000001">
    <ele>8.690000000000001</ele>
   </trkpt>
   <trkpt lat="63.114250000000006" lon="7.704840000000001">
    <ele>7.760000000000001</ele>
   </trkpt>
   <trkpt lat="63.11419000000001" lon="7.70471">
    <ele>7.050000000000001</ele>
   </trkpt>
   <trkpt lat="63.114160000000005" lon="7.704130000000001">
    <ele>3.7600000000000002</ele>
   </trkpt>
   <trkpt lat="63.114200000000004" lon="7.70394">
    <ele>3.9000000000000004</ele>
   </trkpt>
   <trkpt lat="63.114230000000006" lon="7.70389">
    <ele>4.24</ele>
   </trkpt>
   <trkpt lat="63.11431" lon="7.70342">
    <ele>6.7</ele>
   </trkpt>
   <trkpt lat="63.114230000000006" lon="7.7026200000000005">
    <ele>7.680000000000001</ele>
   </trkpt>
   <trkpt lat="63.11413" lon="7.702160000000001">
    <ele>8.17</ele>
   </trkpt>
   <trkpt lat="63.114020000000004" lon="7.701770000000001">
    <ele>6.99</ele>
   </trkpt>
   <trkpt lat="63.114050000000006" lon="7.700880000000001">
    <ele>10.47</ele>
   </trkpt>
   <trkpt lat="63.114020000000004" lon="7.700710000000001">
    <ele>10.94</ele>
   </trkpt>
   <trkpt lat="63.11406" lon="7.700470000000001">
    <ele>11.940000000000001</ele>
   </trkpt>
   <trkpt lat="63.11417000000001" lon="7.700340000000001">
    <ele>14.15</ele>
   </trkpt>
   <trkpt lat="63.114200000000004" lon="7.700220000000001">
    <ele>14.83</ele>
   </trkpt>
   <trkpt lat="63.114160000000005" lon="7.70002">
    <ele>14.730000000000002</ele>
   </trkpt>
   <trkpt lat="63.11419000000001" lon="7.699470000000001">
    <ele>18.080000000000002</ele>
   </trkpt>
   <trkpt lat="63.11415" lon="7.69941">
    <ele>18.080000000000002</ele>
   </trkpt>
   <trkpt lat="63.114020000000004" lon="7.699000000000001">
    <ele>23.39</ele>
   </trkpt>
   <trkpt lat="63.11399000000001" lon="7.698710000000001">
    <ele>23.64</ele>
   </trkpt>
   <trkpt lat="63.11394000000001" lon="7.698530000000001">
    <ele>23.71</ele>
   </trkpt>
   <trkpt lat="63.11392000000001" lon="7.69838">
    <ele>23.3</ele>
   </trkpt>
   <trkpt lat="63.113870000000006" lon="7.69826">
    <ele>22.080000000000002</ele>
   </trkpt>
   <trkpt lat="63.11383000000001" lon="7.69824">
    <ele>22.080000000000002</ele>
   </trkpt>
   <trkpt lat="63.11370000000001" lon="7.69786">
    <ele>16.700000000000003</ele>
   </trkpt>
   <trkpt lat="63.11363000000001" lon="7.697820000000001">
    <ele>13.57</ele>
   </trkpt>
   <trkpt lat="63.11356000000001" lon="7.6977">
    <ele>12.600000000000001</ele>
   </trkpt>
   <trkpt lat="63.11354000000001" lon="7.697540000000001">
    <ele>11.39</ele>
   </trkpt>
   <trkpt lat="63.113550000000004" lon="7.69739">
    <ele>11.47</ele>
   </trkpt>
   <trkpt lat="63.11365000000001" lon="7.696980000000001">
    <ele>17.730000000000004</ele>
   </trkpt>
   <trkpt lat="63.11357" lon="7.696340000000001">
    <ele>20.700000000000003</ele>
   </trkpt>
   <trkpt lat="63.113620000000004" lon="7.69608">
    <ele>23.42</ele>
   </trkpt>
   <trkpt lat="63.11368" lon="7.696300000000001">
    <ele>26.220000000000002</ele>
   </trkpt>
   <trkpt lat="63.113780000000006" lon="7.696350000000001">
    <ele>29.370000000000005</ele>
   </trkpt>
   <trkpt lat="63.11383000000001" lon="7.696300000000001">
    <ele>34.370000000000005</ele>
   </trkpt>
   <trkpt lat="63.113890000000005" lon="7.696600000000001">
    <ele>37.61000000000001</ele>
   </trkpt>
   <trkpt lat="63.11395" lon="7.696700000000001">
    <ele>42.67000000000001</ele>
   </trkpt>
   <trkpt lat="63.113980000000005" lon="7.69683">
    <ele>42.67000000000001</ele>
   </trkpt>
   <trkpt lat="63.11404" lon="7.696810000000001">
    <ele>45.74</ele>
   </trkpt>
   <trkpt lat="63.114070000000005" lon="7.696040000000001">
    <ele>46.3</ele>
   </trkpt>
   <trkpt lat="63.114180000000005" lon="7.695380000000001">
    <ele>47.730000000000004</ele>
   </trkpt>
   <trkpt lat="63.114140000000006" lon="7.695010000000001">
    <ele>45.56</ele>
   </trkpt>
   <trkpt lat="63.11406" lon="7.69474">
    <ele>43.03000000000001</ele>
   </trkpt>
   <trkpt lat="63.114090000000004" lon="7.694380000000001">
    <ele>38.07</ele>
   </trkpt>
   <trkpt lat="63.11412000000001" lon="7.694240000000001">
    <ele>37.22</ele>
   </trkpt>
   <trkpt lat="63.114180000000005" lon="7.694070000000001">
    <ele>36.24</ele>
   </trkpt>
   <trkpt lat="63.114290000000004" lon="7.693840000000001">
    <ele>36.45</ele>
   </trkpt>
   <trkpt lat="63.11433" lon="7.693810000000001">
    <ele>37.08</ele>
   </trkpt>
   <trkpt lat="63.114360000000005" lon="7.6937500000000005">
    <ele>37.37</ele>
   </trkpt>
   <trkpt lat="63.11442" lon="7.693810000000001">
    <ele>40.92</ele>
   </trkpt>
   <trkpt lat="63.11444" lon="7.693040000000001">
    <ele>38.91</ele>
   </trkpt>
   <trkpt lat="63.11446000000001" lon="7.693010000000001">
    <ele>37.68000000000001</ele>
   </trkpt>
   <trkpt lat="63.114560000000004" lon="7.693090000000001">
    <ele>34.72</ele>
   </trkpt>
   <trkpt lat="63.1146" lon="7.6931">
    <ele>33.02</ele>
   </trkpt>
   <trkpt lat="63.11464000000001" lon="7.693150000000001">
    <ele>29.36</ele>
   </trkpt>
   <trkpt lat="63.114670000000004" lon="7.693010000000001">
    <ele>27.62</ele>
   </trkpt>
   <trkpt lat="63.11464000000001" lon="7.692540000000001">
    <ele>20.96</ele>
   </trkpt>
   <trkpt lat="63.1146" lon="7.692360000000001">
    <ele>18.09</ele>
   </trkpt>
   <trkpt lat="63.114610000000006" lon="7.692310000000001">
    <ele>18.09</ele>
   </trkpt>
   <trkpt lat="63.1146" lon="7.692270000000001">
    <ele>18.09</ele>
   </trkpt>
   <trkpt lat="63.114540000000005" lon="7.692290000000001">
    <ele>14.97</ele>
   </trkpt>
   <trkpt lat="63.11442" lon="7.692240000000001">
    <ele>10.94</ele>
   </trkpt>
   <trkpt lat="63.114560000000004" lon="7.692100000000001">
    <ele>8.85</ele>
   </trkpt>
   <trkpt lat="63.114630000000005" lon="7.691910000000001">
    <ele>8.180000000000001</ele>
   </trkpt>
   <trkpt lat="63.11466000000001" lon="7.6917800000000005">
    <ele>8.08</ele>
   </trkpt>
   <trkpt lat="63.11466000000001" lon="7.691580000000001">
    <ele>8.190000000000001</ele>
   </trkpt>
   <trkpt lat="63.11466000000001" lon="7.6915700000000005">
    <ele>8.34</ele>
   </trkpt>
   <trkpt lat="63.11482" lon="7.691590000000001">
    <ele>8.58</ele>
   </trkpt>
   <trkpt lat="63.11488000000001" lon="7.691590000000001">
    <ele>8.92</ele>
   </trkpt>
   <trkpt lat="63.11496" lon="7.691680000000001">
    <ele>9.120000000000001</ele>
   </trkpt>
   <trkpt lat="63.114990000000006" lon="7.69176">
    <ele>9.55</ele>
   </trkpt>
   <trkpt lat="63.11506000000001" lon="7.69214">
    <ele>10.350000000000001</ele>
   </trkpt>
   <trkpt lat="63.11527" lon="7.69188">
    <ele>7.38</ele>
   </trkpt>
   <trkpt lat="63.115480000000005" lon="7.6918500000000005">
    <ele>6.3500000000000005</ele>
   </trkpt>
   <trkpt lat="63.115660000000005" lon="7.691490000000001">
    <ele>6.920000000000001</ele>
   </trkpt>
   <trkpt lat="63.11603" lon="7.6912400000000005">
    <ele>6.86</ele>
   </trkpt>
   <trkpt lat="63.116350000000004" lon="7.69129">
    <ele>6.72</ele>
   </trkpt>
   <trkpt lat="63.11659" lon="7.691700000000001">
    <ele>6.69</ele>
   </trkpt>
   <trkpt lat="63.11686" lon="7.69265">
    <ele>8.270000000000001</ele>
   </trkpt>
   <trkpt lat="63.117000000000004" lon="7.692900000000001">
    <ele>8.48</ele>
   </trkpt>
   <trkpt lat="63.11721000000001" lon="7.693550000000001">
    <ele>8.48</ele>
   </trkpt>
   <trkpt lat="63.11751" lon="7.694000000000001">
    <ele>7.16</ele>
   </trkpt>
   <trkpt lat="63.117700000000006" lon="7.694570000000001">
    <ele>5.840000000000001</ele>
   </trkpt>
   <trkpt lat="63.11777000000001" lon="7.6953000000000005">
    <ele>3.9000000000000004</ele>
   </trkpt>
   <trkpt lat="63.117850000000004" lon="7.695660000000001">
    <ele>3.41</ele>
   </trkpt>
   <trkpt lat="63.1178" lon="7.6961200000000005">
    <ele>3.08</ele>
   </trkpt>
   <trkpt lat="63.1178" lon="7.696420000000001">
    <ele>3.8800000000000003</ele>
   </trkpt>
   <trkpt lat="63.117720000000006" lon="7.6967300000000005">
    <ele>5.42</ele>
   </trkpt>
   <trkpt lat="63.11771" lon="7.696980000000001">
    <ele>6.73</ele>
   </trkpt>
   <trkpt lat="63.117740000000005" lon="7.697350000000001">
    <ele>8.13</ele>
   </trkpt>
   <trkpt lat="63.11784000000001" lon="7.6978100000000005">
    <ele>9.15</ele>
   </trkpt>
   <trkpt lat="63.11797000000001" lon="7.69791">
    <ele>8.46</ele>
   </trkpt>
   <trkpt lat="63.11809" lon="7.698100000000001">
    <ele>8.030000000000001</ele>
   </trkpt>
   <trkpt lat="63.118190000000006" lon="7.698340000000001">
    <ele>7.7700000000000005</ele>
   </trkpt>
   <trkpt lat="63.118460000000006" lon="7.698760000000001">
    <ele>7.9300000000000015</ele>
   </trkpt>
   <trkpt lat="63.118700000000004" lon="7.6979500000000005">
    <ele>4.95</ele>
   </trkpt>
   <trkpt lat="63.118860000000005" lon="7.6980200000000005">
    <ele>5.03</ele>
   </trkpt>
   <trkpt lat="63.11921" lon="7.698010000000001">
    <ele>4.840000000000001</ele>
   </trkpt>
   <trkpt lat="63.119420000000005" lon="7.698170000000001">
    <ele>5.64</ele>
   </trkpt>
   <trkpt lat="63.11972000000001" lon="7.698440000000001">
    <ele>6.42</ele>
   </trkpt>
   <trkpt lat="63.11997" lon="7.698760000000001">
    <ele>8.55</ele>
   </trkpt>
   <trkpt lat="63.120200000000004" lon="7.699470000000001">
    <ele>10.17</ele>
   </trkpt>
   <trkpt lat="63.12039000000001" lon="7.69967">
    <ele>8.200000000000001</ele>
   </trkpt>
   <trkpt lat="63.12048000000001" lon="7.699980000000001">
    <ele>7.580000000000001</ele>
   </trkpt>
   <trkpt lat="63.12050000000001" lon="7.701130000000001">
    <ele>4.5600000000000005</ele>
   </trkpt>
   <trkpt lat="63.12044" lon="7.701420000000001">
    <ele>3.99</ele>
   </trkpt>
   <trkpt lat="63.12033" lon="7.70173">
    <ele>3.920000000000001</ele>
   </trkpt>
   <trkpt lat="63.12033" lon="7.70199">
    <ele>4.15</ele>
   </trkpt>
   <trkpt lat="63.12039000000001" lon="7.702050000000001">
    <ele>4.13</ele>
   </trkpt>
   <trkpt lat="63.12068000000001" lon="7.70274">
    <ele>5.74</ele>
   </trkpt>
   <trkpt lat="63.12075000000001" lon="7.703030000000001">
    <ele>6.450000000000001</ele>
   </trkpt>
   <trkpt lat="63.120760000000004" lon="7.7033700000000005">
    <ele>7.12</ele>
   </trkpt>
   <trkpt lat="63.12073" lon="7.703570000000001">
    <ele>7.5600000000000005</ele>
   </trkpt>
   <trkpt lat="63.120900000000006" lon="7.703900000000001">
    <ele>6.99</ele>
   </trkpt>
   <trkpt lat="63.12113000000001" lon="7.70422">
    <ele>5.46</ele>
   </trkpt>
   <trkpt lat="63.1212" lon="7.7044500000000005">
    <ele>5.410000000000001</ele>
   </trkpt>
   <trkpt lat="63.12129" lon="7.705000000000001">
    <ele>6.580000000000001</ele>
   </trkpt>
   <trkpt lat="63.121480000000005" lon="7.7058100000000005">
    <ele>8.219999999999999</ele>
   </trkpt>
   <trkpt lat="63.121550000000006" lon="7.70638">
    <ele>8.6</ele>
   </trkpt>
   <trkpt lat="63.12160000000001" lon="7.707070000000001">
    <ele>8.530000000000001</ele>
   </trkpt>
   <trkpt lat="63.12162000000001" lon="7.7077800000000005">
    <ele>7.46</ele>
   </trkpt>
   <trkpt lat="63.121660000000006" lon="7.707790000000001">
    <ele>7.46</ele>
   </trkpt>
   <trkpt lat="63.121770000000005" lon="7.7079">
    <ele>7.03</ele>
   </trkpt>
   <trkpt lat="63.12187000000001" lon="7.708120000000001">
    <ele>6.94</ele>
   </trkpt>
   <trkpt lat="63.121930000000006" lon="7.7083">
    <ele>7.0600000000000005</ele>
   </trkpt>
   <trkpt lat="63.12220000000001" lon="7.708690000000001">
    <ele>6.260000000000001</ele>
   </trkpt>
   <trkpt lat="63.12239" lon="7.709010000000001">
    <ele>6.49</ele>
   </trkpt>
   <trkpt lat="63.12245000000001" lon="7.708990000000001">
    <ele>7.0200000000000005</ele>
   </trkpt>
   <trkpt lat="63.12257" lon="7.7090000000000005">
    <ele>8.43</ele>
   </trkpt>
   <trkpt lat="63.12274000000001" lon="7.708950000000001">
    <ele>8.520000000000001</ele>
   </trkpt>
   <trkpt lat="63.12288" lon="7.7090000000000005">
    <ele>5.6000000000000005</ele>
   </trkpt>
   <trkpt lat="63.122980000000005" lon="7.70924">
    <ele>4.050000000000001</ele>
   </trkpt>
   <trkpt lat="63.12303000000001" lon="7.70931">
    <ele>3.6500000000000004</ele>
   </trkpt>
   <trkpt lat="63.123020000000004" lon="7.7093300000000005">
    <ele>3.6500000000000004</ele>
   </trkpt>
   <trkpt lat="63.12308" lon="7.70945">
    <ele>3.4600000000000004</ele>
   </trkpt>
   <trkpt lat="63.12317" lon="7.709560000000001">
    <ele>3.52</ele>
   </trkpt>
   <trkpt lat="63.12324" lon="7.70957">
    <ele>3.72</ele>
   </trkpt>
   <trkpt lat="63.12326" lon="7.709550000000001">
    <ele>4.2700000000000005</ele>
   </trkpt>
   <trkpt lat="63.12337000000001" lon="7.709600000000001">
    <ele>5.670000000000001</ele>
   </trkpt>
   <trkpt lat="63.12350000000001" lon="7.709760000000001">
    <ele>8.21</ele>
   </trkpt>
   <trkpt lat="63.123520000000006" lon="7.709960000000001">
    <ele>8.49</ele>
   </trkpt>
   <trkpt lat="63.123490000000004" lon="7.709670000000001">
    <ele>8.620000000000001</ele>
   </trkpt>
   <trkpt lat="63.12350000000001" lon="7.70945">
    <ele>8.57</ele>
   </trkpt>
   <trkpt lat="63.12357000000001" lon="7.709150000000001">
    <ele>10.25</ele>
   </trkpt>
   <trkpt lat="63.1236" lon="7.70875">
    <ele>13.55</ele>
   </trkpt>
   <trkpt lat="63.12324" lon="7.7073100000000005">
    <ele>11.920000000000002</ele>
   </trkpt>
   <trkpt lat="63.12297" lon="7.70565">
    <ele>4.0</ele>
   </trkpt>
   <trkpt lat="63.12290000000001" lon="7.7049900000000004">
    <ele>4.03</ele>
   </trkpt>
   <trkpt lat="63.122980000000005" lon="7.704580000000001">
    <ele>4.44</ele>
   </trkpt>
   <trkpt lat="63.12312000000001" lon="7.70347">
    <ele>6.540000000000001</ele>
   </trkpt>
   <trkpt lat="63.12310000000001" lon="7.702800000000001">
    <ele>7.87</ele>
   </trkpt>
   <trkpt lat="63.12303000000001" lon="7.702310000000001">
    <ele>9.88</ele>
   </trkpt>
   <trkpt lat="63.12317" lon="7.70126">
    <ele>4.0200000000000005</ele>
   </trkpt>
   <trkpt lat="63.12328000000001" lon="7.70124">
    <ele>2.7900000000000005</ele>
   </trkpt>
   <trkpt lat="63.123650000000005" lon="7.7009300000000005">
    <ele>2.9600000000000004</ele>
   </trkpt>
   <trkpt lat="63.123830000000005" lon="7.7007200000000005">
    <ele>2.9600000000000004</ele>
   </trkpt>
   <trkpt lat="63.12417000000001" lon="7.7007">
    <ele>2.56</ele>
   </trkpt>
   <trkpt lat="63.12424000000001" lon="7.7007900000000005">
    <ele>2.68</ele>
   </trkpt>
   <trkpt lat="63.124370000000006" lon="7.700880000000001">
    <ele>2.68</ele>
   </trkpt>
   <trkpt lat="63.124610000000004" lon="7.700920000000001">
    <ele>2.73</ele>
   </trkpt>
   <trkpt lat="63.12469000000001" lon="7.701010000000001">
    <ele>2.73</ele>
   </trkpt>
   <trkpt lat="63.124770000000005" lon="7.70126">
    <ele>2.73</ele>
   </trkpt>
   <trkpt lat="63.124840000000006" lon="7.701340000000001">
    <ele>2.8100000000000005</ele>
   </trkpt>
   <trkpt lat="63.12496000000001" lon="7.701350000000001">
    <ele>2.8100000000000005</ele>
   </trkpt>
   <trkpt lat="63.12509000000001" lon="7.70117">
    <ele>2.85</ele>
   </trkpt>
   <trkpt lat="63.12518000000001" lon="7.701180000000001">
    <ele>2.93</ele>
   </trkpt>
   <trkpt lat="63.12529000000001" lon="7.701270000000001">
    <ele>3.04</ele>
   </trkpt>
   <trkpt lat="63.12539" lon="7.70143">
    <ele>3.19</ele>
   </trkpt>
   <trkpt lat="63.12556000000001" lon="7.701980000000001">
    <ele>4.48</ele>
   </trkpt>
   <trkpt lat="63.12563000000001" lon="7.702070000000001">
    <ele>4.48</ele>
   </trkpt>
   <trkpt lat="63.12576000000001" lon="7.7021500000000005">
    <ele>4.91</ele>
   </trkpt>
   <trkpt lat="63.12581000000001" lon="7.7019400000000005">
    <ele>4.79</ele>
   </trkpt>
   <trkpt lat="63.12581000000001" lon="7.701650000000001">
    <ele>4.65</ele>
   </trkpt>
   <trkpt lat="63.125750000000004" lon="7.701250000000001">
    <ele>4.95</ele>
   </trkpt>
   <trkpt lat="63.12577" lon="7.70096">
    <ele>6.2</ele>
   </trkpt>
   <trkpt lat="63.12583000000001" lon="7.700660000000001">
    <ele>8.96</ele>
   </trkpt>
   <trkpt lat="63.125930000000004" lon="7.7005300000000005">
    <ele>10.46</ele>
   </trkpt>
   <trkpt lat="63.125840000000004" lon="7.69997">
    <ele>15.770000000000003</ele>
   </trkpt>
   <trkpt lat="63.12585000000001" lon="7.699940000000001">
    <ele>15.770000000000003</ele>
   </trkpt>
   <trkpt lat="63.12583000000001" lon="7.699750000000001">
    <ele>16.060000000000002</ele>
   </trkpt>
   <trkpt lat="63.125780000000006" lon="7.699720000000001">
    <ele>15.870000000000001</ele>
   </trkpt>
   <trkpt lat="63.12572000000001" lon="7.6996">
    <ele>15.590000000000002</ele>
   </trkpt>
   <trkpt lat="63.12568" lon="7.69929">
    <ele>16.830000000000002</ele>
   </trkpt>
   <trkpt lat="63.125690000000006" lon="7.69901">
    <ele>19.73</ele>
   </trkpt>
   <trkpt lat="63.12563000000001" lon="7.6983500000000005">
    <ele>19.930000000000003</ele>
   </trkpt>
   <trkpt lat="63.125550000000004" lon="7.697960000000001">
    <ele>17.43</ele>
   </trkpt>
   <trkpt lat="63.125490000000006" lon="7.697780000000001">
    <ele>16.92</ele>
   </trkpt>
   <trkpt lat="63.12545000000001" lon="7.6974800000000005">
    <ele>15.240000000000002</ele>
   </trkpt>
   <trkpt lat="63.1255" lon="7.697050000000001">
    <ele>12.92</ele>
   </trkpt>
   <trkpt lat="63.12548" lon="7.69657">
    <ele>11.22</ele>
   </trkpt>
   <trkpt lat="63.12552" lon="7.696020000000001">
    <ele>6.430000000000001</ele>
   </trkpt>
   <trkpt lat="63.125490000000006" lon="7.695760000000001">
    <ele>5.19</ele>
   </trkpt>
   <trkpt lat="63.12552" lon="7.695430000000001">
    <ele>4.85</ele>
   </trkpt>
   <trkpt lat="63.125530000000005" lon="7.694920000000001">
    <ele>5.53</ele>
   </trkpt>
   <trkpt lat="63.125510000000006" lon="7.694770000000001">
    <ele>5.760000000000001</ele>
   </trkpt>
   <trkpt lat="63.12557" lon="7.694490000000001">
    <ele>9.040000000000001</ele>
   </trkpt>
   <trkpt lat="63.1255" lon="7.693860000000001">
    <ele>10.17</ele>
   </trkpt>
   <trkpt lat="63.125420000000005" lon="7.693510000000001">
    <ele>11.1</ele>
   </trkpt>
   <trkpt lat="63.12543000000001" lon="7.693280000000001">
    <ele>13.040000000000001</ele>
   </trkpt>
   <trkpt lat="63.12539" lon="7.692970000000001">
    <ele>14.23</ele>
   </trkpt>
   <trkpt lat="63.125440000000005" lon="7.692830000000001">
    <ele>14.730000000000002</ele>
   </trkpt>
   <trkpt lat="63.12548" lon="7.692810000000001">
    <ele>15.05</ele>
   </trkpt>
   <trkpt lat="63.125510000000006" lon="7.69298">
    <ele>16.62</ele>
   </trkpt>
   <trkpt lat="63.12552" lon="7.693200000000001">
    <ele>17.12</ele>
   </trkpt>
   <trkpt lat="63.12557" lon="7.69338">
    <ele>17.88</ele>
   </trkpt>
   <trkpt lat="63.125840000000004" lon="7.693840000000001">
    <ele>17.14</ele>
   </trkpt>
   <trkpt lat="63.12590000000001" lon="7.693980000000001">
    <ele>16.040000000000003</ele>
   </trkpt>
   <trkpt lat="63.125980000000006" lon="7.694050000000001">
    <ele>14.730000000000002</ele>
   </trkpt>
   <trkpt lat="63.12606" lon="7.694170000000001">
    <ele>12.96</ele>
   </trkpt>
   <trkpt lat="63.12606" lon="7.694260000000001">
    <ele>11.82</ele>
   </trkpt>
   <trkpt lat="63.126000000000005" lon="7.694540000000001">
    <ele>6.78</ele>
   </trkpt>
   <trkpt lat="63.126020000000004" lon="7.694780000000001">
    <ele>4.38</ele>
   </trkpt>
   <trkpt lat="63.126090000000005" lon="7.69509">
    <ele>3.6600000000000006</ele>
   </trkpt>
   <trkpt lat="63.12617" lon="7.6953700000000005">
    <ele>3.95</ele>
   </trkpt>
   <trkpt lat="63.126340000000006" lon="7.6957">
    <ele>5.5</ele>
   </trkpt>
   <trkpt lat="63.126470000000005" lon="7.696140000000001">
    <ele>6.880000000000001</ele>
   </trkpt>
   <trkpt lat="63.12653" lon="7.696250000000001">
    <ele>7.25</ele>
   </trkpt>
   <trkpt lat="63.12664" lon="7.69664">
    <ele>7.91</ele>
   </trkpt>
   <trkpt lat="63.12668000000001" lon="7.696720000000001">
    <ele>8.450000000000001</ele>
   </trkpt>
   <trkpt lat="63.12677000000001" lon="7.696820000000001">
    <ele>8.63</ele>
   </trkpt>
   <trkpt lat="63.126810000000006" lon="7.69697">
    <ele>8.6</ele>
   </trkpt>
   <trkpt lat="63.12693000000001" lon="7.69723">
    <ele>8.110000000000001</ele>
   </trkpt>
   <trkpt lat="63.127140000000004" lon="7.6972700000000005">
    <ele>6.300000000000001</ele>
   </trkpt>
   <trkpt lat="63.12736" lon="7.69739">
    <ele>5.37</ele>
   </trkpt>
   <trkpt lat="63.12742000000001" lon="7.69779">
    <ele>5.81</ele>
   </trkpt>
   <trkpt lat="63.127480000000006" lon="7.698650000000001">
    <ele>7.260000000000001</ele>
   </trkpt>
   <trkpt lat="63.12742000000001" lon="7.69953">
    <ele>8.97</ele>
   </trkpt>
   <trkpt lat="63.12738" lon="7.700010000000001">
    <ele>9.770000000000001</ele>
   </trkpt>
   <trkpt lat="63.127750000000006" lon="7.700410000000001">
    <ele>2.85</ele>
   </trkpt>
   <trkpt lat="63.12805" lon="7.7006000000000006">
    <ele>4.220000000000001</ele>
   </trkpt>
   <trkpt lat="63.12820000000001" lon="7.700620000000001">
    <ele>5.87</ele>
   </trkpt>
   <trkpt lat="63.128310000000006" lon="7.700670000000001">
    <ele>6.08</ele>
   </trkpt>
   <trkpt lat="63.128460000000004" lon="7.7010700000000005">
    <ele>5.07</ele>
   </trkpt>
   <trkpt lat="63.128550000000004" lon="7.70126">
    <ele>4.710000000000001</ele>
   </trkpt>
   <trkpt lat="63.12901000000001" lon="7.701320000000001">
    <ele>3.91</ele>
   </trkpt>
   <trkpt lat="63.12912000000001" lon="7.701460000000001">
    <ele>3.45</ele>
   </trkpt>
   <trkpt lat="63.129250000000006" lon="7.70192">
    <ele>3.2700000000000005</ele>
   </trkpt>
   <trkpt lat="63.129560000000005" lon="7.702100000000001">
    <ele>4.15</ele>
   </trkpt>
   <trkpt lat="63.12968000000001" lon="7.70199">
    <ele>4.970000000000001</ele>
   </trkpt>
   <trkpt lat="63.129810000000006" lon="7.702330000000001">
    <ele>4.260000000000001</ele>
   </trkpt>
   <trkpt lat="63.129920000000006" lon="7.70241">
    <ele>3.89</ele>
   </trkpt>
   <trkpt lat="63.130100000000006" lon="7.70288">
    <ele>4.94</ele>
   </trkpt>
   <trkpt lat="63.13009" lon="7.70319">
    <ele>5.72</ele>
   </trkpt>
   <trkpt lat="63.13017000000001" lon="7.703500000000001">
    <ele>6.1000000000000005</ele>
   </trkpt>
   <trkpt lat="63.13018" lon="7.703590000000001">
    <ele>6.260000000000001</ele>
   </trkpt>
   <trkpt lat="63.13018" lon="7.703850000000001">
    <ele>6.69</ele>
   </trkpt>
   <trkpt lat="63.13011" lon="7.70403">
    <ele>8.59</ele>
   </trkpt>
   <trkpt lat="63.13011" lon="7.704200000000001">
    <ele>11.27</ele>
   </trkpt>
   <trkpt lat="63.130280000000006" lon="7.70448">
    <ele>13.32</ele>
   </trkpt>
   <trkpt lat="63.13042000000001" lon="7.704910000000001">
    <ele>13.63</ele>
   </trkpt>
   <trkpt lat="63.130430000000004" lon="7.705170000000001">
    <ele>13.53</ele>
   </trkpt>
   <trkpt lat="63.130410000000005" lon="7.705420000000001">
    <ele>13.590000000000002</ele>
   </trkpt>
   <trkpt lat="63.13042000000001" lon="7.705750000000001">
    <ele>14.24</ele>
   </trkpt>
   <trkpt lat="63.130390000000006" lon="7.706030000000001">
    <ele>15.19</ele>
   </trkpt>
   <trkpt lat="63.130390000000006" lon="7.70626">
    <ele>14.200000000000001</ele>
   </trkpt>
   <trkpt lat="63.13035000000001" lon="7.706530000000001">
    <ele>12.0</ele>
   </trkpt>
   <trkpt lat="63.130370000000006" lon="7.706860000000001">
    <ele>10.81</ele>
   </trkpt>
   <trkpt lat="63.13053000000001" lon="7.707330000000001">
    <ele>8.910000000000002</ele>
   </trkpt>
   <trkpt lat="63.13069000000001" lon="7.7076">
    <ele>6.34</ele>
   </trkpt>
   <trkpt lat="63.13071000000001" lon="7.707910000000001">
    <ele>5.410000000000001</ele>
   </trkpt>
   <trkpt lat="63.13080000000001" lon="7.70823">
    <ele>5.7</ele>
   </trkpt>
   <trkpt lat="63.13078000000001" lon="7.70877">
    <ele>6.61</ele>
   </trkpt>
   <trkpt lat="63.13054" lon="7.70936">
    <ele>7.3500000000000005</ele>
   </trkpt>
   <trkpt lat="63.13038" lon="7.7096100000000005">
    <ele>11.080000000000002</ele>
   </trkpt>
   <trkpt lat="63.13027" lon="7.70992">
    <ele>13.200000000000001</ele>
   </trkpt>
   <trkpt lat="63.13015000000001" lon="7.710120000000001">
    <ele>13.32</ele>
   </trkpt>
   <trkpt lat="63.12995000000001" lon="7.709860000000001">
    <ele>9.66</ele>
   </trkpt>
   <trkpt lat="63.129760000000005" lon="7.709890000000001">
    <ele>8.219999999999999</ele>
   </trkpt>
   <trkpt lat="63.129650000000005" lon="7.71027">
    <ele>9.14</ele>
   </trkpt>
   <trkpt lat="63.12964" lon="7.7106900000000005">
    <ele>10.650000000000002</ele>
   </trkpt>
   <trkpt lat="63.12957000000001" lon="7.711010000000001">
    <ele>11.13</ele>
   </trkpt>
   <trkpt lat="63.12959000000001" lon="7.711220000000001">
    <ele>11.680000000000001</ele>
   </trkpt>
   <trkpt lat="63.12946" lon="7.71149">
    <ele>12.34</ele>
   </trkpt>
   <trkpt lat="63.129470000000005" lon="7.711670000000001">
    <ele>13.31</ele>
   </trkpt>
   <trkpt lat="63.1296" lon="7.7118">
    <ele>14.34</ele>
   </trkpt>
   <trkpt lat="63.12968000000001" lon="7.711850000000001">
    <ele>14.4</ele>
   </trkpt>
   <trkpt lat="63.12989" lon="7.712600000000001">
    <ele>14.51</ele>
   </trkpt>
   <trkpt lat="63.12997000000001" lon="7.713280000000001">
    <ele>15.280000000000001</ele>
   </trkpt>
   <trkpt lat="63.13011" lon="7.71363">
    <ele>16.57</ele>
   </trkpt>
   <trkpt lat="63.13026000000001" lon="7.714530000000001">
    <ele>17.7</ele>
   </trkpt>
   <trkpt lat="63.13038" lon="7.714830000000001">
    <ele>16.830000000000002</ele>
   </trkpt>
   <trkpt lat="63.13047" lon="7.715350000000001">
    <ele>11.79</ele>
   </trkpt>
   <trkpt lat="63.130750000000006" lon="7.71649">
    <ele>11.88</ele>
   </trkpt>
   <trkpt lat="63.130860000000006" lon="7.71661">
    <ele>11.170000000000002</ele>
   </trkpt>
   <trkpt lat="63.130860000000006" lon="7.716970000000001">
    <ele>7.0</ele>
   </trkpt>
   <trkpt lat="63.13085" lon="7.71698">
    <ele>7.0</ele>
   </trkpt>
   <trkpt lat="63.13076" lon="7.717160000000001">
    <ele>5.99</ele>
   </trkpt>
   <trkpt lat="63.130750000000006" lon="7.717700000000001">
    <ele>6.140000000000001</ele>
   </trkpt>
   <trkpt lat="63.13067" lon="7.7180100000000005">
    <ele>7.090000000000001</ele>
   </trkpt>
   <trkpt lat="63.13046000000001" lon="7.718260000000001">
    <ele>9.28</ele>
   </trkpt>
   <trkpt lat="63.13038" lon="7.718500000000001">
    <ele>11.680000000000001</ele>
   </trkpt>
   <trkpt lat="63.130190000000006" lon="7.7186200000000005">
    <ele>12.700000000000001</ele>
   </trkpt>
   <trkpt lat="63.13017000000001" lon="7.71893">
    <ele>15.430000000000001</ele>
   </trkpt>
   <trkpt lat="63.130210000000005" lon="7.71919">
    <ele>17.67</ele>
   </trkpt>
   <trkpt lat="63.130140000000004" lon="7.719340000000001">
    <ele>21.18</ele>
   </trkpt>
   <trkpt lat="63.13006000000001" lon="7.719390000000001">
    <ele>23.340000000000003</ele>
   </trkpt>
   <trkpt lat="63.12993" lon="7.719220000000001">
    <ele>25.19</ele>
   </trkpt>
   <trkpt lat="63.129780000000004" lon="7.719380000000001">
    <ele>25.800000000000004</ele>
   </trkpt>
   <trkpt lat="63.12964" lon="7.719310000000001">
    <ele>26.520000000000003</ele>
   </trkpt>
   <trkpt lat="63.12942" lon="7.71914">
    <ele>25.76</ele>
   </trkpt>
   <trkpt lat="63.129340000000006" lon="7.71895">
    <ele>25.01</ele>
   </trkpt>
   <trkpt lat="63.12924" lon="7.7184800000000005">
    <ele>24.610000000000003</ele>
   </trkpt>
   <trkpt lat="63.12915" lon="7.7182">
    <ele>25.51</ele>
   </trkpt>
   <trkpt lat="63.12899" lon="7.71785">
    <ele>28.46</ele>
   </trkpt>
   <trkpt lat="63.12892000000001" lon="7.717580000000001">
    <ele>29.68</ele>
   </trkpt>
   <trkpt lat="63.128820000000005" lon="7.7175">
    <ele>30.45</ele>
   </trkpt>
   <trkpt lat="63.12874000000001" lon="7.717160000000001">
    <ele>30.840000000000003</ele>
   </trkpt>
   <trkpt lat="63.1287" lon="7.7168600000000005">
    <ele>31.69</ele>
   </trkpt>
   <trkpt lat="63.12872000000001" lon="7.7167">
    <ele>32.190000000000005</ele>
   </trkpt>
   <trkpt lat="63.12866" lon="7.716740000000001">
    <ele>32.14</ele>
   </trkpt>
   <trkpt lat="63.12863000000001" lon="7.716730000000001">
    <ele>32.14</ele>
   </trkpt>
   <trkpt lat="63.12847000000001" lon="7.716870000000001">
    <ele>31.34</ele>
   </trkpt>
   <trkpt lat="63.12839" lon="7.71682">
    <ele>31.090000000000003</ele>
   </trkpt>
   <trkpt lat="63.12832" lon="7.716730000000001">
    <ele>31.01</ele>
   </trkpt>
   <trkpt lat="63.128040000000006" lon="7.716920000000001">
    <ele>31.560000000000006</ele>
   </trkpt>
   <trkpt lat="63.12803" lon="7.7169300000000005">
    <ele>31.560000000000006</ele>
   </trkpt>
   <trkpt lat="63.12803" lon="7.716920000000001">
    <ele>31.560000000000006</ele>
   </trkpt>
   <trkpt lat="63.12801" lon="7.71705">
    <ele>31.92</ele>
   </trkpt>
   <trkpt lat="63.12803" lon="7.717130000000001">
    <ele>31.470000000000006</ele>
   </trkpt>
   <trkpt lat="63.12802000000001" lon="7.717790000000001">
    <ele>29.630000000000003</ele>
   </trkpt>
   <trkpt lat="63.128060000000005" lon="7.718070000000001">
    <ele>28.44</ele>
   </trkpt>
   <trkpt lat="63.128240000000005" lon="7.718400000000001">
    <ele>25.53</ele>
   </trkpt>
   <trkpt lat="63.128330000000005" lon="7.718400000000001">
    <ele>25.41</ele>
   </trkpt>
   <trkpt lat="63.128330000000005" lon="7.718630000000001">
    <ele>25.030000000000005</ele>
   </trkpt>
   <trkpt lat="63.128260000000004" lon="7.71907">
    <ele>24.700000000000003</ele>
   </trkpt>
   <trkpt lat="63.12811000000001" lon="7.71956">
    <ele>24.76</ele>
   </trkpt>
   <trkpt lat="63.12769000000001" lon="7.7201200000000005">
    <ele>24.57</ele>
   </trkpt>
   <trkpt lat="63.127430000000004" lon="7.720510000000001">
    <ele>24.490000000000002</ele>
   </trkpt>
   <trkpt lat="63.127790000000005" lon="7.722110000000001">
    <ele>20.610000000000003</ele>
   </trkpt>
   <trkpt lat="63.127810000000004" lon="7.722150000000001">
    <ele>20.59</ele>
   </trkpt>
   <trkpt lat="63.12765" lon="7.722390000000001">
    <ele>19.87</ele>
   </trkpt>
   <trkpt lat="63.12762000000001" lon="7.7224900000000005">
    <ele>19.340000000000003</ele>
   </trkpt>
   <trkpt lat="63.12789000000001" lon="7.724010000000001">
    <ele>9.840000000000002</ele>
   </trkpt>
   <trkpt lat="63.12787000000001" lon="7.724240000000001">
    <ele>8.59</ele>
   </trkpt>
   <trkpt lat="63.12760000000001" lon="7.725080000000001">
    <ele>5.47</ele>
   </trkpt>
   <trkpt lat="63.127410000000005" lon="7.725880000000001">
    <ele>5.090000000000001</ele>
   </trkpt>
   <trkpt lat="63.127460000000006" lon="7.72721">
    <ele>7.140000000000001</ele>
   </trkpt>
   <trkpt lat="63.12758" lon="7.728440000000001">
    <ele>6.36</ele>
   </trkpt>
   <trkpt lat="63.127590000000005" lon="7.728820000000001">
    <ele>4.9799999999999995</ele>
   </trkpt>
   <trkpt lat="63.12754" lon="7.72916">
    <ele>4.1000000000000005</ele>
   </trkpt>
   <trkpt lat="63.127480000000006" lon="7.72918">
    <ele>3.97</ele>
   </trkpt>
   <trkpt lat="63.12673" lon="7.729610000000001">
    <ele>5.04</ele>
   </trkpt>
   <trkpt lat="63.12661000000001" lon="7.72963">
    <ele>5.82</ele>
   </trkpt>
   <trkpt lat="63.12650000000001" lon="7.729430000000001">
    <ele>6.44</ele>
   </trkpt>
   <trkpt lat="63.12639000000001" lon="7.7295300000000005">
    <ele>6.46</ele>
   </trkpt>
   <trkpt lat="63.126360000000005" lon="7.729660000000001">
    <ele>6.5</ele>
   </trkpt>
   <trkpt lat="63.126360000000005" lon="7.730090000000001">
    <ele>6.74</ele>
   </trkpt>
   <trkpt lat="63.126470000000005" lon="7.730950000000001">
    <ele>7.4</ele>
   </trkpt>
   <trkpt lat="63.12651" lon="7.731450000000001">
    <ele>7.840000000000002</ele>
   </trkpt>
   <trkpt lat="63.126520000000006" lon="7.731800000000001">
    <ele>8.030000000000001</ele>
   </trkpt>
   <trkpt lat="63.12650000000001" lon="7.732190000000001">
    <ele>8.030000000000001</ele>
   </trkpt>
   <trkpt lat="63.12637000000001" lon="7.733200000000001">
    <ele>9.600000000000001</ele>
   </trkpt>
   <trkpt lat="63.12639000000001" lon="7.733600000000001">
    <ele>9.600000000000001</ele>
   </trkpt>
   <trkpt lat="63.126380000000005" lon="7.733750000000001">
    <ele>9.63</ele>
   </trkpt>
   <trkpt lat="63.12635" lon="7.73383">
    <ele>9.63</ele>
   </trkpt>
   <trkpt lat="63.12646000000001" lon="7.734000000000001">
    <ele>8.98</ele>
   </trkpt>
   <trkpt lat="63.12659000000001" lon="7.73425">
    <ele>8.790000000000001</ele>
   </trkpt>
   <trkpt lat="63.1268" lon="7.733950000000001">
    <ele>7.2</ele>
   </trkpt>
   <trkpt lat="63.126900000000006" lon="7.733890000000001">
    <ele>6.890000000000001</ele>
   </trkpt>
   <trkpt lat="63.12702" lon="7.733890000000001">
    <ele>6.74</ele>
   </trkpt>
   <trkpt lat="63.127210000000005" lon="7.734020000000001">
    <ele>6.960000000000001</ele>
   </trkpt>
   <trkpt lat="63.127300000000005" lon="7.73413">
    <ele>7.33</ele>
   </trkpt>
   <trkpt lat="63.127480000000006" lon="7.734490000000001">
    <ele>9.170000000000002</ele>
   </trkpt>
   <trkpt lat="63.12756" lon="7.734840000000001">
    <ele>10.350000000000001</ele>
   </trkpt>
   <trkpt lat="63.127660000000006" lon="7.734920000000001">
    <ele>11.11</ele>
   </trkpt>
   <trkpt lat="63.12778000000001" lon="7.73493">
    <ele>11.260000000000002</ele>
   </trkpt>
   <trkpt lat="63.127840000000006" lon="7.73498">
    <ele>11.73</ele>
   </trkpt>
   <trkpt lat="63.12836000000001" lon="7.735720000000001">
    <ele>14.58</ele>
   </trkpt>
   <trkpt lat="63.128460000000004" lon="7.736040000000001">
    <ele>15.330000000000002</ele>
   </trkpt>
   <trkpt lat="63.128530000000005" lon="7.736160000000001">
    <ele>15.590000000000002</ele>
   </trkpt>
   <trkpt lat="63.12867000000001" lon="7.73627">
    <ele>15.780000000000003</ele>
   </trkpt>
   <trkpt lat="63.128780000000006" lon="7.7362400000000004">
    <ele>15.82</ele>
   </trkpt>
   <trkpt lat="63.128870000000006" lon="7.736280000000001">
    <ele>15.82</ele>
   </trkpt>
   <trkpt lat="63.12897" lon="7.736440000000001">
    <ele>16.52</ele>
   </trkpt>
   <trkpt lat="63.129000000000005" lon="7.736600000000001">
    <ele>17.17</ele>
   </trkpt>
   <trkpt lat="63.129110000000004" lon="7.73695">
    <ele>19.15</ele>
   </trkpt>
   <trkpt lat="63.129110000000004" lon="7.7370600000000005">
    <ele>19.51</ele>
   </trkpt>
   <trkpt lat="63.129160000000006" lon="7.737330000000001">
    <ele>20.240000000000002</ele>
   </trkpt>
   <trkpt lat="63.129160000000006" lon="7.737830000000001">
    <ele>21.18</ele>
   </trkpt>
   <trkpt lat="63.12919000000001" lon="7.738130000000001">
    <ele>22.820000000000004</ele>
   </trkpt>
   <trkpt lat="63.129180000000005" lon="7.738340000000001">
    <ele>23.19</ele>
   </trkpt>
   <trkpt lat="63.12935" lon="7.738930000000001">
    <ele>23.470000000000002</ele>
   </trkpt>
   <trkpt lat="63.12959000000001" lon="7.739280000000001">
    <ele>22.29</ele>
   </trkpt>
   <trkpt lat="63.129670000000004" lon="7.739330000000001">
    <ele>22.09</ele>
   </trkpt>
   <trkpt lat="63.12975000000001" lon="7.739330000000001">
    <ele>21.67</ele>
   </trkpt>
   <trkpt lat="63.129760000000005" lon="7.739330000000001">
    <ele>21.67</ele>
   </trkpt>
   <trkpt lat="63.12991" lon="7.73927">
    <ele>21.460000000000004</ele>
   </trkpt>
   <trkpt lat="63.13" lon="7.73927">
    <ele>21.5</ele>
   </trkpt>
   <trkpt lat="63.130050000000004" lon="7.73906">
    <ele>22.63</ele>
   </trkpt>
   <trkpt lat="63.13022000000001" lon="7.738690000000001">
    <ele>23.160000000000004</ele>
   </trkpt>
   <trkpt lat="63.13027" lon="7.738620000000001">
    <ele>23.13</ele>
   </trkpt>
   <trkpt lat="63.13033000000001" lon="7.738250000000001">
    <ele>22.73</ele>
   </trkpt>
   <trkpt lat="63.130410000000005" lon="7.737900000000001">
    <ele>23.26</ele>
   </trkpt>
   <trkpt lat="63.13047" lon="7.7378800000000005">
    <ele>24.540000000000003</ele>
   </trkpt>
   <trkpt lat="63.13058" lon="7.7381">
    <ele>27.06</ele>
   </trkpt>
   <trkpt lat="63.130610000000004" lon="7.73833">
    <ele>27.8</ele>
   </trkpt>
   <trkpt lat="63.13073000000001" lon="7.738640000000001">
    <ele>31.630000000000006</ele>
   </trkpt>
   <trkpt lat="63.130840000000006" lon="7.738650000000001">
    <ele>35.85</ele>
   </trkpt>
   <trkpt lat="63.13087000000001" lon="7.7385600000000005">
    <ele>36.69</ele>
   </trkpt>
   <trkpt lat="63.13076" lon="7.738060000000001">
    <ele>38.32</ele>
   </trkpt>
   <trkpt lat="63.130720000000004" lon="7.73683">
    <ele>34.080000000000005</ele>
   </trkpt>
   <trkpt lat="63.130720000000004" lon="7.736250000000001">
    <ele>34.85000000000001</ele>
   </trkpt>
   <trkpt lat="63.13076" lon="7.73568">
    <ele>32.730000000000004</ele>
   </trkpt>
   <trkpt lat="63.130900000000004" lon="7.73512">
    <ele>27.12</ele>
   </trkpt>
   <trkpt lat="63.130950000000006" lon="7.7346900000000005">
    <ele>22.480000000000004</ele>
   </trkpt>
   <trkpt lat="63.13111000000001" lon="7.734730000000001">
    <ele>16.150000000000002</ele>
   </trkpt>
   <trkpt lat="63.131170000000004" lon="7.734560000000001">
    <ele>14.75</ele>
   </trkpt>
   <trkpt lat="63.13132" lon="7.7345500000000005">
    <ele>10.020000000000001</ele>
   </trkpt>
   <trkpt lat="63.13149000000001" lon="7.734350000000001">
    <ele>5.620000000000001</ele>
   </trkpt>
   <trkpt lat="63.13165000000001" lon="7.733820000000001">
    <ele>5.090000000000001</ele>
   </trkpt>
   <trkpt lat="63.131780000000006" lon="7.733550000000001">
    <ele>5.17</ele>
   </trkpt>
   <trkpt lat="63.13188" lon="7.7335">
    <ele>5.3500000000000005</ele>
   </trkpt>
   <trkpt lat="63.131890000000006" lon="7.7335">
    <ele>5.3500000000000005</ele>
   </trkpt>
   <trkpt lat="63.131980000000006" lon="7.733650000000001">
    <ele>5.32</ele>
   </trkpt>
   <trkpt lat="63.132020000000004" lon="7.733930000000001">
    <ele>5.090000000000001</ele>
   </trkpt>
   <trkpt lat="63.132020000000004" lon="7.734120000000001">
    <ele>4.61</ele>
   </trkpt>
   <trkpt lat="63.132360000000006" lon="7.73528">
    <ele>5.25</ele>
   </trkpt>
   <trkpt lat="63.132400000000004" lon="7.735310000000001">
    <ele>5.3500000000000005</ele>
   </trkpt>
   <trkpt lat="63.132580000000004" lon="7.73533">
    <ele>6.410000000000001</ele>
   </trkpt>
   <trkpt lat="63.13271" lon="7.7354">
    <ele>6.61</ele>
   </trkpt>
   <trkpt lat="63.13279000000001" lon="7.735500000000001">
    <ele>6.59</ele>
   </trkpt>
   <trkpt lat="63.13286000000001" lon="7.735850000000001">
    <ele>6.33</ele>
   </trkpt>
   <trkpt lat="63.13284" lon="7.736040000000001">
    <ele>6.25</ele>
   </trkpt>
   <trkpt lat="63.132940000000005" lon="7.736560000000001">
    <ele>6.390000000000001</ele>
   </trkpt>
   <trkpt lat="63.13289" lon="7.7366600000000005">
    <ele>6.23</ele>
   </trkpt>
   <trkpt lat="63.132810000000006" lon="7.736750000000001">
    <ele>6.19</ele>
   </trkpt>
   <trkpt lat="63.132780000000004" lon="7.736980000000001">
    <ele>6.55</ele>
   </trkpt>
   <trkpt lat="63.13266000000001" lon="7.737220000000001">
    <ele>6.99</ele>
   </trkpt>
   <trkpt lat="63.13268000000001" lon="7.73739">
    <ele>7.08</ele>
   </trkpt>
   <trkpt lat="63.13279000000001" lon="7.737690000000001">
    <ele>7.8500000000000005</ele>
   </trkpt>
   <trkpt lat="63.133" lon="7.73817">
    <ele>9.56</ele>
   </trkpt>
   <trkpt lat="63.13308000000001" lon="7.738550000000001">
    <ele>14.030000000000001</ele>
   </trkpt>
   <trkpt lat="63.13309" lon="7.7389600000000005">
    <ele>16.43</ele>
   </trkpt>
   <trkpt lat="63.133140000000004" lon="7.739180000000001">
    <ele>17.45</ele>
   </trkpt>
   <trkpt lat="63.133160000000004" lon="7.739350000000001">
    <ele>17.42</ele>
   </trkpt>
   <trkpt lat="63.13313000000001" lon="7.739720000000001">
    <ele>16.130000000000003</ele>
   </trkpt>
   <trkpt lat="63.13318" lon="7.74028">
    <ele>11.8</ele>
   </trkpt>
   <trkpt lat="63.13335000000001" lon="7.740670000000001">
    <ele>11.18</ele>
   </trkpt>
   <trkpt lat="63.133370000000006" lon="7.741130000000001">
    <ele>11.66</ele>
   </trkpt>
   <trkpt lat="63.13353000000001" lon="7.741840000000001">
    <ele>11.780000000000001</ele>
   </trkpt>
   <trkpt lat="63.133570000000006" lon="7.742170000000001">
    <ele>11.83</ele>
   </trkpt>
   <trkpt lat="63.133570000000006" lon="7.742280000000001">
    <ele>11.510000000000002</ele>
   </trkpt>
   <trkpt lat="63.13356" lon="7.742300000000001">
    <ele>11.38</ele>
   </trkpt>
   <trkpt lat="63.133410000000005" lon="7.742570000000001">
    <ele>9.53</ele>
   </trkpt>
   <trkpt lat="63.13336" lon="7.74253">
    <ele>9.39</ele>
   </trkpt>
   <trkpt lat="63.133300000000006" lon="7.742380000000001">
    <ele>9.7</ele>
   </trkpt>
   <trkpt lat="63.133190000000006" lon="7.742380000000001">
    <ele>10.780000000000001</ele>
   </trkpt>
   <trkpt lat="63.13306000000001" lon="7.7421500000000005">
    <ele>11.330000000000002</ele>
   </trkpt>
   <trkpt lat="63.13299000000001" lon="7.74218">
    <ele>10.71</ele>
   </trkpt>
   <trkpt lat="63.132780000000004" lon="7.742090000000001">
    <ele>9.19</ele>
   </trkpt>
   <trkpt lat="63.13266000000001" lon="7.741860000000001">
    <ele>9.74</ele>
   </trkpt>
   <trkpt lat="63.13239000000001" lon="7.741820000000001">
    <ele>9.45</ele>
   </trkpt>
   <trkpt lat="63.132220000000004" lon="7.7417300000000004">
    <ele>9.250000000000002</ele>
   </trkpt>
   <trkpt lat="63.132090000000005" lon="7.7416100000000005">
    <ele>9.520000000000001</ele>
   </trkpt>
   <trkpt lat="63.132000000000005" lon="7.741620000000001">
    <ele>10.08</ele>
   </trkpt>
   <trkpt lat="63.131840000000004" lon="7.741820000000001">
    <ele>10.040000000000001</ele>
   </trkpt>
   <trkpt lat="63.13174000000001" lon="7.741820000000001">
    <ele>10.14</ele>
   </trkpt>
   <trkpt lat="63.1317" lon="7.741880000000001">
    <ele>10.14</ele>
   </trkpt>
   <trkpt lat="63.13143" lon="7.74253">
    <ele>10.51</ele>
   </trkpt>
   <trkpt lat="63.131280000000004" lon="7.74274">
    <ele>11.500000000000002</ele>
   </trkpt>
   <trkpt lat="63.13118000000001" lon="7.7428300000000005">
    <ele>10.780000000000001</ele>
   </trkpt>
   <trkpt lat="63.13114" lon="7.7428300000000005">
    <ele>10.120000000000001</ele>
   </trkpt>
   <trkpt lat="63.131060000000005" lon="7.742910000000001">
    <ele>9.340000000000002</ele>
   </trkpt>
   <trkpt lat="63.13089000000001" lon="7.742840000000001">
    <ele>6.94</ele>
   </trkpt>
   <trkpt lat="63.130810000000004" lon="7.742850000000001">
    <ele>6.9</ele>
   </trkpt>
   <trkpt lat="63.13071000000001" lon="7.742900000000001">
    <ele>7.050000000000001</ele>
   </trkpt>
   <trkpt lat="63.130660000000006" lon="7.743">
    <ele>7.08</ele>
   </trkpt>
   <trkpt lat="63.130590000000005" lon="7.7430900000000005">
    <ele>6.7</ele>
   </trkpt>
   <trkpt lat="63.13047" lon="7.74319">
    <ele>5.07</ele>
   </trkpt>
   <trkpt lat="63.1304" lon="7.74321">
    <ele>4.800000000000001</ele>
   </trkpt>
   <trkpt lat="63.13033000000001" lon="7.743150000000001">
    <ele>4.51</ele>
   </trkpt>
   <trkpt lat="63.13022000000001" lon="7.742990000000001">
    <ele>4.7</ele>
   </trkpt>
   <trkpt lat="63.129960000000004" lon="7.742820000000001">
    <ele>6.19</ele>
   </trkpt>
   <trkpt lat="63.129870000000004" lon="7.742750000000001">
    <ele>6.180000000000001</ele>
   </trkpt>
   <trkpt lat="63.129830000000005" lon="7.742920000000001">
    <ele>4.3500000000000005</ele>
   </trkpt>
   <trkpt lat="63.129810000000006" lon="7.7430900000000005">
    <ele>4.3500000000000005</ele>
   </trkpt>
   <trkpt lat="63.12977000000001" lon="7.7433000000000005">
    <ele>5.03</ele>
   </trkpt>
   <trkpt lat="63.129690000000004" lon="7.743600000000001">
    <ele>7.38</ele>
   </trkpt>
   <trkpt lat="63.12937000000001" lon="7.744090000000001">
    <ele>11.74</ele>
   </trkpt>
   <trkpt lat="63.12930000000001" lon="7.744320000000001">
    <ele>11.410000000000002</ele>
   </trkpt>
   <trkpt lat="63.12915" lon="7.74448">
    <ele>12.85</ele>
   </trkpt>
   <trkpt lat="63.12903000000001" lon="7.744510000000001">
    <ele>13.53</ele>
   </trkpt>
   <trkpt lat="63.128890000000006" lon="7.7445">
    <ele>13.620000000000001</ele>
   </trkpt>
   <trkpt lat="63.12854000000001" lon="7.744460000000001">
    <ele>19.080000000000002</ele>
   </trkpt>
   <trkpt lat="63.12818000000001" lon="7.744470000000001">
    <ele>29.87</ele>
   </trkpt>
   <trkpt lat="63.128280000000004" lon="7.744860000000001">
    <ele>29.220000000000002</ele>
   </trkpt>
   <trkpt lat="63.128240000000005" lon="7.74502">
    <ele>28.12</ele>
   </trkpt>
   <trkpt lat="63.128190000000004" lon="7.745520000000001">
    <ele>27.380000000000003</ele>
   </trkpt>
   <trkpt lat="63.128130000000006" lon="7.745690000000001">
    <ele>27.32</ele>
   </trkpt>
   <trkpt lat="63.12807000000001" lon="7.745760000000001">
    <ele>27.340000000000003</ele>
   </trkpt>
   <trkpt lat="63.12800000000001" lon="7.7458100000000005">
    <ele>27.340000000000003</ele>
   </trkpt>
   <trkpt lat="63.12794" lon="7.74591">
    <ele>27.23</ele>
   </trkpt>
   <trkpt lat="63.12794" lon="7.7460700000000005">
    <ele>26.85</ele>
   </trkpt>
   <trkpt lat="63.12800000000001" lon="7.746270000000001">
    <ele>26.03</ele>
   </trkpt>
   <trkpt lat="63.12812" lon="7.74647">
    <ele>25.16</ele>
   </trkpt>
   <trkpt lat="63.12814" lon="7.74666">
    <ele>24.93</ele>
   </trkpt>
   <trkpt lat="63.12798000000001" lon="7.747120000000001">
    <ele>24.8</ele>
   </trkpt>
   <trkpt lat="63.127860000000005" lon="7.74734">
    <ele>25.6</ele>
   </trkpt>
   <trkpt lat="63.127750000000006" lon="7.74769">
    <ele>25.75</ele>
   </trkpt>
   <trkpt lat="63.12767" lon="7.747800000000001">
    <ele>25.720000000000002</ele>
   </trkpt>
   <trkpt lat="63.12749" lon="7.7479000000000005">
    <ele>25.970000000000002</ele>
   </trkpt>
   <trkpt lat="63.127280000000006" lon="7.74807">
    <ele>26.27</ele>
   </trkpt>
   <trkpt lat="63.127100000000006" lon="7.748460000000001">
    <ele>25.69</ele>
   </trkpt>
   <trkpt lat="63.126920000000005" lon="7.748660000000001">
    <ele>25.1</ele>
   </trkpt>
   <trkpt lat="63.126540000000006" lon="7.7494000000000005">
    <ele>23.700000000000003</ele>
   </trkpt>
   <trkpt lat="63.12644" lon="7.749930000000001">
    <ele>22.13</ele>
   </trkpt>
   <trkpt lat="63.126160000000006" lon="7.75093">
    <ele>17.46</ele>
   </trkpt>
   <trkpt lat="63.12597" lon="7.751240000000001">
    <ele>17.470000000000002</ele>
   </trkpt>
   <trkpt lat="63.12583000000001" lon="7.751530000000001">
    <ele>16.96</ele>
   </trkpt>
   <trkpt lat="63.125780000000006" lon="7.752000000000001">
    <ele>12.870000000000001</ele>
   </trkpt>
   <trkpt lat="63.12568" lon="7.752720000000001">
    <ele>7.61</ele>
   </trkpt>
   <trkpt lat="63.12565000000001" lon="7.7532000000000005">
    <ele>4.5200000000000005</ele>
   </trkpt>
   <trkpt lat="63.125550000000004" lon="7.753260000000001">
    <ele>4.430000000000001</ele>
   </trkpt>
   <trkpt lat="63.125460000000004" lon="7.75311">
    <ele>4.9</ele>
   </trkpt>
   <trkpt lat="63.125080000000004" lon="7.752650000000001">
    <ele>5.66</ele>
   </trkpt>
   <trkpt lat="63.124320000000004" lon="7.752770000000001">
    <ele>6.390000000000001</ele>
   </trkpt>
   <trkpt lat="63.12409" lon="7.752720000000001">
    <ele>6.390000000000001</ele>
   </trkpt>
   <trkpt lat="63.123830000000005" lon="7.752730000000001">
    <ele>6.85</ele>
   </trkpt>
   <trkpt lat="63.12357000000001" lon="7.752800000000001">
    <ele>6.91</ele>
   </trkpt>
   <trkpt lat="63.12350000000001" lon="7.752870000000001">
    <ele>6.94</ele>
   </trkpt>
   <trkpt lat="63.12342" lon="7.753010000000001">
    <ele>6.99</ele>
   </trkpt>
   <trkpt lat="63.123025004183766" lon="7.754105014993205">
    <ele>7.19</ele>
   </trkpt>
   <trkpt lat="63.12263000000001" lon="7.7552">
    <ele>6.620000000000001</ele>
   </trkpt>
   <trkpt lat="63.12261" lon="7.75534">
    <ele>6.5</ele>
   </trkpt>
   <trkpt lat="63.12261" lon="7.755330000000001">
    <ele>6.5</ele>
   </trkpt>
   <trkpt lat="63.122710000000005" lon="7.756330000000001">
    <ele>6.0</ele>
   </trkpt>
   <trkpt lat="63.12276000000001" lon="7.7563200000000005">
    <ele>6.0</ele>
   </trkpt>
   <trkpt lat="63.122800000000005" lon="7.75642">
    <ele>6.3500000000000005</ele>
   </trkpt>
   <trkpt lat="63.122890000000005" lon="7.75649">
    <ele>6.55</ele>
   </trkpt>
   <trkpt lat="63.123090000000005" lon="7.756800000000001">
    <ele>7.57</ele>
   </trkpt>
   <trkpt lat="63.12319000000001" lon="7.757180000000001">
    <ele>9.510000000000002</ele>
   </trkpt>
   <trkpt lat="63.123430000000006" lon="7.759030000000001">
    <ele>10.96</ele>
   </trkpt>
   <trkpt lat="63.12346000000001" lon="7.7591600000000005">
    <ele>10.370000000000001</ele>
   </trkpt>
   <trkpt lat="63.12353" lon="7.759270000000001">
    <ele>10.370000000000001</ele>
   </trkpt>
   <trkpt lat="63.124080000000006" lon="7.75947">
    <ele>9.55</ele>
   </trkpt>
   <trkpt lat="63.124430000000004" lon="7.759570000000001">
    <ele>8.73</ele>
   </trkpt>
   <trkpt lat="63.12474" lon="7.759600000000001">
    <ele>7.9300000000000015</ele>
   </trkpt>
   <trkpt lat="63.12492" lon="7.75966">
    <ele>6.920000000000001</ele>
   </trkpt>
   <trkpt lat="63.125080000000004" lon="7.7597700000000005">
    <ele>6.2700000000000005</ele>
   </trkpt>
   <trkpt lat="63.125350000000005" lon="7.759850000000001">
    <ele>5.410000000000001</ele>
   </trkpt>
   <trkpt lat="63.12554000000001" lon="7.75994">
    <ele>5.2700000000000005</ele>
   </trkpt>
   <trkpt lat="63.125730000000004" lon="7.760090000000001">
    <ele>5.44</ele>
   </trkpt>
   <trkpt lat="63.12599000000001" lon="7.760420000000001">
    <ele>6.3100000000000005</ele>
   </trkpt>
   <trkpt lat="63.12614000000001" lon="7.760700000000001">
    <ele>7.16</ele>
   </trkpt>
   <trkpt lat="63.126340000000006" lon="7.761210000000001">
    <ele>9.72</ele>
   </trkpt>
   <trkpt lat="63.12641000000001" lon="7.76144">
    <ele>9.72</ele>
   </trkpt>
   <trkpt lat="63.126540000000006" lon="7.7622100000000005">
    <ele>11.48</ele>
   </trkpt>
   <trkpt lat="63.126630000000006" lon="7.7628200000000005">
    <ele>13.930000000000001</ele>
   </trkpt>
   <trkpt lat="63.126800003628674" lon="7.763824994557679">
    <ele>18.97</ele>
   </trkpt>
   <trkpt lat="63.12697000000001" lon="7.764830000000001">
    <ele>21.87</ele>
   </trkpt>
   <trkpt lat="63.12698" lon="7.765140000000001">
    <ele>23.12</ele>
   </trkpt>
   <trkpt lat="63.126960000000004" lon="7.765600000000001">
    <ele>23.880000000000003</ele>
   </trkpt>
   <trkpt lat="63.12709" lon="7.7657300000000005">
    <ele>24.450000000000003</ele>
   </trkpt>
   <trkpt lat="63.12718" lon="7.765960000000001">
    <ele>25.11</ele>
   </trkpt>
   <trkpt lat="63.127230000000004" lon="7.76625">
    <ele>26.310000000000002</ele>
   </trkpt>
   <trkpt lat="63.12722000000001" lon="7.766640000000001">
    <ele>29.470000000000002</ele>
   </trkpt>
   <trkpt lat="63.127280000000006" lon="7.767030000000001">
    <ele>31.12</ele>
   </trkpt>
   <trkpt lat="63.127230000000004" lon="7.767440000000001">
    <ele>31.630000000000006</ele>
   </trkpt>
   <trkpt lat="63.12727" lon="7.767810000000001">
    <ele>31.68</ele>
   </trkpt>
   <trkpt lat="63.12735000000001" lon="7.768260000000001">
    <ele>31.42</ele>
   </trkpt>
   <trkpt lat="63.12747" lon="7.768580000000001">
    <ele>31.98</ele>
   </trkpt>
   <trkpt lat="63.12742000000001" lon="7.768910000000001">
    <ele>33.080000000000005</ele>
   </trkpt>
   <trkpt lat="63.127520000000004" lon="7.769330000000001">
    <ele>34.120000000000005</ele>
   </trkpt>
   <trkpt lat="63.127660000000006" lon="7.770300000000001">
    <ele>34.71</ele>
   </trkpt>
   <trkpt lat="63.12783" lon="7.770830000000001">
    <ele>34.660000000000004</ele>
   </trkpt>
   <trkpt lat="63.127750000000006" lon="7.771450000000001">
    <ele>37.74</ele>
   </trkpt>
   <trkpt lat="63.127900000000004" lon="7.7727">
    <ele>37.900000000000006</ele>
   </trkpt>
   <trkpt lat="63.128040000000006" lon="7.7730500000000005">
    <ele>37.45</ele>
   </trkpt>
   <trkpt lat="63.128150000000005" lon="7.773090000000001">
    <ele>34.940000000000005</ele>
   </trkpt>
   <trkpt lat="63.12825000000001" lon="7.773040000000001">
    <ele>31.900000000000006</ele>
   </trkpt>
   <trkpt lat="63.12838000000001" lon="7.773000000000001">
    <ele>28.040000000000003</ele>
   </trkpt>
   <trkpt lat="63.12843000000001" lon="7.772900000000001">
    <ele>28.040000000000003</ele>
   </trkpt>
   <trkpt lat="63.12848" lon="7.772870000000001">
    <ele>27.470000000000002</ele>
   </trkpt>
   <trkpt lat="63.12861" lon="7.773130000000001">
    <ele>26.520000000000003</ele>
   </trkpt>
   <trkpt lat="63.1287" lon="7.773540000000001">
    <ele>26.730000000000004</ele>
   </trkpt>
   <trkpt lat="63.12895500319983" lon="7.774504991233848">
    <ele>29.43</ele>
   </trkpt>
   <trkpt lat="63.12921000000001" lon="7.77547">
    <ele>29.35</ele>
   </trkpt>
   <trkpt lat="63.129310000000004" lon="7.776050000000001">
    <ele>28.32</ele>
   </trkpt>
   <trkpt lat="63.129310000000004" lon="7.77641">
    <ele>28.23</ele>
   </trkpt>
   <trkpt lat="63.12964" lon="7.778060000000001">
    <ele>41.230000000000004</ele>
   </trkpt>
   <trkpt lat="63.12987000637622" lon="7.779404989410838">
    <ele>45.57000000000001</ele>
   </trkpt>
   <trkpt lat="63.130100000000006" lon="7.78075">
    <ele>46.46</ele>
   </trkpt>
   <trkpt lat="63.130230000000005" lon="7.781210000000001">
    <ele>46.86000000000001</ele>
   </trkpt>
   <trkpt lat="63.130300000000005" lon="7.781550000000001">
    <ele>47.74</ele>
   </trkpt>
   <trkpt lat="63.13045" lon="7.781980000000001">
    <ele>46.53</ele>
   </trkpt>
   <trkpt lat="63.13047" lon="7.7823400000000005">
    <ele>44.21000000000001</ele>
   </trkpt>
   <trkpt lat="63.130680000000005" lon="7.783640000000001">
    <ele>41.870000000000005</ele>
   </trkpt>
   <trkpt lat="63.130790000000005" lon="7.784120000000001">
    <ele>40.67</ele>
   </trkpt>
   <trkpt lat="63.130790000000005" lon="7.784420000000001">
    <ele>39.150000000000006</ele>
   </trkpt>
   <trkpt lat="63.13076" lon="7.784730000000001">
    <ele>36.32000000000001</ele>
   </trkpt>
   <trkpt lat="63.13080000000001" lon="7.78516">
    <ele>28.78</ele>
   </trkpt>
   <trkpt lat="63.130790000000005" lon="7.78537">
    <ele>25.77</ele>
   </trkpt>
   <trkpt lat="63.13091000000001" lon="7.786150000000001">
    <ele>26.02</ele>
   </trkpt>
   <trkpt lat="63.131040000000006" lon="7.7862100000000005">
    <ele>28.53</ele>
   </trkpt>
   <trkpt lat="63.131080000000004" lon="7.786390000000001">
    <ele>31.03</ele>
   </trkpt>
   <trkpt lat="63.13114" lon="7.786490000000001">
    <ele>32.18</ele>
   </trkpt>
   <trkpt lat="63.131280000000004" lon="7.786200000000001">
    <ele>34.45</ele>
   </trkpt>
   <trkpt lat="63.131370000000004" lon="7.785950000000001">
    <ele>33.54</ele>
   </trkpt>
   <trkpt lat="63.131440000000005" lon="7.78591">
    <ele>34.49</ele>
   </trkpt>
   <trkpt lat="63.13156000000001" lon="7.78633">
    <ele>39.370000000000005</ele>
   </trkpt>
   <trkpt lat="63.13159" lon="7.7865">
    <ele>34.64</ele>
   </trkpt>
   <trkpt lat="63.13163000000001" lon="7.786550000000001">
    <ele>34.64</ele>
   </trkpt>
   <trkpt lat="63.131640000000004" lon="7.786550000000001">
    <ele>34.64</ele>
   </trkpt>
   <trkpt lat="63.13167000000001" lon="7.78652">
    <ele>33.17</ele>
   </trkpt>
   <trkpt lat="63.1317" lon="7.78645">
    <ele>33.17</ele>
   </trkpt>
   <trkpt lat="63.13167000000001" lon="7.786320000000001">
    <ele>39.690000000000005</ele>
   </trkpt>
   <trkpt lat="63.131550000000004" lon="7.785260000000001">
    <ele>25.68</ele>
   </trkpt>
   <trkpt lat="63.13149000000001" lon="7.7849">
    <ele>20.84</ele>
   </trkpt>
   <trkpt lat="63.13159" lon="7.7844500000000005">
    <ele>16.5</ele>
   </trkpt>
   <trkpt lat="63.13159" lon="7.784260000000001">
    <ele>12.860000000000001</ele>
   </trkpt>
   <trkpt lat="63.131660000000004" lon="7.784110000000001">
    <ele>11.340000000000002</ele>
   </trkpt>
   <trkpt lat="63.13167000000001" lon="7.7838400000000005">
    <ele>9.290000000000001</ele>
   </trkpt>
   <trkpt lat="63.131640000000004" lon="7.783270000000001">
    <ele>6.73</ele>
   </trkpt>
   <trkpt lat="63.13156000000001" lon="7.782990000000001">
    <ele>5.390000000000001</ele>
   </trkpt>
   <trkpt lat="63.131510000000006" lon="7.7825500000000005">
    <ele>4.48</ele>
   </trkpt>
   <trkpt lat="63.13149000000001" lon="7.782030000000001">
    <ele>5.010000000000001</ele>
   </trkpt>
   <trkpt lat="63.1315" lon="7.781460000000001">
    <ele>5.760000000000001</ele>
   </trkpt>
   <trkpt lat="63.13141" lon="7.781060000000001">
    <ele>7.490000000000001</ele>
   </trkpt>
   <trkpt lat="63.131350000000005" lon="7.78056">
    <ele>8.71</ele>
   </trkpt>
   <trkpt lat="63.131130000000006" lon="7.77932">
    <ele>6.94</ele>
   </trkpt>
   <trkpt lat="63.13100000000001" lon="7.779100000000001">
    <ele>5.66</ele>
   </trkpt>
   <trkpt lat="63.130860000000006" lon="7.778530000000001">
    <ele>4.83</ele>
   </trkpt>
   <trkpt lat="63.130750000000006" lon="7.778290000000001">
    <ele>5.260000000000001</ele>
   </trkpt>
   <trkpt lat="63.13064000000001" lon="7.77789">
    <ele>4.78</ele>
   </trkpt>
   <trkpt lat="63.13045" lon="7.777360000000001">
    <ele>5.140000000000001</ele>
   </trkpt>
   <trkpt lat="63.13036" lon="7.77723">
    <ele>6.2</ele>
   </trkpt>
   <trkpt lat="63.130300000000005" lon="7.776770000000001">
    <ele>8.8</ele>
   </trkpt>
   <trkpt lat="63.130010000000006" lon="7.775690000000001">
    <ele>8.74</ele>
   </trkpt>
   <trkpt lat="63.13008000000001" lon="7.775370000000001">
    <ele>8.31</ele>
   </trkpt>
   <trkpt lat="63.13008000000001" lon="7.774940000000001">
    <ele>8.450000000000001</ele>
   </trkpt>
   <trkpt lat="63.13004000000001" lon="7.774610000000001">
    <ele>8.85</ele>
   </trkpt>
   <trkpt lat="63.129960000000004" lon="7.774420000000001">
    <ele>9.15</ele>
   </trkpt>
   <trkpt lat="63.129690000000004" lon="7.773340000000001">
    <ele>8.97</ele>
   </trkpt>
   <trkpt lat="63.1296" lon="7.773210000000001">
    <ele>10.64</ele>
   </trkpt>
   <trkpt lat="63.129470000000005" lon="7.772690000000001">
    <ele>9.61</ele>
   </trkpt>
   <trkpt lat="63.12924" lon="7.772100000000001">
    <ele>11.860000000000001</ele>
   </trkpt>
   <trkpt lat="63.129020000000004" lon="7.771020000000001">
    <ele>11.860000000000001</ele>
   </trkpt>
   <trkpt lat="63.128890000000006" lon="7.77073">
    <ele>12.090000000000002</ele>
   </trkpt>
   <trkpt lat="63.12877" lon="7.770600000000001">
    <ele>12.21</ele>
   </trkpt>
   <trkpt lat="63.12861" lon="7.770490000000001">
    <ele>13.55</ele>
   </trkpt>
   <trkpt lat="63.12845000000001" lon="7.770290000000001">
    <ele>16.150000000000002</ele>
   </trkpt>
   <trkpt lat="63.12825000000001" lon="7.770270000000001">
    <ele>18.47</ele>
   </trkpt>
   <trkpt lat="63.12800000000001" lon="7.769990000000001">
    <ele>24.28</ele>
   </trkpt>
   <trkpt lat="63.12787000000001" lon="7.769750000000001">
    <ele>26.560000000000002</ele>
   </trkpt>
   <trkpt lat="63.12774" lon="7.76972">
    <ele>30.150000000000002</ele>
   </trkpt>
   <trkpt lat="63.127610000000004" lon="7.7694600000000005">
    <ele>32.81</ele>
   </trkpt>
   <trkpt lat="63.127520000000004" lon="7.769330000000001">
    <ele>33.84</ele>
   </trkpt>
   <trkpt lat="63.12742000000001" lon="7.768910000000001">
    <ele>33.080000000000005</ele>
   </trkpt>
   <trkpt lat="63.12747" lon="7.768580000000001">
    <ele>32.220000000000006</ele>
   </trkpt>
   <trkpt lat="63.12735000000001" lon="7.768260000000001">
    <ele>31.42</ele>
   </trkpt>
   <trkpt lat="63.12727" lon="7.767810000000001">
    <ele>31.68</ele>
   </trkpt>
   <trkpt lat="63.127230000000004" lon="7.767440000000001">
    <ele>31.630000000000006</ele>
   </trkpt>
   <trkpt lat="63.127280000000006" lon="7.767030000000001">
    <ele>31.12</ele>
   </trkpt>
   <trkpt lat="63.12722000000001" lon="7.766640000000001">
    <ele>29.470000000000002</ele>
   </trkpt>
   <trkpt lat="63.127230000000004" lon="7.76625">
    <ele>26.310000000000002</ele>
   </trkpt>
   <trkpt lat="63.127190000000006" lon="7.766030000000001">
    <ele>25.11</ele>
   </trkpt>
   <trkpt lat="63.12709" lon="7.7657300000000005">
    <ele>24.450000000000003</ele>
   </trkpt>
   <trkpt lat="63.12691" lon="7.76557">
    <ele>23.78</ele>
   </trkpt>
   <trkpt lat="63.12693000000001" lon="7.76498">
    <ele>22.69</ele>
   </trkpt>
   <trkpt lat="63.12691" lon="7.764730000000001">
    <ele>21.68</ele>
   </trkpt>
   <trkpt lat="63.12686000000001" lon="7.76442">
    <ele>20.740000000000002</ele>
   </trkpt>
   <trkpt lat="63.12657000000001" lon="7.7628">
    <ele>13.23</ele>
   </trkpt>
   <trkpt lat="63.12648000000001" lon="7.7620700000000005">
    <ele>10.97</ele>
   </trkpt>
   <trkpt lat="63.126360000000005" lon="7.76149">
    <ele>8.84</ele>
   </trkpt>
   <trkpt lat="63.126160000000006" lon="7.760890000000001">
    <ele>6.580000000000001</ele>
   </trkpt>
   <trkpt lat="63.12615" lon="7.76088">
    <ele>6.580000000000001</ele>
   </trkpt>
   <trkpt lat="63.12599000000001" lon="7.760560000000001">
    <ele>5.51</ele>
   </trkpt>
   <trkpt lat="63.12585000000001" lon="7.760350000000001">
    <ele>4.61</ele>
   </trkpt>
   <trkpt lat="63.1257" lon="7.760180000000001">
    <ele>4.34</ele>
   </trkpt>
   <trkpt lat="63.125550000000004" lon="7.760050000000001">
    <ele>4.090000000000001</ele>
   </trkpt>
   <trkpt lat="63.12539" lon="7.759970000000001">
    <ele>4.04</ele>
   </trkpt>
   <trkpt lat="63.12494" lon="7.759810000000001">
    <ele>5.21</ele>
   </trkpt>
   <trkpt lat="63.12435000000001" lon="7.759670000000001">
    <ele>7.94</ele>
   </trkpt>
   <trkpt lat="63.124080000000006" lon="7.7595600000000005">
    <ele>8.6</ele>
   </trkpt>
   <trkpt lat="63.12351" lon="7.759390000000001">
    <ele>9.520000000000001</ele>
   </trkpt>
   <trkpt lat="63.12344" lon="7.759310000000001">
    <ele>9.8</ele>
   </trkpt>
   <trkpt lat="63.123380000000004" lon="7.759040000000001">
    <ele>10.47</ele>
   </trkpt>
   <trkpt lat="63.12317" lon="7.75736">
    <ele>9.780000000000001</ele>
   </trkpt>
   <trkpt lat="63.123110000000004" lon="7.757040000000001">
    <ele>8.55</ele>
   </trkpt>
   <trkpt lat="63.123050000000006" lon="7.75682">
    <ele>7.99</ele>
   </trkpt>
   <trkpt lat="63.122930000000004" lon="7.756620000000001">
    <ele>7.12</ele>
   </trkpt>
   <trkpt lat="63.122820000000004" lon="7.756530000000001">
    <ele>6.37</ele>
   </trkpt>
   <trkpt lat="63.122710000000005" lon="7.756480000000001">
    <ele>5.960000000000001</ele>
   </trkpt>
   <trkpt lat="63.122440000000005" lon="7.75656">
    <ele>5.450000000000001</ele>
   </trkpt>
   <trkpt lat="63.122310000000006" lon="7.756570000000001">
    <ele>5.010000000000001</ele>
   </trkpt>
   <trkpt lat="63.12219" lon="7.756550000000001">
    <ele>4.81</ele>
   </trkpt>
   <trkpt lat="63.12167" lon="7.7563">
    <ele>4.9799999999999995</ele>
   </trkpt>
   <trkpt lat="63.121660000000006" lon="7.75642">
    <ele>4.930000000000001</ele>
   </trkpt>
   <trkpt lat="63.121610000000004" lon="7.756390000000001">
    <ele>5.24</ele>
   </trkpt>
   <trkpt lat="63.12158000000001" lon="7.756330000000001">
    <ele>5.2</ele>
   </trkpt>
   <trkpt lat="63.120940000000004" lon="7.756">
    <ele>8.64</ele>
   </trkpt>
   <trkpt lat="63.120400000000004" lon="7.7555000000000005">
    <ele>10.780000000000001</ele>
   </trkpt>
   <trkpt lat="63.12026" lon="7.755330000000001">
    <ele>11.53</ele>
   </trkpt>
   <trkpt lat="63.12013" lon="7.755050000000001">
    <ele>12.32</ele>
   </trkpt>
   <trkpt lat="63.11992000000001" lon="7.754390000000001">
    <ele>13.99</ele>
   </trkpt>
   <trkpt lat="63.11976000000001" lon="7.753940000000001">
    <ele>15.120000000000001</ele>
   </trkpt>
   <trkpt lat="63.119530000000005" lon="7.7535300000000005">
    <ele>16.810000000000002</ele>
   </trkpt>
   <trkpt lat="63.11938000000001" lon="7.753360000000001">
    <ele>17.59</ele>
   </trkpt>
   <trkpt lat="63.119130000000006" lon="7.752650000000001">
    <ele>18.78</ele>
   </trkpt>
   <trkpt lat="63.11914000000001" lon="7.75257">
    <ele>18.78</ele>
   </trkpt>
   <trkpt lat="63.11905000000001" lon="7.7522">
    <ele>19.28</ele>
   </trkpt>
   <trkpt lat="63.11898000000001" lon="7.75175">
    <ele>19.48</ele>
   </trkpt>
   <trkpt lat="63.11880000000001" lon="7.751950000000001">
    <ele>19.4</ele>
   </trkpt>
   <trkpt lat="63.118750000000006" lon="7.7522">
    <ele>19.970000000000002</ele>
   </trkpt>
   <trkpt lat="63.11854" lon="7.752530000000001">
    <ele>22.63</ele>
   </trkpt>
   <trkpt lat="63.118370000000006" lon="7.752720000000001">
    <ele>23.73</ele>
   </trkpt>
   <trkpt lat="63.11825" lon="7.752930000000001">
    <ele>24.73</ele>
   </trkpt>
   <trkpt lat="63.118210000000005" lon="7.75311">
    <ele>25.120000000000005</ele>
   </trkpt>
   <trkpt lat="63.118190000000006" lon="7.753570000000001">
    <ele>25.35</ele>
   </trkpt>
   <trkpt lat="63.118140000000004" lon="7.753830000000001">
    <ele>24.94</ele>
   </trkpt>
   <trkpt lat="63.117740000000005" lon="7.7551000000000005">
    <ele>19.51</ele>
   </trkpt>
   <trkpt lat="63.11753" lon="7.755660000000001">
    <ele>18.46</ele>
   </trkpt>
   <trkpt lat="63.11733" lon="7.756060000000001">
    <ele>17.07</ele>
   </trkpt>
   <trkpt lat="63.11693" lon="7.75513">
    <ele>15.870000000000001</ele>
   </trkpt>
   <trkpt lat="63.11651000789889" lon="7.753629978239316">
    <ele>11.72</ele>
   </trkpt>
   <trkpt lat="63.11609000000001" lon="7.752130000000001">
    <ele>10.820000000000002</ele>
   </trkpt>
   <trkpt lat="63.11598000000001" lon="7.75159">
    <ele>10.33</ele>
   </trkpt>
   <trkpt lat="63.115990000000004" lon="7.751600000000001">
    <ele>10.33</ele>
   </trkpt>
   <trkpt lat="63.115880000000004" lon="7.750570000000001">
    <ele>10.010000000000002</ele>
   </trkpt>
   <trkpt lat="63.11577501078215" lon="7.748819993729852">
    <ele>8.110000000000001</ele>
   </trkpt>
   <trkpt lat="63.11567000000001" lon="7.747070000000001">
    <ele>10.5</ele>
   </trkpt>
   <trkpt lat="63.115640000000006" lon="7.7460700000000005">
    <ele>7.630000000000001</ele>
   </trkpt>
   <trkpt lat="63.11562000000001" lon="7.74591">
    <ele>7.5600000000000005</ele>
   </trkpt>
   <trkpt lat="63.11545" lon="7.74537">
    <ele>7.36</ele>
   </trkpt>
   <trkpt lat="63.115300000000005" lon="7.74389">
    <ele>9.53</ele>
   </trkpt>
   <trkpt lat="63.11534" lon="7.74366">
    <ele>10.820000000000002</ele>
   </trkpt>
   <trkpt lat="63.115230000000004" lon="7.743040000000001">
    <ele>12.8</ele>
   </trkpt>
   <trkpt lat="63.11518" lon="7.742360000000001">
    <ele>15.09</ele>
   </trkpt>
   <trkpt lat="63.115230000000004" lon="7.74211">
    <ele>15.290000000000001</ele>
   </trkpt>
   <trkpt lat="63.11520000000001" lon="7.74197">
    <ele>15.110000000000001</ele>
   </trkpt>
   <trkpt lat="63.115210000000005" lon="7.741020000000001">
    <ele>15.070000000000002</ele>
   </trkpt>
   <trkpt lat="63.11527" lon="7.740690000000001">
    <ele>14.650000000000002</ele>
   </trkpt>
   <trkpt lat="63.11540000000001" lon="7.740570000000001">
    <ele>13.790000000000001</ele>
   </trkpt>
   <trkpt lat="63.11543" lon="7.7403900000000005">
    <ele>13.31</ele>
   </trkpt>
   <trkpt lat="63.11544000000001" lon="7.740050000000001">
    <ele>12.34</ele>
   </trkpt>
   <trkpt lat="63.115500000000004" lon="7.73995">
    <ele>10.63</ele>
   </trkpt>
   <trkpt lat="63.115480000000005" lon="7.7393600000000005">
    <ele>8.72</ele>
   </trkpt>
   <trkpt lat="63.115520000000004" lon="7.739190000000001">
    <ele>8.72</ele>
   </trkpt>
   <trkpt lat="63.11558000000001" lon="7.739140000000001">
    <ele>7.0200000000000005</ele>
   </trkpt>
   <trkpt lat="63.11558000000001" lon="7.73906">
    <ele>7.0200000000000005</ele>
   </trkpt>
   <trkpt lat="63.11581" lon="7.73892">
    <ele>5.32</ele>
   </trkpt>
   <trkpt lat="63.11580000000001" lon="7.738860000000001">
    <ele>4.96</ele>
   </trkpt>
   <trkpt lat="63.115680000000005" lon="7.738930000000001">
    <ele>4.17</ele>
   </trkpt>
   <trkpt lat="63.115660000000005" lon="7.738740000000001">
    <ele>3.98</ele>
   </trkpt>
   <trkpt lat="63.11592" lon="7.738580000000001">
    <ele>3.3200000000000003</ele>
   </trkpt>
   <trkpt lat="63.11623000000001" lon="7.738430000000001">
    <ele>3.6</ele>
   </trkpt>
   <trkpt lat="63.116400000000006" lon="7.738390000000001">
    <ele>3.6</ele>
   </trkpt>
   <trkpt lat="63.116580000000006" lon="7.738430000000001">
    <ele>3.89</ele>
   </trkpt>
   <trkpt lat="63.11681000000001" lon="7.73852">
    <ele>6.21</ele>
   </trkpt>
   <trkpt lat="63.11695" lon="7.73852">
    <ele>8.030000000000001</ele>
   </trkpt>
   <trkpt lat="63.117140000000006" lon="7.7384200000000005">
    <ele>11.38</ele>
   </trkpt>
   <trkpt lat="63.11730000000001" lon="7.738430000000001">
    <ele>13.72</ele>
   </trkpt>
   <trkpt lat="63.117700000000006" lon="7.73871">
    <ele>17.36</ele>
   </trkpt>
   <trkpt lat="63.117810000000006" lon="7.73887">
    <ele>17.830000000000002</ele>
   </trkpt>
   <trkpt lat="63.117900000000006" lon="7.739240000000001">
    <ele>18.98</ele>
   </trkpt>
   <trkpt lat="63.11797000000001" lon="7.739300000000001">
    <ele>19.12</ele>
   </trkpt>
   <trkpt lat="63.118080000000006" lon="7.73932">
    <ele>19.16</ele>
   </trkpt>
   <trkpt lat="63.118190000000006" lon="7.73955">
    <ele>18.660000000000004</ele>
   </trkpt>
   <trkpt lat="63.118280000000006" lon="7.73983">
    <ele>17.09</ele>
   </trkpt>
   <trkpt lat="63.11834" lon="7.739860000000001">
    <ele>16.76</ele>
   </trkpt>
   <trkpt lat="63.118280000000006" lon="7.738810000000001">
    <ele>14.08</ele>
   </trkpt>
   <trkpt lat="63.118280000000006" lon="7.7381400000000005">
    <ele>12.4</ele>
   </trkpt>
   <trkpt lat="63.11831000000001" lon="7.737820000000001">
    <ele>11.79</ele>
   </trkpt>
   <trkpt lat="63.118680000000005" lon="7.7363100000000005">
    <ele>8.75</ele>
   </trkpt>
   <trkpt lat="63.118900000000004" lon="7.735790000000001">
    <ele>8.46</ele>
   </trkpt>
   <trkpt lat="63.11903" lon="7.73554">
    <ele>8.58</ele>
   </trkpt>
   <trkpt lat="63.119150000000005" lon="7.735460000000001">
    <ele>8.94</ele>
   </trkpt>
   <trkpt lat="63.119350000000004" lon="7.735380000000001">
    <ele>9.65</ele>
   </trkpt>
   <trkpt lat="63.11966" lon="7.735460000000001">
    <ele>10.780000000000001</ele>
   </trkpt>
   <trkpt lat="63.11975" lon="7.735430000000001">
    <ele>10.780000000000001</ele>
   </trkpt>
   <trkpt lat="63.119820000000004" lon="7.7354">
    <ele>10.88</ele>
   </trkpt>
   <trkpt lat="63.11997" lon="7.73514">
    <ele>10.950000000000001</ele>
   </trkpt>
   <trkpt lat="63.120050000000006" lon="7.734750000000001">
    <ele>11.11</ele>
   </trkpt>
   <trkpt lat="63.120140000000006" lon="7.734430000000001">
    <ele>11.4</ele>
   </trkpt>
   <trkpt lat="63.12032000000001" lon="7.73345">
    <ele>12.290000000000001</ele>
   </trkpt>
   <trkpt lat="63.120560000000005" lon="7.73312">
    <ele>12.180000000000001</ele>
   </trkpt>
   <trkpt lat="63.12089" lon="7.732520000000001">
    <ele>10.72</ele>
   </trkpt>
   <trkpt lat="63.121190000000006" lon="7.732240000000001">
    <ele>10.200000000000001</ele>
   </trkpt>
   <trkpt lat="63.121460000000006" lon="7.731800000000001">
    <ele>9.61</ele>
   </trkpt>
   <trkpt lat="63.12171000000001" lon="7.73108">
    <ele>8.14</ele>
   </trkpt>
   <trkpt lat="63.121930000000006" lon="7.73071">
    <ele>7.8100000000000005</ele>
   </trkpt>
   <trkpt lat="63.122060000000005" lon="7.730430000000001">
    <ele>6.890000000000001</ele>
   </trkpt>
   <trkpt lat="63.12214" lon="7.730160000000001">
    <ele>6.53</ele>
   </trkpt>
   <trkpt lat="63.12220000000001" lon="7.72984">
    <ele>6.220000000000001</ele>
   </trkpt>
   <trkpt lat="63.12220000000001" lon="7.729380000000001">
    <ele>6.1000000000000005</ele>
   </trkpt>
   <trkpt lat="63.12218000000001" lon="7.72911">
    <ele>6.38</ele>
   </trkpt>
   <trkpt lat="63.12207000000001" lon="7.72841">
    <ele>8.23</ele>
   </trkpt>
   <trkpt lat="63.12207000000001" lon="7.728040000000001">
    <ele>9.55</ele>
   </trkpt>
   <trkpt lat="63.12212" lon="7.728000000000001">
    <ele>10.190000000000001</ele>
   </trkpt>
   <trkpt lat="63.12219" lon="7.727860000000001">
    <ele>11.21</ele>
   </trkpt>
   <trkpt lat="63.122420000000005" lon="7.727670000000001">
    <ele>12.17</ele>
   </trkpt>
   <trkpt lat="63.12227000000001" lon="7.727790000000001">
    <ele>11.21</ele>
   </trkpt>
   <trkpt lat="63.122420000000005" lon="7.72768">
    <ele>12.47</ele>
   </trkpt>
   <trkpt lat="63.12268" lon="7.72761">
    <ele>12.97</ele>
   </trkpt>
   <trkpt lat="63.122780000000006" lon="7.7277000000000005">
    <ele>13.030000000000001</ele>
   </trkpt>
   <trkpt lat="63.12310000000001" lon="7.728320000000001">
    <ele>13.840000000000002</ele>
   </trkpt>
   <trkpt lat="63.123250000000006" lon="7.7283100000000005">
    <ele>14.34</ele>
   </trkpt>
   <trkpt lat="63.123310000000004" lon="7.7283800000000005">
    <ele>14.34</ele>
   </trkpt>
   <trkpt lat="63.12341000000001" lon="7.728580000000001">
    <ele>14.68</ele>
   </trkpt>
   <trkpt lat="63.123645004813696" lon="7.729744990759012">
    <ele>16.86</ele>
   </trkpt>
   <trkpt lat="63.12388000000001" lon="7.730910000000001">
    <ele>17.68</ele>
   </trkpt>
   <trkpt lat="63.12415501116671" lon="7.732689983256177">
    <ele>20.73</ele>
   </trkpt>
   <trkpt lat="63.124430000000004" lon="7.734470000000001">
    <ele>21.040000000000003</ele>
   </trkpt>
   <trkpt lat="63.124480000000005" lon="7.734610000000001">
    <ele>20.96</ele>
   </trkpt>
   <trkpt lat="63.12451000000001" lon="7.734640000000001">
    <ele>20.96</ele>
   </trkpt>
   <trkpt lat="63.12444000000001" lon="7.73498">
    <ele>20.96</ele>
   </trkpt>
   <trkpt lat="63.12442000000001" lon="7.735200000000001">
    <ele>21.14</ele>
   </trkpt>
   <trkpt lat="63.12442000000001" lon="7.735710000000001">
    <ele>21.14</ele>
   </trkpt>
  </trkseg>
 </trk>
</gpx>
